Name,Address,Postcode,Telephone,Email,Inspections,"Opening Hours","Establishment website",Headteacher,Neighbourhood,"Eco-Schools status","More about the Eco-Schools programme",Type,Location
"Abbeyhill Primary School Nursery Class","Abbey Street","EH7 5SJ","0131 661 3054",Admin@Abbeyhill.edin.sch.uk,"<a href=""http://www.educationscotland.gov.uk/inspectionandreview/reports/school/index.asp"">Read Education Scotland's inspection reports</a>","Nurs 9am-11.35am, 12.30pm-3.05pm, FT 9am-3.05pm, P1-2 Mon-Thu, 8.55am-3.10pm, Fri 8.55am-12.25pm, P3-7 Mon-Thurs 8.54am-3.25pm, Fri 8.54am-12.25pm",http://www.abbeyhill.edin.sch.uk,"Sally Barker",North,Silver,"Read more about <a href=""http://www.edinburgh.gov.uk/ecoschools"">Eco Schools in Edinburgh</a>","Local Authority Non-Denominational Primary","55.9566671,-3.1691928"
"Arbor Green Nursery","22 Arboretum Avenue","EH4 1HP","0131 343 2345",info@arborgreennursery.com,"<a href=""http://www.educationscotland.gov.uk/inspectionandreview/reports/school/index.asp"">Read Education Scotland's inspection reports</a>",,http://www.arborgreennursery.com/,,North,"Green flag","Read more about <a href=""http://www.edinburgh.gov.uk/ecoschools"">Eco Schools in Edinburgh</a>","Private Day Nursery","55.959881,-3.2110617"
"Balgreen Nursery School","175 Balgreen Road","EH11 3AT","0131 337 1454",Admin@balgreen-nur.edin.sch.uk,"<a href=""http://www.educationscotland.gov.uk/inspectionandreview/reports/school/index.asp"">Read Education Scotland's inspection reports</a>","Mon-Fri, 8.55am-3.05pm",,"Jane Whinnett",West,Silver,"Read more about <a href=""http://www.edinburgh.gov.uk/ecoschools"">Eco Schools in Edinburgh</a>","Local Authority Nursery School","55.9364568,-3.2479517"
"Barnton Nursery","534 Queensferry Road","EH4 6EE","0131 339 6340",bothwellnurseries@live.co.uk,"<a href=""http://www.educationscotland.gov.uk/inspectionandreview/reports/school/index.asp"">Read Education Scotland's inspection reports</a>",,,,West,Registered,"Read more about <a href=""http://www.edinburgh.gov.uk/ecoschools"">Eco Schools in Edinburgh</a>","Private Day Nursery","55.9604817,-3.3018301"
"Blackhall Nursery","Ravelston Park Pavilion, Craig Crook Road","EH4 3RU","0131 332 8296",staff@blackhallnursery.fsnet.co.uk,"<a href=""http://www.educationscotland.gov.uk/inspectionandreview/reports/school/index.asp"">Read Education Scotland's inspection reports</a>",,,,West,"Green flag","Read more about <a href=""http://www.edinburgh.gov.uk/ecoschools"">Eco Schools in Edinburgh</a>","Playgroup or Part-Time Nursery","55.9555449,-3.2535591"
"Blossom Tree Nursery","2 Newtoft Street","EH17 8RE","0131 664 4944",info@blossomtree.org.uk,"<a href=""http://www.educationscotland.gov.uk/inspectionandreview/reports/school/index.asp"">Read Education Scotland's inspection reports</a>",,,,South,Registered,"Read more about <a href=""http://www.edinburgh.gov.uk/ecoschools"">Eco Schools in Edinburgh</a>","Private Day Nursery","55.9053041,-3.1352494"
"Bonaly Primary School Nursery Class","57 Bonaly Road","EH13 0FJ","0131 441 7211",Admin@Bonaly.edin.sch.uk,"<a href=""http://www.educationscotland.gov.uk/inspectionandreview/reports/school/index.asp"">Read Education Scotland's inspection reports</a>","Nurs 9am-11.35am, 12.30pm-3.05pm, FT 9am-3.05pm, P1-2 Mon-Thurs 8.55am-3.15pm, Fri 8.55am, P3-7 Mon-Thu 8.55am-3.30pm, Fri 8.55am-12.10pm",http://www.bonaly.edin.sch.uk,"Laurinda Ramage","South West",Silver,"Read more about <a href=""http://www.edinburgh.gov.uk/ecoschools"">Eco Schools in Edinburgh</a>","Local Authority Non-Denominational Primary","55.9005102,-3.2595063"
"Bonnington House Nursery","159 Newhaven Road","EH6 4QA",,admin@bonningtonhousenursery.co.uk,"<a href=""http://www.educationscotland.gov.uk/inspectionandreview/reports/school/index.asp"">Read Education Scotland's inspection reports</a>",,,,North,Registered,"Read more about <a href=""http://www.edinburgh.gov.uk/ecoschools"">Eco Schools in Edinburgh</a>","Private Day Nursery","55.9760392,-3.193071"
"Bright Horizons Family Solutions - Annandale","Annandale Street Lane","EH7 4LS","0131 557 5567",annandale@brighthorizons.com,"<a href=""http://www.educationscotland.gov.uk/inspectionandreview/reports/school/index.asp"">Read Education Scotland's inspection reports</a>",,,,North,Silver,"Read more about <a href=""http://www.edinburgh.gov.uk/ecoschools"">Eco Schools in Edinburgh</a>","Private Day Nursery","55.9605185,-3.1830317"
"Bright Horizons Family Solutions - Bruntsfield","7 Blantyre Terrace, Bruntsfield","EH10 5AD","0131 447 9797",bruntsfield@brighthorizons.com,"<a href=""http://www.educationscotland.gov.uk/inspectionandreview/reports/school/index.asp"">Read Education Scotland's inspection reports</a>",,,,South,Silver,"Read more about <a href=""http://www.edinburgh.gov.uk/ecoschools"">Eco Schools in Edinburgh</a>","Private Day Nursery","55.9343227,-3.2129984"
"Bright Horizons Family Solutions - Cramond","26 Whitehouse Road","EH4 6PH","0131 336 3222",cramond@brighthorizons.com,"<a href=""http://www.educationscotland.gov.uk/inspectionandreview/reports/school/index.asp"">Read Education Scotland's inspection reports</a>",,,,West,Silver,"Read more about <a href=""http://www.edinburgh.gov.uk/ecoschools"">Eco Schools in Edinburgh</a>","Private Day Nursery","55.9753478,-3.3010472"
"Bright Horizons Family Solutions - Elsie Inglis","1 Waverley Park, Spring Gardens","EH8 8EW","0131 661 8551",elsies@brighthorizons.com,"<a href=""http://www.educationscotland.gov.uk/inspectionandreview/reports/school/index.asp"">Read Education Scotland's inspection reports</a>",,,,North,Silver,"Read more about <a href=""http://www.edinburgh.gov.uk/ecoschools"">Eco Schools in Edinburgh</a>","Private Day Nursery","55.9551571,-3.1656224"
"Bright Horizons Family Solutions - MMF","Morton Mains Farmhouse, 37 Winton Loan","EH10 7AW","0131 445 4450",morton@brighthorizons.com,"<a href=""http://www.educationscotland.gov.uk/inspectionandreview/reports/school/index.asp"">Read Education Scotland's inspection reports</a>",,,,South,"Green flag","Read more about <a href=""http://www.edinburgh.gov.uk/ecoschools"">Eco Schools in Edinburgh</a>","Private Day Nursery","55.8955369,-3.1925311"
"Bright Horizons Family Solutions - RBS Gogarburn","Gogarburn Station Road,  PO Box 1000,, Gogarburn","EH12 1HQ","0131 626 4200",rbsnursery@brighthorizons.com,"<a href=""http://www.educationscotland.gov.uk/inspectionandreview/reports/school/index.asp"">Read Education Scotland's inspection reports</a>",,,,West,"Green flag","Read more about <a href=""http://www.edinburgh.gov.uk/ecoschools"">Eco Schools in Edinburgh</a>","Private Day Nursery","55.9433107,-3.2326691"
"Bright Horizons Family Solutions - Rutland Square","4A Rutland Square","EH1 2AS","0131 229 8888",rutland@brighthorizons.com,"<a href=""http://www.educationscotland.gov.uk/inspectionandreview/reports/school/index.asp"">Read Education Scotland's inspection reports</a>",,,,South,Silver,"Read more about <a href=""http://www.edinburgh.gov.uk/ecoschools"">Eco Schools in Edinburgh</a>","Private Day Nursery","55.9485829,-3.2085082"
"Bright Sparks Nursery","58 Saughton Crescent","EH12 5SP","0131 313 1280",info@brightsparks-nursery.com,"<a href=""http://www.educationscotland.gov.uk/inspectionandreview/reports/school/index.asp"">Read Education Scotland's inspection reports</a>",,,,West,Bronze,"Read more about <a href=""http://www.edinburgh.gov.uk/ecoschools"">Eco Schools in Edinburgh</a>","Private Day Nursery","55.9433267,-3.2557752"
"Brighton Nursery","9c Bellfield Lane","EH15 2BL","0131 305 8589",brightonnursery@btconnect.com,"<a href=""http://www.educationscotland.gov.uk/inspectionandreview/reports/school/index.asp"">Read Education Scotland's inspection reports</a>",,,,East,Silver,"Read more about <a href=""http://www.edinburgh.gov.uk/ecoschools"">Eco Schools in Edinburgh</a>","Private Day Nursery","55.9520565,-3.1094725"
"Broomhouse Primary School Nursery Class","39 Saughton Road","EH11 3RQ","0131 443 3783",Admin@Broomhouse.edin.sch.uk,"<a href=""http://www.educationscotland.gov.uk/inspectionandreview/reports/school/index.asp"">Read Education Scotland's inspection reports</a>","Nurs 8.55am-11.30am, 12.25pm-3pm, FT 8.55am-3pm, P1-2 Mon-Thu 8.50am-2.55pm, Fri 8.50am-12.15pm, P3-7 Mon-Thu 8.50am-3.15pm, Fri 8.50am-12.25pm",http://www.broomhouse.edin.sch.uk,"Jamie Petrie",West,Silver,"Read more about <a href=""http://www.edinburgh.gov.uk/ecoschools"">Eco Schools in Edinburgh</a>","Local Authority Non-Denominational Primary","55.9285274,-3.2734934"
"Broughton Primary School Nursery Class","132 Broughton Road","EH7 4LD","0131 556 7028",Admin@broughton-pri.edin.sch.uk,"<a href=""http://www.educationscotland.gov.uk/inspectionandreview/reports/school/index.asp"">Read Education Scotland's inspection reports</a>","Nur 9am-11.35, 12.30pm-3.05pm, FT 9am-3.05pm, P1-2 Mon-Thurs 8.50am-2.45pm, Fri 8.50am-11.55am, P3-7 Mon-Thu 8.50am-3.15pm, Fri 8.50am-12.25pm",http://www.broughton-pri.edin.sch.uk,"Gillian O'Rourke",North,"Green Flag","Read more about <a href=""http://www.edinburgh.gov.uk/ecoschools"">Eco Schools in Edinburgh</a>","Local Authority Non-Denominational Primary","55.9654602,-3.1897972"
"Brunstane Primary School Nursery Class","106 Magdalene Drive","EH15 3BE","0131 669 4498",Admin@brunstane.edin.sch.uk,"<a href=""http://www.educationscotland.gov.uk/inspectionandreview/reports/school/index.asp"">Read Education Scotland's inspection reports</a>","Nur 8.55am-11.30am, 12.25pm-3pm, FT 8.55am-3pm, P1-2 Mon-Thurs 8.50am-3pm, Fri 8.50am-12.20pm, P3-7 Mon-Thu 8.50am-3.15pm, Fri 8.50am-12.30pm",http://www.brunstane.edin.sch.uk,"Willie French (Acting)",East,Silver,"Read more about <a href=""http://www.edinburgh.gov.uk/ecoschools"">Eco Schools in Edinburgh</a>","Local Authority Non-Denominational Primary","55.9426765,-3.1050282"
"Bruntsfield Community Nursery","12 Montpelier","EH10 4NA","0131 228 1526",nursery@bruntsfieldnursery.co.uk,"<a href=""http://www.educationscotland.gov.uk/inspectionandreview/reports/school/index.asp"">Read Education Scotland's inspection reports</a>",,,,South,"Green Flag","Read more about <a href=""http://www.edinburgh.gov.uk/ecoschools"">Eco Schools in Edinburgh</a>","Playgroup or Part-Time Nursery","55.9369347,-3.2105561"
"Bruntsfield House Nursery","46 Bruntsfield Place","EH10 4HQ","0131 229 1970",info@bhnursery.com,"<a href=""http://www.educationscotland.gov.uk/inspectionandreview/reports/school/index.asp"">Read Education Scotland's inspection reports</a>",,,,South,Silver,"Read more about <a href=""http://www.edinburgh.gov.uk/ecoschools"">Eco Schools in Edinburgh</a>","Private Day Nursery","55.9388363,-3.2053909"
"Buckstone Primary School Nursery Class","79 Buckstone Loan East","EH10 6UY","0131 445 4545",Admin@buckstone.edin.sch.uk,"<a href=""http://www.educationscotland.gov.uk/inspectionandreview/reports/school/index.asp"">Read Education Scotland's inspection reports</a>","Nur 8.55am-11.30am, 12.25pm-3pm, FT 8.55am-3pm, P1-2 Mon-Thurs 8.50am-2.45pm, Fri 8.50am-12.15pm, P3-7 Mon-Thu 8.50am-3.20pm, Fri 8.50am-12.25pm",http://www.buckstone.edin.sch.uk,"Diane Palmer",South,"Green Flag","Read more about <a href=""http://www.edinburgh.gov.uk/ecoschools"">Eco Schools in Edinburgh</a>","Local Authority Non-Denominational Primary","55.9049404,-3.1996875"
"Bun-sgoil Taobh na Pairce Nursery Class","139b Bonnington Road","EH6 5NQ","0131 553 5856",admin@taobhnapairce.edin.sch.uk,"<a href=""http://www.educationscotland.gov.uk/inspectionandreview/reports/school/index.asp"">Read Education Scotland's inspection reports</a>",,http://www.taobhnapairce.edin.sch.uk,"Anne MacPhail",North,None,,"Local Authority Non-Denominational Primary","55.9709151,-3.1793518"
"Busy Bees - Edinburgh Park","1 Lochside Place","EH12 9DF","0131 339 1245",edinburgh.park@busybees.com,"<a href=""http://www.educationscotland.gov.uk/inspectionandreview/reports/school/index.asp"">Read Education Scotland's inspection reports</a>",,,,West,Registered,"Read more about <a href=""http://www.edinburgh.gov.uk/ecoschools"">Eco Schools in Edinburgh</a>","Private Day Nursery","55.9323692,-3.3138149"
"Busy Bees - Newhaven Nursery","Next Generation Centre, Newhaven Place","EH6 4LX","0131 467 4647",edinburgh.newhaven@busybees.com,"<a href=""http://www.educationscotland.gov.uk/inspectionandreview/reports/school/index.asp"">Read Education Scotland's inspection reports</a>",,,,North,,,"Private Day Nursery","55.982367,-3.1940684"
"Busy Bees - Port Hamilton Nursery","69 Morrison Street","EH3 8BU","228 1221",edinburgh.porthamilton@busybees.com,"<a href=""http://www.educationscotland.gov.uk/inspectionandreview/reports/school/index.asp"">Read Education Scotland's inspection reports</a>",,,,South,Registered,"Read more about <a href=""http://www.edinburgh.gov.uk/ecoschools"">Eco Schools in Edinburgh</a>","Private Day Nursery","55.9454631,-3.2076784"
"Busy Bees Nursery","20 Valleyfield Street","EH3 9LR","0131 229 7889",jessica_vanliesout@yahoo.co.uk,"<a href=""http://www.educationscotland.gov.uk/inspectionandreview/reports/school/index.asp"">Read Education Scotland's inspection reports</a>",,,,South,Silver,"Read more about <a href=""http://www.edinburgh.gov.uk/ecoschools"">Eco Schools in Edinburgh</a>","Private Day Nursery","55.9417592,-3.2023596"
"Calderglen Nursery School","220 Wester Hailes Road","EH11 4NG","0131 453 5754",Admin@Calderglen-nur.edin.sch.uk,"<a href=""http://www.educationscotland.gov.uk/inspectionandreview/reports/school/index.asp"">Read Education Scotland's inspection reports</a>","Mon-Thu, 8.45am-3.15pm; Fri, 8.45am-11.45am",,"Pat Appleby","South West","Green Flag","Read more about <a href=""http://www.edinburgh.gov.uk/ecoschools"">Eco Schools in Edinburgh</a>","Local Authority Nursery School","55.9174687,-3.288221"
"Cameron House Nursery School","Cameron House Avenue","EH16 5LF","0131 667 5117",Admin@cameronhouse-nur.edin.sch.uk,"<a href=""http://www.educationscotland.gov.uk/inspectionandreview/reports/school/index.asp"">Read Education Scotland's inspection reports</a>","Mon-Fri, 9.00am-3.00pm",,"Christine McCormick",South,"Green Flag","Read more about <a href=""http://www.edinburgh.gov.uk/ecoschools"">Eco Schools in Edinburgh</a>","Local Authority Nursery School","55.9308423,-3.1599029"
"Canal View Primary School Nursery Class","4 Hailesland Place","EH14 2SL","0131 442 3894",Admin@Canalview.edin.sch.uk,"<a href=""http://www.educationscotland.gov.uk/inspectionandreview/reports/school/index.asp"">Read Education Scotland's inspection reports</a>","Nur Mon-Fri 8.55am-11.30am, 12.30pm-3.05pm, P1-P2 Mon-Thurs 8.55am-2.50pm, Fri 8.55am-12.20pm, P3-P7 Mon-Thu 8.55am-3.15pm, Fri 8.55am-12.30pm",http://www.canalview.edin.sch.uk,"Ann Moore","South West",Silver,"Read more about <a href=""http://www.edinburgh.gov.uk/ecoschools"">Eco Schools in Edinburgh</a>","Local Authority Non-Denominational Primary","55.9169553,-3.2811622"
"Cargilfield Nursery School","37 Barnton Avenue West","EH4 6HU","0131 336 2207",nursery@cargilfield.com,"<a href=""http://www.educationscotland.gov.uk/inspectionandreview/reports/school/index.asp"">Read Education Scotland's inspection reports</a>",,,,West,Bronze,"Read more about <a href=""http://www.edinburgh.gov.uk/ecoschools"">Eco Schools in Edinburgh</a>","Independent School","55.9695254,-3.3000612"
"Carrick Knowe Primary School Nursery Class","Lampacre Road","EH12 7HU","0131 334 4505",Admin@Carrickknowe.edin.sch.uk,"<a href=""http://www.educationscotland.gov.uk/inspectionandreview/reports/school/index.asp"">Read Education Scotland's inspection reports</a>","Nursery 8.30am-11.40am, 12.20pm-3.30pm
P1-2 Mon-Thurs 8.50am-3pm, Fri 8.50am-12.15pm
P3-7 Mon-Thu 8.50am-3.15pm, Fri 8.50am-12.25pm",http://www.carrickknowe.edin.sch.uk,"Andrew Hunter",West,"Green Flag","Read more about <a href=""http://www.edinburgh.gov.uk/ecoschools"">Eco Schools in Edinburgh</a>","Local Authority Non-Denominational Primary","55.93823,-3.2757635"
"Castleview Primary School Nursery Class","2d Greendykes Road","EH16 4DP","0131 661 6429",Admin@Castleview.edin.sch.uk,"<a href=""http://www.educationscotland.gov.uk/inspectionandreview/reports/school/index.asp"">Read Education Scotland's inspection reports</a>","Nur 8.45am-11.20am, 12.15pm-2.50pm, FT 8.45am-2.50pm, P1-2 Mon-Thurs 8.40am-2.50pm, Fri 8.40am-12.35pm, P3-7 Mon-Thu 8.40am-2.55pm, Fri 8.40am-12.40pm",http://www.castleview.edin.sch.uk,"Lindsey Watt",East,"Green Flag","Read more about <a href=""http://www.edinburgh.gov.uk/ecoschools"">Eco Schools in Edinburgh</a>","Local Authority Non-Denominational Primary","55.9297033,-3.1338662"
"Chapter One Nursery (Douglas Gardens)","5 Douglas Gardens","EH4 3DA","0131 664 5376",douglasgardens@chapteronechildcare.com,"<a href=""http://www.educationscotland.gov.uk/inspectionandreview/reports/school/index.asp"">Read Education Scotland's inspection reports</a>",,,,North,Silver,"Read more about <a href=""http://www.edinburgh.gov.uk/ecoschools"">Eco Schools in Edinburgh</a>","Private Day Nursery","55.9507847,-3.2202232"
"Chapter One Nursery (Gilmerton)","1b Drum Street","EH17 8QQ","0131 664 3031",gilmerton@chapteronechildcare.com,"<a href=""http://www.educationscotland.gov.uk/inspectionandreview/reports/school/index.asp"">Read Education Scotland's inspection reports</a>",,,,South,Silver,"Read more about <a href=""http://www.edinburgh.gov.uk/ecoschools"">Eco Schools in Edinburgh</a>","Private Day Nursery","55.9065616,-3.1333506"
"Chapter One Nursery (Kirk Brae)","50 Kirk Brae","EH16 6HT","0131 220 0707",kirkbrae@chapteronechildcare.com,"<a href=""http://www.educationscotland.gov.uk/inspectionandreview/reports/school/index.asp"">Read Education Scotland's inspection reports</a>",,,,South,Registered,"Read more about <a href=""http://www.edinburgh.gov.uk/ecoschools"">Eco Schools in Edinburgh</a>","Private Day Nursery","55.9167823,-3.1639943"
"Cherrytrees Nursery","1c Duddingston Park","EH15 1JN","0131 669 0405",cherrytrees.littleacorns@virgin.net,"<a href=""http://www.educationscotland.gov.uk/inspectionandreview/reports/school/index.asp"">Read Education Scotland's inspection reports</a>",,,,East,Registered,"Read more about <a href=""http://www.edinburgh.gov.uk/ecoschools"">Eco Schools in Edinburgh</a>","Private Day Nursery","55.9476621,-3.1184742"
"Childsplay Nurseries","8 Falcon Road","EH10 4AH","0131 447 0077",childsplaynursery@btconnect.com,"<a href=""http://www.educationscotland.gov.uk/inspectionandreview/reports/school/index.asp"">Read Education Scotland's inspection reports</a>",,,,South,Registered,"Read more about <a href=""http://www.edinburgh.gov.uk/ecoschools"">Eco Schools in Edinburgh</a>","Private Day Nursery","55.9294169,-3.2059612"
"City Nursery","47-48 Greenbank Drive","EH10 5SA","0131 446 0088",manager@city-nursery.co.uk,"<a href=""http://www.educationscotland.gov.uk/inspectionandreview/reports/school/index.asp"">Read Education Scotland's inspection reports</a>",,,,"South West",Bronze,"Read more about <a href=""http://www.edinburgh.gov.uk/ecoschools"">Eco Schools in Edinburgh</a>","Private Day Nursery","55.9165259,-3.2226346"
"Claylands Children's Nursery","Claylands Road, Ratho, Nr Newbridge","EH28 8LZ","0131 333 4701",claylandsnursery@btinternet.com,"<a href=""http://www.educationscotland.gov.uk/inspectionandreview/reports/school/index.asp"">Read Education Scotland's inspection reports</a>",,,,West,"Green flag","Read more about <a href=""http://www.edinburgh.gov.uk/ecoschools"">Eco Schools in Edinburgh</a>","Private Day Nursery","55.9293765,-3.4084349"
"Clermiston Primary School Nursery Class","18 Parkgrove Place","EH4 7NP","0131 336 3361",Admin@clermiston.edin.sch.uk,"<a href=""http://www.educationscotland.gov.uk/inspectionandreview/reports/school/index.asp"">Read Education Scotland's inspection reports</a>","Nur 8.55am-11.30am, 12.25pm-3pm, FT 8.55am-3pm, P1-2 Mon-Thurs 8.50am-3pm, Fri 8.50am-12.20pm, P3-7 Mon-Thu 8.50am-3.20pm, Fri 8.50am-12.30pm",http://www.clermiston.edin.sch.uk,"Gordon McIntyre",West,Silver,"Read more about <a href=""http://www.edinburgh.gov.uk/ecoschools"">Eco Schools in Edinburgh</a>","Local Authority Non-Denominational Primary","55.9596115,-3.2900012"
"Clifton Hall School Nursery Class",Newbridge,"EH28 8LQ","0131 333 1359",office@cliftonhall.org.uk,"<a href=""http://www.educationscotland.gov.uk/inspectionandreview/reports/school/index.asp"">Read Education Scotland's inspection reports</a>",,,,West,"Green flag","Read more about <a href=""http://www.edinburgh.gov.uk/ecoschools"">Eco Schools in Edinburgh</a>","Independent School","55.943197,-3.411193"
"Clovenstone Primary School Nursery Class","54 Clovenstone Park","EH14 3EY","0131 453 4242",Admin@Clovenstone.edin.sch.uk,"<a href=""http://www.educationscotland.gov.uk/inspectionandreview/reports/school/index.asp"">Read Education Scotland's inspection reports</a>","Nur Mon-Thu 8.45am-11.30am, 12.30pm-3.15pm, Fri 8.30am-10.30am, 10.30am-12.30pm, P1-2 Mon-Thurs 8.50am-2.50pm, Fri 8.50am-12.15pm, P3-7 Mon-Thu 8.50am-3.15pm, Fri 8.50am-12.25pm",http://www.clovenstone.edin.sch.uk,"Carolyn Didcock","South West",Bronze,"Read more about <a href=""http://www.edinburgh.gov.uk/ecoschools"">Eco Schools in Edinburgh</a>","Local Authority Non-Denominational Primary","55.9109931,-3.2729505"
"Colinton Primary School Nursery Class","Redford Place","EH13 0AL","0131 441 1946",Admin@Colinton.edin.sch.uk,"<a href=""http://www.educationscotland.gov.uk/inspectionandreview/reports/school/index.asp"">Read Education Scotland's inspection reports</a>","Nur 8.55am-11.30am, 12.25pm-3pm, FT 8.55am-3pm, P1-2 Mon-Thurs 8.50am-2.50pm, Fri 8.50am-12.15pm, P3-7 Mon-Thu 8.50am-3.10pm, Fri 8.50am-12.25pm",http://www.colinton.edin.sch.uk,"Susan Imrie","South West",Silver,"Read more about <a href=""http://www.edinburgh.gov.uk/ecoschools"">Eco Schools in Edinburgh</a>","Local Authority Non-Denominational Primary","55.9076448,-3.2373326"
"Colinton Private Nursery","22 Dreghorn Loan","EH13 0DE","0131 477 7330",sandy.towers@blueyonder.co.uk,"<a href=""http://www.educationscotland.gov.uk/inspectionandreview/reports/school/index.asp"">Read Education Scotland's inspection reports</a>",,,,"South West",Silver,"Read more about <a href=""http://www.edinburgh.gov.uk/ecoschools"">Eco Schools in Edinburgh</a>","Private Day Nursery","55.9057428,-3.2541201"
"Corner House Day Nursery - South Gillsland","2 South Gillsland Road","EH10 5DE","0131 447 4050",nestor.bc@blueyonder.co.uk,"<a href=""http://www.educationscotland.gov.uk/inspectionandreview/reports/school/index.asp"">Read Education Scotland's inspection reports</a>",,,,South,Silver,"Read more about <a href=""http://www.edinburgh.gov.uk/ecoschools"">Eco Schools in Edinburgh</a>","Private Day Nursery","55.9305962,-3.2204675"
"Corner House Day Nursery - Spylaw","2 Spylaw Road","EH10 5BN","0131 229 1500",nestor.bc@blueyonder.co.uk,"<a href=""http://www.educationscotland.gov.uk/inspectionandreview/reports/school/index.asp"">Read Education Scotland's inspection reports</a>",,,,West,Registered,"Read more about <a href=""http://www.edinburgh.gov.uk/ecoschools"">Eco Schools in Edinburgh</a>","Private Day Nursery","55.9325501,-3.2178091"
"Corstorphine Primary School Nursery Class","62 Corstorphine High Street","EH12 7SY","0131 334 3865",Admin@Corstorphine.edin.sch.uk,"<a href=""http://www.educationscotland.gov.uk/inspectionandreview/reports/school/index.asp"">Read Education Scotland's inspection reports</a>","Nur 8.50am-11.25am, 12.30pm-3.05pm, P1-2 Mon-Thurs 8.50am-3.00pm, Fri 8.50am-12.15pm, P3 Mon-Thu 8.50am-3.15pm, Fri 8.50am-12.25pm, P4-P7 Mon-Thu 8.50am-3.15pm, Fri 8.50am-12.25pm",http://www.corstorphine.edin.sch.uk,"Jennifer Ross",West,Green,"Read more about <a href=""http://www.edinburgh.gov.uk/ecoschools"">Eco Schools in Edinburgh</a>","Local Authority Non-Denominational Primary","55.9403695,-3.2851821"
"Cowgate Under 5's Centre","172 High Street, 7 Old Assembly Close","EH1 1QX","0131 225 7251",Admin@cowgate-nur.edin.sch.uk,"<a href=""http://www.educationscotland.gov.uk/inspectionandreview/reports/school/index.asp"">Read Education Scotland's inspection reports</a>","Mon-Fri, 8.00am-5.45pm",,"Lynn McNair",South,"Green Flag","Read more about <a href=""http://www.edinburgh.gov.uk/ecoschools"">Eco Schools in Edinburgh</a>","Early Years Centre","55.9497293,-3.1894111"
"Craigentinny Early Years Centre","4 Loganlea Drive","EH7 6LR","0131 661 8593",,"<a href=""http://www.educationscotland.gov.uk/inspectionandreview/reports/school/index.asp"">Read Education Scotland's inspection reports</a>",,,"Tracey Shaw",North,Registered,"Read more about <a href=""http://www.edinburgh.gov.uk/ecoschools"">Eco Schools in Edinburgh</a>","Early Years Centre & Nursery","55.959533,-3.1431333"
"Craigentinny Primary School Nursery Class","4 Loganlea Drive","EH7 6LR","0131 661 2749",morag.paterson@craigentinny.edin.sch.uk,"<a href=""http://www.educationscotland.gov.uk/inspectionandreview/reports/school/index.asp"">Read Education Scotland's inspection reports</a>","Nursery 9am-11.35am, 12.25pm-3pm
P1-2 Mon-Thur 8.45am-2.55pm, Fri 8.45am-12pm
P3-7 Mon-Thu 8.45am-3.15pm, Fri 8.45am-12pm",http://www.craigentinny.edin.sch.uk,"Maria Gowans",North,"Green Flag","Read more about <a href=""http://www.edinburgh.gov.uk/ecoschools"">Eco Schools in Edinburgh</a>","Local Authority Non-Denominational Primary","55.959533,-3.1431333"
"Craiglockhart Primary School Nursery Class","90 Ashley Terrace","EH11 1RG","0131 337 1407",Admin@Craiglockhart.edin.sch.uk,"<a href=""http://www.educationscotland.gov.uk/inspectionandreview/reports/school/index.asp"">Read Education Scotland's inspection reports</a>","Nur 8.55am-11.30am, 12.30pm-3.05pm, FT 8.55am-3.05pm, P1-2 Mon-Thurs 8.50am-2.45pm, Fri 8.50am-12.20pm, P3-7 Mon-Thu 8.50am-3.15pm, Fri 8.50am-12.30pm",http://www.Craiglockhart.edin.sch.uk,"Derek Law",West,Silver,"Read more about <a href=""http://www.edinburgh.gov.uk/ecoschools"">Eco Schools in Edinburgh</a>","Local Authority Non-Denominational Primary","55.9317599,-3.2277084"
"Craigmillar Early Years Centre","6 Craigmillar Castle Gardens","EH16 4BR","0131 661 3126",,"<a href=""http://www.educationscotland.gov.uk/inspectionandreview/reports/school/index.asp"">Read Education Scotland's inspection reports</a>",,,"Winnie McIlhone",East,Silver,"Read more about <a href=""http://www.edinburgh.gov.uk/ecoschools"">Eco Schools in Edinburgh</a>","Early Years Centre","55.9297729,-3.1448"
"Craigour Park Primary School Nursery Class","102 Moredun Park Road","EH17 7HL","0131 664 7594",Admin@craigourpark.edin.sch.uk,"<a href=""http://www.educationscotland.gov.uk/inspectionandreview/reports/school/index.asp"">Read Education Scotland's inspection reports</a>","Nursery 8.30am-11.40am, 12.20pm-3.30pm
P1-2 Mon-Thurs 8.45am-2.30pm Fri 8.45am-12.10pm
P3-7 Mon-Thu 8.45am-3.05pm, Fri 8.45am-12.20pm",http://www.craigourpark.edin.sch.uk,"Carol Cameron",South,"Green Flag","Read more about <a href=""http://www.edinburgh.gov.uk/ecoschools"">Eco Schools in Edinburgh</a>","Local Authority Non-Denominational Primary","55.9134219,-3.1337175"
"Craigroyston Early Years Centre","67 Pennywell Road","EH4 4QP","0131 332 3855",,"<a href=""http://www.educationscotland.gov.uk/inspectionandreview/reports/school/index.asp"">Read Education Scotland's inspection reports</a>",,,"Diane Hope",North,Registered,"Read more about <a href=""http://www.edinburgh.gov.uk/ecoschools"">Eco Schools in Edinburgh</a>","Early Years Centre","55.9734516,-3.2533271"
"Craigroyston Primary School Nursery Class","7 Muirhouse Place West","EH4 4PX","0131 343 6465",Admin@craigroyston-pri.edin.sch.uk,"<a href=""http://www.educationscotland.gov.uk/inspectionandreview/reports/school/index.asp"">Read Education Scotland's inspection reports</a>","P1-2 Mon-Thu, 8.40am-2.30pm, Fri 8.40am-12.10pm, P3-7 Mon-Thu 8.40am-3pm, Fri 8.40am-12.40pm",http://www.craigroyston-pri.edin.sch.uk,"Lorna Stewart",North,"Green Flag","Read more about <a href=""http://www.edinburgh.gov.uk/ecoschools"">Eco Schools in Edinburgh</a>","Local Authority Non-Denominational Primary","55.96925,-3.2542266"
"Cramond Primary School Nursery Class","4 Cramond Crescent","EH4 6PG","0131 312 6450",Admin@cramond.edin.sch.uk,"<a href=""http://www.educationscotland.gov.uk/inspectionandreview/reports/school/index.asp"">Read Education Scotland's inspection reports</a>","Nur 8.50am-11.25am, 12.15pm-2.50pm, FT 8.50am-2.50pm, P1-2 Mon-Thurs 8.50am-2.50pm, Fri 8.50am-12.20pm, P3-7 Mon-Thu 8.50am-3.20pm, Fri 8.50am-12.25pm",http://www.cramond.edin.sch.uk,"Helen Donaldson",West,Silver,"Read more about <a href=""http://www.edinburgh.gov.uk/ecoschools"">Eco Schools in Edinburgh</a>","Local Authority Non-Denominational Primary","55.9721483,-3.3039609"
"Cranley Nursery - Buckstone","226 Braid Road","EH10 6NZ","0131 445 2227",kelly@cranleynursery.co.uk,"<a href=""http://www.educationscotland.gov.uk/inspectionandreview/reports/school/index.asp"">Read Education Scotland's inspection reports</a>",,,,South,"Green flag","Read more about <a href=""http://www.edinburgh.gov.uk/ecoschools"">Eco Schools in Edinburgh</a>","Private Day Nursery","55.9086744,-3.2091728"
"Cranley Nursery - Colinton","Paties Road Pavillion, 66 Katesmill Road","EH14 1JF","0131 441 3804",lorna@cranleynursery.co.uk,"<a href=""http://www.educationscotland.gov.uk/inspectionandreview/reports/school/index.asp"">Read Education Scotland's inspection reports</a>",,,,"South West","Green flag","Read more about <a href=""http://www.edinburgh.gov.uk/ecoschools"">Eco Schools in Edinburgh</a>","Private Day Nursery","55.9143067,-3.2538917"
"Cranley Nursery - Craiglockhart","38 Craiglockhart Avenue","EH14 1LT","0131 444 0880",carron@cranleynursery.co.uk,"<a href=""http://www.educationscotland.gov.uk/inspectionandreview/reports/school/index.asp"">Read Education Scotland's inspection reports</a>",,,,"South West","Green flag","Read more about <a href=""http://www.edinburgh.gov.uk/ecoschools"">Eco Schools in Edinburgh</a>","Private Day Nursery","55.9236592,-3.2446755"
"Crewe Road Nursery","122 Crewe Road South","EH4 2NY","0131 332 8392",creweroadnursery@tiscali.co.uk,"<a href=""http://www.educationscotland.gov.uk/inspectionandreview/reports/school/index.asp"">Read Education Scotland's inspection reports</a>",,,,North,Bronze,"Read more about <a href=""http://www.edinburgh.gov.uk/ecoschools"">Eco Schools in Edinburgh</a>","Private Day Nursery","55.9649539,-3.2335249"
"Currie Children's Nursery","79 Riccarton Mains Road","EH14 5NB","07852 463004",claylandsnursery@btinternet.com,"<a href=""http://www.educationscotland.gov.uk/inspectionandreview/reports/school/index.asp"">Read Education Scotland's inspection reports</a>",,,,"South West",Registered,"Read more about <a href=""http://www.edinburgh.gov.uk/ecoschools"">Eco Schools in Edinburgh</a>","Private Day Nursery","55.9010339,-3.3099897"
"Currie Playgroup","c/o Currie Baptist Church, 16 Kirkgate","EH14 6AN","0131 449 2016",amanda.gillespie@btinternet.com,"<a href=""http://www.educationscotland.gov.uk/inspectionandreview/reports/school/index.asp"">Read Education Scotland's inspection reports</a>",,,,"South West","Green flag","Read more about <a href=""http://www.edinburgh.gov.uk/ecoschools"">Eco Schools in Edinburgh</a>","Playgroup or Part-Time Nursery","55.8947234,-3.3090454"
"Currie Primary School Nursery Class","59 Curriehill Road, Currie","EH14 5PU","0131 449 3359",Admin@currie-pri.edin.sch.uk,"<a href=""http://www.educationscotland.gov.uk/inspectionandreview/reports/school/index.asp"">Read Education Scotland's inspection reports</a>","Nur 9am-11.35am, 12.30pm-3.05pm, P1-2 Mon-Thurs 8.45am-2.45pm, Fri 8.45am-11.55am, P3-7 Mon-Thu 8.45am-3.15pm, Fri 8.45am-12pm",http://www.currie-pri.edin.sch.uk,"Sally Hourston","South West","Green Flag","Read more about <a href=""http://www.edinburgh.gov.uk/ecoschools"">Eco Schools in Edinburgh</a>","Local Authority Non-Denominational Primary","55.8978099,-3.3137851"
"Dalmeny Primary School Nursery Class","Carlowrie Crescent, Dalmeny","EH30 9TZ","0131 331 1447",Admin@Dalmeny.edin.sch.uk,"<a href=""http://www.educationscotland.gov.uk/inspectionandreview/reports/school/index.asp"">Read Education Scotland's inspection reports</a>","Nursery 8.55am-11.30am, 12.30pm-3.05pm
P1-2 Mon-Thurs 8.50am-2.45pm, Fri 8.50am-12.25pm
P3-7 Mon-Thu 8.50am-3.15pm, Fri 8.50am-12.25pm",http://www.dalmeny.edin.sch.uk,"Laura Brandon",West,Silver,"Read more about <a href=""http://www.edinburgh.gov.uk/ecoschools"">Eco Schools in Edinburgh</a>","Local Authority Non-Denominational Primary","55.9807878,-3.3725506"
"Dalry Primary School Nursery Class","Dalry Road","EH11 2JB","0131 337 6086",Admin@Dalry.edin.sch.uk,"<a href=""http://www.educationscotland.gov.uk/inspectionandreview/reports/school/index.asp"">Read Education Scotland's inspection reports</a>","Nur 9am-11.35am, 12.25pm-3pm, FT 9am-3pm, P1-2 Mon-Thurs 8.50am-3.07pm, Fri 8.50am-12.27pm, P3-7 Mon-Thu 8.50am-3.15pm, Fri 8.50am-12.25pm",http://www.dalry.edin.sch.uk,"Grant Gillies",West,"Green Flag","Read more about <a href=""http://www.edinburgh.gov.uk/ecoschools"">Eco Schools in Edinburgh</a>","Local Authority Non-Denominational Primary","55.942821,-3.2211067"
"Davidson's Mains Primary School Nursery Class","Corbiehill Road","EH4 5DZ","0131 336 1184",Admin@davidsonsmains.edin.sch.uk,"<a href=""http://www.educationscotland.gov.uk/inspectionandreview/reports/school/index.asp"">Read Education Scotland's inspection reports</a>","Nur 8.50am-11.25am, 12.25pm-3pm, FT 8.50am-3pm, P1-2 Mon-Thurs 8.50am-3pm, Fri 8.50am-12.15pm, P3-7 Mon-Thu 8.50am-3.15pm, Fri 8.50am-12.30pm",http://www.davidsonsmains.edin.sch.uk,"Lesley Nock",West,Silver,"Read more about <a href=""http://www.edinburgh.gov.uk/ecoschools"">Eco Schools in Edinburgh</a>","Local Authority Non-Denominational Primary","55.9640904,-3.2668391"
"Dean Park Primary School Nursery Class","31 Marchbank Gardens, Balerno","EH14 7ET","0131 449 4529",Admin@deanpark.edin.sch.uk,"<a href=""http://www.educationscotland.gov.uk/inspectionandreview/reports/school/index.asp"">Read Education Scotland's inspection reports</a>","Nur 9am-11.35am, 12.25pm-3pm, FT 9am-3pm, P1-2 Mon-Thurs 8.50am-2.45pm, Fri 8.50am-12.15pm, P3-7 Mon/Tue/Thu 8.50am-3.15pm, Wed 8.50am-3.10pm, Fri 8.50am-12.25pm",http://deanparkschool.org.uk,"Rehana Shanks","South West","Green Flag","Read more about <a href=""http://www.edinburgh.gov.uk/ecoschools"">Eco Schools in Edinburgh</a>","Local Authority Non-Denominational Primary","55.8796946,-3.3407907"
"Doune Terrace Nursery","9c Doune Terrace","EH3 6DY","0131 225 3805",contact@douneterracenursery.org.uk,"<a href=""http://www.educationscotland.gov.uk/inspectionandreview/reports/school/index.asp"">Read Education Scotland's inspection reports</a>",,,,North,Registered,"Read more about <a href=""http://www.edinburgh.gov.uk/ecoschools"">Eco Schools in Edinburgh</a>","Private Day Nursery","55.955997,-3.2087348"
"Dreghorn Pre-school Group","25/27 Dreghorn Gardens","EH13 9NW","0131 441 5974",preschooledin@hotmail.co.uk,"<a href=""http://www.educationscotland.gov.uk/inspectionandreview/reports/school/index.asp"">Read Education Scotland's inspection reports</a>",,,,"South West",,,"Playgroup or Part-Time Nursery","55.9034546,-3.2261998"
"Duddingston Primary School Nursery Class","70a Duddingston Road","EH15 1SW","0131 669 5092",Admin@duddingston.edin.sch.uk,"<a href=""http://www.educationscotland.gov.uk/inspectionandreview/reports/school/index.asp"">Read Education Scotland's inspection reports</a>","Nur 8.55am-11.30am, 12.30pm-3.05pm, P1-2 Mon-Thurs 8.45am-2.55pm, Fri 8.45am-12.10pm, P3-7 Mon-Thu 8.45am-3.15pm, Fri 8.45am-12.20pm",http://www.duddingston.edin.sch.uk,"Karen Morris",East,Silver,"Read more about <a href=""http://www.edinburgh.gov.uk/ecoschools"">Eco Schools in Edinburgh</a>","Local Authority Non-Denominational Primary","55.9469218,-3.1316472"
"Duncan Street Playgroup","Mayfield Salisbury Parish Church Hall, 18 West Mayfield","EH9 1TQ","0131 667 8097",duncanstreetplaygroup@googlemail.com,"<a href=""http://www.educationscotland.gov.uk/inspectionandreview/reports/school/index.asp"">Read Education Scotland's inspection reports</a>",,,"Lorraine Adams",South,,,"Playgroup or Part-Time Nursery","55.9352122,-3.1776008"
"Early Days Nursery","36 Palmerston Place","EH12 5BJ","0131 226 4491",contact@earlydaysnursery.org.uk,"<a href=""http://www.educationscotland.gov.uk/inspectionandreview/reports/school/index.asp"">Read Education Scotland's inspection reports</a>",,,,West,,,"Private Day Nursery","55.94882,-3.2180956"
"East Craigs Primary School Nursery Class","79 Craigmount Brae","EH12 8XF","0131 339 7115",Admin@eastcraigs.edin.sch.uk,"<a href=""http://www.educationscotland.gov.uk/inspectionandreview/reports/school/index.asp"">Read Education Scotland's inspection reports</a>","Nur 8.50am-11.25am, 12.20pm-2.55pm, FT 8.50am-2.55pm, P1-2 Mon-Thurs 8.50am-2.45pm, Fri 8.50am-12.15pm, P3-7 Mon-Thu 8.50am-3.15pm, Fri 8.50am-12.25pm",http://www.eastcraigs.edin.sch.uk,"Caroline Sanderson",West,"Green Flag","Read more about <a href=""http://www.edinburgh.gov.uk/ecoschools"">Eco Schools in Edinburgh</a>","Local Authority Non-Denominational Primary","55.9525983,-3.3028551"
"Echline Primary School Nursery Class","Bo'ness Road, South Queensferry","EH30 9XJ","0131 331 3397",Admin@echline.edin.sch.uk,"<a href=""http://www.educationscotland.gov.uk/inspectionandreview/reports/school/index.asp"">Read Education Scotland's inspection reports</a>","Nur 8.50am-11.25am, 12.20pm-2.55pm, FT 8.50am-2.55pm, P1-2 Mon-Thur 8.50am-2.50pm, Fri 8.50am-12.15pm, P3-7 Mon-Thu 8.50am-3.15pm, Fri 8.50am-12.25pm",http://www.echline.edin.sch.uk,"Dorothy Crawford",West,"Green Flag","Read more about <a href=""http://www.edinburgh.gov.uk/ecoschools"">Eco Schools in Edinburgh</a>","Local Authority Non-Denominational Primary","55.9891556,-3.4111236"
"Edinburgh Day Nursery (Asquith)","David Lloyd Centre, Gyle Park","EH12 8LH","0131 334 8055",edinburgh@asquithnurseries.co.uk,"<a href=""http://www.educationscotland.gov.uk/inspectionandreview/reports/school/index.asp"">Read Education Scotland's inspection reports</a>",,,,West,"Green flag","Read more about <a href=""http://www.edinburgh.gov.uk/ecoschools"">Eco Schools in Edinburgh</a>","Private Day Nursery","55.9337553,-3.306277"
"Edinburgh Montessori Arts School","Mill House, Tower Mains, 18N Liberton Brae","EH16 6AE","0131 446 0777",althea@emaschool.co.uk,"<a href=""http://www.educationscotland.gov.uk/inspectionandreview/reports/school/index.asp"">Read Education Scotland's inspection reports</a>",,,,South,Registered,"Read more about <a href=""http://www.edinburgh.gov.uk/ecoschools"">Eco Schools in Edinburgh</a>","Playgroup or Part-Time Nursery","55.9154665,-3.1663001"
"Edinburgh Nursery","129 Broughton Road","EH7 4JH","0131 557 5675",edinburghnursery@btconnect.com,"<a href=""http://www.educationscotland.gov.uk/inspectionandreview/reports/school/index.asp"">Read Education Scotland's inspection reports</a>",,,,North,,,"Private Day Nursery","55.9647929,-3.1914553"
"Edinburgh Steiner School Nursery Class","60 Spylaw Road","EH10 5BR","0131 337 3410",erss.accounts@steinerweb.org.uk,"<a href=""http://www.educationscotland.gov.uk/inspectionandreview/reports/school/index.asp"">Read Education Scotland's inspection reports</a>",,,,West,Silver,"Read more about <a href=""http://www.edinburgh.gov.uk/ecoschools"">Eco Schools in Edinburgh</a>","Independent School","55.9306632,-3.2241686"
"Edzell Nursery Class","St James Church Hall, Inverleith Row","EH3 5PX","07909 672377",edzellnursery@gmail.com,"<a href=""http://www.educationscotland.gov.uk/inspectionandreview/reports/school/index.asp"">Read Education Scotland's inspection reports</a>",,,,North,Registered,"Read more about <a href=""http://www.edinburgh.gov.uk/ecoschools"">Eco Schools in Edinburgh</a>","Playgroup or Part-Time Nursery","55.970861,-3.2088554"
"ESMS Junior School Nursery","Easter Ravelston","EH4 3NT","0131 347 5777",prepsecretary@esmgc.com,"<a href=""http://www.educationscotland.gov.uk/inspectionandreview/reports/school/index.asp"">Read Education Scotland's inspection reports</a>",,,,West,,,"Independent School","55.968109,-3.2823903"
"Fairmile House Nursery","2a Oxgangs Road","EH10 7AU","0131 445 1566",info@fairmilehousenursery.com,"<a href=""http://www.educationscotland.gov.uk/inspectionandreview/reports/school/index.asp"">Read Education Scotland's inspection reports</a>",,,,"South West",Registered,"Read more about <a href=""http://www.edinburgh.gov.uk/ecoschools"">Eco Schools in Edinburgh</a>","Private Day Nursery","55.9020476,-3.2065046"
"Ferryhill Primary School Nursery Class","Groathill Road North","EH4 2SQ","0131 538 7382",Admin@ferryhill.edin.sch.uk,"<a href=""http://www.educationscotland.gov.uk/inspectionandreview/reports/school/index.asp"">Read Education Scotland's inspection reports</a>","Nur 8.55am-11.30am, 12.30pm-3.05pm, FT 8.55am-3.05pm, P1-2 Mon-Thur 8.50am-2.40pm, Fri 8.50am-12.20pm, P3-7 Mon-Thu 8.50am-3.15pm, Fri 8.50am-12.30pm",http://www.ferryhill.edin.sch.uk,"Stewart Crabb",North,"Green Flag","Read more about <a href=""http://www.edinburgh.gov.uk/ecoschools"">Eco Schools in Edinburgh</a>","Local Authority Non-Denominational Primary","55.9641429,-3.2490428"
"Flora Stevenson Primary School Nursery Class","175 Comely Bank","EH4 1BG","0131 332 1604",Admin@florastevenson.edin.sch.uk,"<a href=""http://www.educationscotland.gov.uk/inspectionandreview/reports/school/index.asp"">Read Education Scotland's inspection reports</a>","Nur 8.55am-11.30am, 12.30pm-3.05pm, FT 8.55am-3.05pm, P1-2 Mon-Thur 8.50am-2.45pm, Fri 8.50am-12.15pm, P3-7 Mon-Thu 8.50am-3.20pm, Fri 8.50am-12.25pm",http://www.florastevenson.edin.sch.uk,"Irene Brennan",North,Silver,"Read more about <a href=""http://www.edinburgh.gov.uk/ecoschools"">Eco Schools in Edinburgh</a>","Local Authority Non-Denominational Primary","55.9587015,-3.2249439"
"Forbes Childrens Nursery (Bruntsfield)","5 Forbes Road","EH10 4EF","0131 229 5511",forbescnbr@btconnect.com,"<a href=""http://www.educationscotland.gov.uk/inspectionandreview/reports/school/index.asp"">Read Education Scotland's inspection reports</a>",,,,South,Silver,"Read more about <a href=""http://www.edinburgh.gov.uk/ecoschools"">Eco Schools in Edinburgh</a>","Private Day Nursery","55.9349464,-3.207143"
"Forbes Childrens Nursery (Claremont)","12 Claremont Park","EH6 7PJ","0131 553 5068",forbescncp@btconnect.com,"<a href=""http://www.educationscotland.gov.uk/inspectionandreview/reports/school/index.asp"">Read Education Scotland's inspection reports</a>",,,,North,Bronze,"Read more about <a href=""http://www.edinburgh.gov.uk/ecoschools"">Eco Schools in Edinburgh</a>","Private Day Nursery","55.9699522,-3.1546489"
"Fort Early Years Centre","25 North Fort Street","EH6 4HF","0131 554 4077",,"<a href=""http://www.educationscotland.gov.uk/inspectionandreview/reports/school/index.asp"">Read Education Scotland's inspection reports</a>",,http://www.fort.edin.sch.uk,"Karen Brown - (acting)",North,Bronze,"Read more about <a href=""http://www.edinburgh.gov.uk/ecoschools"">Eco Schools in Edinburgh</a>","Early Years Centre & Nursery","55.9766984,-3.1859735"
"Forthview Primary School Nursery Class","West Pilton Place","EH4 4DF","0131 332 2468",Admin@forthview.edin.sch.uk,"<a href=""http://www.educationscotland.gov.uk/inspectionandreview/reports/school/index.asp"">Read Education Scotland's inspection reports</a>","Nur Mon-Thu 8.45am-11.20am, 12.15pm-2.50pm, Fri 8.45am-12pm, P1-2 Mon-Thur 8.45am-3pm, Fri 8.45am-12pm, P3-7 Mon-Thu 8.45am-3.15pm, Fri 8.45am-12pm",http://www.forthview.edin.sch.uk,"Eileen Littlewood",North,Silver,"Read more about <a href=""http://www.edinburgh.gov.uk/ecoschools"">Eco Schools in Edinburgh</a>","Local Authority Non-Denominational Primary","55.9714776,-3.2408759"
"Fox Covert Nursery","c/o Fox Covert Primary School, Clerwood Terrace","EH12 8PG","0131 467 7294",fcnursery@hotmail.co.uk,"<a href=""http://www.educationscotland.gov.uk/inspectionandreview/reports/school/index.asp"">Read Education Scotland's inspection reports</a>",,,,West,Registered,"Read more about <a href=""http://www.edinburgh.gov.uk/ecoschools"">Eco Schools in Edinburgh</a>","Playgroup or Part-Time Nursery","55.95189,-3.2804481"
"George Heriot's School Nursery Class","Lauriston Place","EH3 9EQ","0131 229 7263",enquiries@george-heriots.com,"<a href=""http://www.educationscotland.gov.uk/inspectionandreview/reports/school/index.asp"">Read Education Scotland's inspection reports</a>",,,,South,,,"Independent School","55.944886,-3.1974261"
"George Watson's College Nursery Class","Colinton Road","EH10 5EG","0131 446 6000",e.black@fc.gwc.org.uk,"<a href=""http://www.educationscotland.gov.uk/inspectionandreview/reports/school/index.asp"">Read Education Scotland's inspection reports</a>",,,,South,,,"Independent School","55.9311362,-3.2189002"
"Gilmerton Early Years Centre","66 Gilmerton Dykes Street","EH17 8PL","0131 664 1202",,"<a href=""http://www.educationscotland.gov.uk/inspectionandreview/reports/school/index.asp"">Read Education Scotland's inspection reports</a>",,,"Kenny Spence",South,"Not Registered","Read more about <a href=""http://www.edinburgh.gov.uk/ecoschools"">Eco Schools in Edinburgh</a>","Early Years Centre","55.9036513,-3.13903"
"Gracemount Primary School Nursery Class","45 Gracemount House Drive","EH16 6FD","0131 664 2331",Admin@gracemount-pri.edin.sch.uk,"<a href=""http://www.educationscotland.gov.uk/inspectionandreview/reports/school/index.asp"">Read Education Scotland's inspection reports</a>","Nur 8.50am-11.25am, 12.30pm-3.05pm, FT 8.50am-3.05pm, P1-2 Mon-Thur 8.45am-2.50pm, Fri 8.45am-12.15pm, P3-7 Mon-Thu 8.45am-3.25pm, Fri 8.45am-12.25pm",http://www.gracemount-pri.edin.sch.uk,"Greg Dimeck",South,"Green Flag","Read more about <a href=""http://www.edinburgh.gov.uk/ecoschools"">Eco Schools in Edinburgh</a>","Local Authority Non-Denominational Primary","55.9055775,-3.1541642"
"Grange Private Nursery","180 Grange Loan","EH9 2EE","0131 477 4504",sandy.towers@blueyonder.co.uk,"<a href=""http://www.educationscotland.gov.uk/inspectionandreview/reports/school/index.asp"">Read Education Scotland's inspection reports</a>",,,,South,Bronze,"Read more about <a href=""http://www.edinburgh.gov.uk/ecoschools"">Eco Schools in Edinburgh</a>","Private Day Nursery","55.9338604,-3.1789485"
"Granton Early Years Cente","10 Wardieburn Road","EH5 1LY","0131 552 4808",,"<a href=""http://www.educationscotland.gov.uk/inspectionandreview/reports/school/index.asp"">Read Education Scotland's inspection reports</a>",,,"Diane Hope",North,"Not Registered","Read more about <a href=""http://www.edinburgh.gov.uk/ecoschools"">Eco Schools in Edinburgh</a>","Early Years Centre","55.9779796,-3.2297229"
"Granton Primary School Nursery Class","55 Boswall Parkway","EH5 2DA","0131 552 3987",Admin@Granton.edin.sch.uk,"<a href=""http://www.educationscotland.gov.uk/inspectionandreview/reports/school/index.asp"">Read Education Scotland's inspection reports</a>","Nur 8.45am-11.20am, 12.40pm-3.15pm, FT 8.45am-3.15pm, P1-2 Mon-Thur 8.45am-2.50pm, Fri 8.45am-12.15pm, P3-7 Mon-Thu 8.45am-3.15pm, Fri 8.45am-12.25pm",http://www.granton.edin.sch.uk/,"Shelagh Dow",North,Silver,"Read more about <a href=""http://www.edinburgh.gov.uk/ecoschools"">Eco Schools in Edinburgh</a>","Local Authority Non-Denominational Primary","55.9757239,-3.2266228"
"Grassmarket Nursery School","117 Fountainbridge","EH3 9QG","0131 229 7828",Admin@Grassmarket-nur.edin.sch.uk,"<a href=""http://www.educationscotland.gov.uk/inspectionandreview/reports/school/index.asp"">Read Education Scotland's inspection reports</a>","Mon-Fri, 8.55am-3.00pm",http://www.grassmarket-nur.edin.sch.uk,"Alice Brown",South,Bronze,"Read more about <a href=""http://www.edinburgh.gov.uk/ecoschools"">Eco Schools in Edinburgh</a>","Local Authority Nursery School","55.9436687,-3.2070902"
"Greenbank Preschool","Greenbank Parish Church, Braidburn Terrace","EH10 6ES","0131 447 8068",David.27Reid@blueyonder.co.uk,"<a href=""http://www.educationscotland.gov.uk/inspectionandreview/reports/school/index.asp"">Read Education Scotland's inspection reports</a>",,,,South,"Green flag","Read more about <a href=""http://www.edinburgh.gov.uk/ecoschools"">Eco Schools in Edinburgh</a>","Playgroup or Part-Time Nursery","55.919177,-3.2124675"
"Greendykes Early Years Centre","205 Craigmillar Castle Avenue","EH16 4DZ","0131 661 3109",,"<a href=""http://www.educationscotland.gov.uk/inspectionandreview/reports/school/index.asp"">Read Education Scotland's inspection reports</a>",,,"Jackie Cairnie",East,"Not Registered","Read more about <a href=""http://www.edinburgh.gov.uk/ecoschools"">Eco Schools in Edinburgh</a>","Early Years Centre","55.9318477,-3.1327549"
"Greengables Nursery School","8a Niddrie House Gardens","EH16 4UR","0131 669 9083",Admin@greengables-nur.edin.sch.uk,"<a href=""http://www.educationscotland.gov.uk/inspectionandreview/reports/school/index.asp"">Read Education Scotland's inspection reports</a>","Mon-Fri, 8.55am-3.05pm",http://www.greengables-nur.edin.sch.uk,"Isla Finlayson-Crawshaw",East,Silver,"Read more about <a href=""http://www.edinburgh.gov.uk/ecoschools"">Eco Schools in Edinburgh</a>","Local Authority Nursery School","55.9290909,-3.1222444"
"Greenhill Montessori Nursery","3 Greenhill Park","EH10 4DW","0131 629 0787",finance@greenhillmontessori.co.uk,"<a href=""http://www.educationscotland.gov.uk/inspectionandreview/reports/school/index.asp"">Read Education Scotland's inspection reports</a>",,,"Nancy Cecchetti",South,,,"Private Day Nursery","55.933466,-3.209756"
"Gylemuir Primary School Nursery Class","10 Wester Broom Place","EH12 7RT","0131 334 7138",Admin@Gylemuir.edin.sch.uk,"<a href=""http://www.educationscotland.gov.uk/inspectionandreview/reports/school/index.asp"">Read Education Scotland's inspection reports</a>","Nur 8.55am-11.30am, 12.30pm-3.05pm, FT 8.55am-3.05pm, P1-2 Mon-Thur 8.50am-2.40pm, Fri 8.50am-12.15pm, P3-7 Mon-Thu 8.50am-3.15pm, Fri 8.50am-12.25pm",http://www.gylemuir.edin.sch.uk,"Aileen Smart",West,"Green Flag","Read more about <a href=""http://www.edinburgh.gov.uk/ecoschools"">Eco Schools in Edinburgh</a>","Local Authority Non-Denominational Primary","55.9376317,-3.2945975"
"Hailesland Early Years Centre","23 Hailesland Place","EH14 2SL","0131 442 2163",,"<a href=""http://www.educationscotland.gov.uk/inspectionandreview/reports/school/index.asp"">Read Education Scotland's inspection reports</a>",,,"Moira McGachan","South West","Green Flag","Read more about <a href=""http://www.edinburgh.gov.uk/ecoschools"">Eco Schools in Edinburgh</a>","Early Years Centre","55.9169553,-3.2811622"
"Headstart Nursery School (Leith)","16 Queen Charlotte Street","EH6 6AT","0131 555 0700",leith@headstartnursery.co.uk,"<a href=""http://www.educationscotland.gov.uk/inspectionandreview/reports/school/index.asp"">Read Education Scotland's inspection reports</a>",,,,North,Registered,"Read more about <a href=""http://www.edinburgh.gov.uk/ecoschools"">Eco Schools in Edinburgh</a>","Private Day Nursery","55.9739042,-3.1690351"
"Headstart Nursery School (Morningside)","64/66 Morningside Drive","EH10 5NU","0131 447 4778",morningside@headstartnursery.co.uk,"<a href=""http://www.educationscotland.gov.uk/inspectionandreview/reports/school/index.asp"">Read Education Scotland's inspection reports</a>",,,,South,Registered,"Read more about <a href=""http://www.edinburgh.gov.uk/ecoschools"">Eco Schools in Edinburgh</a>","Private Day Nursery","55.9228165,-3.2171197"
"Heriot Hill Nursery","34 Heriot Hill Terrace","EH7 4DY","0131 557 9907",joyce@heriothillnursery.com,"<a href=""http://www.educationscotland.gov.uk/inspectionandreview/reports/school/index.asp"">Read Education Scotland's inspection reports</a>",,,,North,"Green flag","Read more about <a href=""http://www.edinburgh.gov.uk/ecoschools"">Eco Schools in Edinburgh</a>","Private Day Nursery","55.9627507,-3.194709"
"Hermitage Park Primary School Nursery Class","9 Hermitage Park","EH6 8HD","0131 554 2952",Admin@Hermitagepark.edin.sch.uk,"<a href=""http://www.educationscotland.gov.uk/inspectionandreview/reports/school/index.asp"">Read Education Scotland's inspection reports</a>","Nur 8.55am-11.30am, 12.25pm-3pm, FT 8.55am-3pm, P1-2 Mon-Thur 9am-3pm, Fri 9am-12.05pm, P3-7 Mon-Thu 9am-3.30pm, Fri 9am-12.15pm",http://www.hermitagepark.edin.sch.uk,"Denise Penman",North,"Green Flag","Read more about <a href=""http://www.edinburgh.gov.uk/ecoschools"">Eco Schools in Edinburgh</a>","Local Authority Non-Denominational Primary","55.9658085,-3.162323"
"Highland Fling Nursery","11 East Brighton Crescent","EH15 1LR","0131 468 3453",hfenquiries@gmail.com,"<a href=""http://www.educationscotland.gov.uk/inspectionandreview/reports/school/index.asp"">Read Education Scotland's inspection reports</a>",,,,East,Registered,"Read more about <a href=""http://www.edinburgh.gov.uk/ecoschools"">Eco Schools in Edinburgh</a>","Private Day Nursery","55.9506083,-3.1156125"
"Hillwood Primary School Nursery Class","Station Road, Ratho Station","EH28 8PT","0131 333 1210",Admin@hillwood.edin.sch.uk,"<a href=""http://www.educationscotland.gov.uk/inspectionandreview/reports/school/index.asp"">Read Education Scotland's inspection reports</a>","Nur 9.00am-11.30am, P1-7 Mon-Thu 8.50am-3.15pm, Fri 8.50am-12.15pm",http://www.hillwood.edin.sch.uk,"Lucy Henderson",West,Silver,"Read more about <a href=""http://www.edinburgh.gov.uk/ecoschools"">Eco Schools in Edinburgh</a>","Local Authority Non-Denominational Primary","55.9388075,-3.3917176"
"Holy Corner Community Playgroup","Christ Church Hall, Morningside Road","EH10 4DD","0131 228 2768",holycorner@hotmail.co.uk,"<a href=""http://www.educationscotland.gov.uk/inspectionandreview/reports/school/index.asp"">Read Education Scotland's inspection reports</a>",,,,South,,,"Playgroup or Part-Time Nursery","55.9308799,-3.2099003"
"Holy Cross RC Primary School Nursery Class","Craighall Road","EH6 4RE","0131 552 1972",Admin@Holycross.edin.sch.uk,"<a href=""http://www.educationscotland.gov.uk/inspectionandreview/reports/school/index.asp"">Read Education Scotland's inspection reports</a>","Nur 8.55am-11.30am, 12.25pm-3pm, FT 8.55am-3pm, P1-2 Mon-Thur 8.50am-2.55pm, Fri 8.50am-12.15pm, P3-7 Mon-Thu 8.50am-3.15pm, Fri 8.50am-12.25pm",http://www.holycross.edin.sch.uk,"Jackie McCarry",North,Silver,"Read more about <a href=""http://www.edinburgh.gov.uk/ecoschools"">Eco Schools in Edinburgh</a>","Local Authority Roman Catholic Primary","55.9773084,-3.1971993"
"Hope Cottage Nursery School","7 Cowan's Close","EH8 9HF","0131 667 5795",Admin@hopecottage-nur.edin.sch.uk,"<a href=""http://www.educationscotland.gov.uk/inspectionandreview/reports/school/index.asp"">Read Education Scotland's inspection reports</a>",9.00am-3.00pm,http://www.hopecottage-nur.edin.sch.uk,"Jane Whinnett",South,Silver,"Read more about <a href=""http://www.edinburgh.gov.uk/ecoschools"">Eco Schools in Edinburgh</a>","Local Authority Nursery School","55.9434135,-3.1818363"
"James Gillespie's Primary School Nursery Class","Whitehouse Loan","EH9 1BD","0131 447 1014",Admin@jamesgillespies-pri.edin.sch.uk,"<a href=""http://www.educationscotland.gov.uk/inspectionandreview/reports/school/index.asp"">Read Education Scotland's inspection reports</a>","Nur 8.55am-11.30am, 12.35pm-3.10pm, FT 8.45am-3pm, P1-2 Mon-Thur 8.45am-2.50pm, Fri 8.45am-12.15pm, P3-7 Mon-Thu 8.45am-3.20pm, Fri 8.45am-12.25pm",http://www.jamesgillespies-pri.edin.sch.uk,"Anthea Grierson",South,Silver,"Read more about <a href=""http://www.edinburgh.gov.uk/ecoschools"">Eco Schools in Edinburgh</a>","Local Authority Non-Denominational Primary","55.934595,-3.201203"
"Jigsaw Childcare","40 Turnhouse Road","EH12 8LX","0131 339 5557",enquiries@jigsaw-childcare.com,"<a href=""http://www.educationscotland.gov.uk/inspectionandreview/reports/school/index.asp"">Read Education Scotland's inspection reports</a>",,,,West,Registered,"Read more about <a href=""http://www.edinburgh.gov.uk/ecoschools"">Eco Schools in Edinburgh</a>","Private Day Nursery","55.9408952,-3.3145519"
"Jigsaw Nursery","5 Main Street","EH14 7EQ","0131 449 4516",diane@jigsaw-nurseries.co.uk,"<a href=""http://www.educationscotland.gov.uk/inspectionandreview/reports/school/index.asp"">Read Education Scotland's inspection reports</a>",,,,"South West",,,"Private Day Nursery","55.8838984,-3.3384577"
"Juniper Green Primary School Nursery Class","20 Baberton Mains Wynd","EH14 3EE","0131 442 2121",Admin@junipergreen.edin.sch.uk,"<a href=""http://www.educationscotland.gov.uk/inspectionandreview/reports/school/index.asp"">Read Education Scotland's inspection reports</a>","Nur 8.55am-11.30am, 12.25pm-3pm, FT 8.55am-3pm, P1-2 Mon-Thur 8.45am-2.50pm, Fri 8.45am-11.50am, P3-7 Mon-Thu 8.45am-3.15pm, Fri 8.45am-12pm",http://www.junipergreen.edin.sch.uk,"Ingrid Donaldson","South West",Green,"Read more about <a href=""http://www.edinburgh.gov.uk/ecoschools"">Eco Schools in Edinburgh</a>","Local Authority Non-Denominational Primary","55.9071881,-3.2858707"
"Kidzcare @ Grange Loan Toddler Nursery","133 Grange Loan","EH9 2HB","0131 668 4674",hannah.kay@kidzcare.org,"<a href=""http://www.educationscotland.gov.uk/inspectionandreview/reports/school/index.asp"">Read Education Scotland's inspection reports</a>",,,,South,Registered,"Read more about <a href=""http://www.edinburgh.gov.uk/ecoschools"">Eco Schools in Edinburgh</a>","Private Day Nursery","55.9307984,-3.1938889"
"Kidzcare @ Norwood House Nursery","9 Kilgraston Road","EH9 2DX","0131 668 2792",info@astleygrangenurseries.co.uk,"<a href=""http://www.educationscotland.gov.uk/inspectionandreview/reports/school/index.asp"">Read Education Scotland's inspection reports</a>",,,,South,Registered,"Read more about <a href=""http://www.edinburgh.gov.uk/ecoschools"">Eco Schools in Edinburgh</a>","Private Day Nursery","55.9338802,-3.1939197"
"Kirkliston Nursery School","Queensferry Road","EH29 9AQ","0131 333 2336",Admin@kirkliston.edin.sch.uk,"<a href=""http://www.educationscotland.gov.uk/inspectionandreview/reports/school/index.asp"">Read Education Scotland's inspection reports</a>","Mon-Fri, 8.55am-3.05pm",,"Lynn Patterson",West,"Green Flag","Read more about <a href=""http://www.edinburgh.gov.uk/ecoschools"">Eco Schools in Edinburgh</a>","Local Authority Nursery School","55.9603558,-3.4035023"
"Kirkliston Orchard Nursery","24 Newiston Road","EH29 9EA","0131 333 4621",kirkliston@orchard-nursery.co.uk,"<a href=""http://www.educationscotland.gov.uk/inspectionandreview/reports/school/index.asp"">Read Education Scotland's inspection reports</a>",,,,West,Silver,"Read more about <a href=""http://www.edinburgh.gov.uk/ecoschools"">Eco Schools in Edinburgh</a>","Private Day Nursery","55.9485034,-3.406407"
"Lanark Road Nursery","305 Lanark Road","EH14 2LL","0131 441 5678",lanarkroadnursery@hotmail.co.uk,"<a href=""http://www.educationscotland.gov.uk/inspectionandreview/reports/school/index.asp"">Read Education Scotland's inspection reports</a>",,,,"South West","Green flag","Read more about <a href=""http://www.edinburgh.gov.uk/ecoschools"">Eco Schools in Edinburgh</a>","Private Day Nursery","55.9146595,-3.2607029"
"Leaps and Bounds Nursery","56A Drum Brae North","EH4 8AZ","0131 339 1490",jacquiglasgow@msn.com,"<a href=""http://www.educationscotland.gov.uk/inspectionandreview/reports/school/index.asp"">Read Education Scotland's inspection reports</a>",,,,West,Bronze,"Read more about <a href=""http://www.edinburgh.gov.uk/ecoschools"">Eco Schools in Edinburgh</a>","Private Day Nursery","55.9582772,-3.3003069"
"Leith Primary School Nursery Class","St Andrew's Place","EH6 7EG","0131 554 4844",Admin@Leith-pri.edin.sch.uk,"<a href=""http://www.educationscotland.gov.uk/inspectionandreview/reports/school/index.asp"">Read Education Scotland's inspection reports</a>","Nur 8.55am-11.30am, 12.30pm-3.05pm, FT 8.55am-3.05pm, P1-2 Mon-Thur 8.50am-3pm, Fri 8.50am-12pm, P3-7 Mon-Thu 8.50am-3.15pm, Fri 8.50am-12.25pm",http://www.leith-pri.edin.sch.uk,"Alasdair Friend",North,Silver,"Read more about <a href=""http://www.edinburgh.gov.uk/ecoschools"">Eco Schools in Edinburgh</a>","Local Authority Non-Denominational Primary","55.9704782,-3.1685937"
"Leith Walk Primary School Nursery Class","9 Brunswick Road","EH7 5NG","0131 556 3873",Admin@leithwalk.edin.sch.uk,"<a href=""http://www.educationscotland.gov.uk/inspectionandreview/reports/school/index.asp"">Read Education Scotland's inspection reports</a>","Nur 8.55am-11.30am, 12.30pm-3.05pm, FT 8.55am-3.05pm, P1-2 Mon-Thur 8.55am-3pm, Fri 8.55am-12.20pm, P3-7 Mon-Thu 8.55am-3.20pm, Fri 8.55am-12.30pm",http://www.leithwalk.edin.sch.uk,"Jackie Reid",North,"Green Flag","Read more about <a href=""http://www.edinburgh.gov.uk/ecoschools"">Eco Schools in Edinburgh</a>","Local Authority Non-Denominational Primary","55.9599484,-3.1776078"
"Liberton Nursery School","68 - 70 Mount Vernon Road","EH16 6JQ","0131 664 3155",Admin@liberton-nur.edin.sch.uk,"<a href=""http://www.educationscotland.gov.uk/inspectionandreview/reports/school/index.asp"">Read Education Scotland's inspection reports</a>","Mon-Fri 8.55am-3.05pm",,"Jane Watson (Acting)",South,"Green Flag","Read more about <a href=""http://www.edinburgh.gov.uk/ecoschools"">Eco Schools in Edinburgh</a>","Local Authority Nursery School","55.9143732,-3.1590654"
"Liberton Primary School Nursery Class","229 Gilmerton Road","EH16 5UD","0131 664 2337",Admin@liberton-pri.edin.sch.uk,"<a href=""http://www.educationscotland.gov.uk/inspectionandreview/reports/school/index.asp"">Read Education Scotland's inspection reports</a>","Nur 8.55am-11.30am, 12.30pm-3.05pm, FT 8.55am-3.05pm, P1-2 Mon-Thur 8.50am-2.45pm, Fri 8.50am-12.15pm, P3-7 Mon-Thu 8.50am-3.15pm, Fri 8.50am-12.25pm",http://www.liberton-pri.edin.sch.uk,"Paul Ewing",South,Silver,"Read more about <a href=""http://www.edinburgh.gov.uk/ecoschools"">Eco Schools in Edinburgh</a>","Local Authority Non-Denominational Primary","55.9230019,-3.1635477"
"Little Flyers Nursery","4a Ingliston Road","EH28 8AU","0131 335 3679",littleflyersnursery@hotmail.co.uk,"<a href=""http://www.educationscotland.gov.uk/inspectionandreview/reports/school/index.asp"">Read Education Scotland's inspection reports</a>",,,,West,Registered,"Read more about <a href=""http://www.edinburgh.gov.uk/ecoschools"">Eco Schools in Edinburgh</a>","Private Day Nursery","55.9432574,-3.3703826"
"Little Learners Nursery","98 Lasswade Road","EH16 6SU","0131 664 3434",lyndsay@llnursery.co.uk,"<a href=""http://www.educationscotland.gov.uk/inspectionandreview/reports/school/index.asp"">Read Education Scotland's inspection reports</a>",,,,South,Registered,"Read more about <a href=""http://www.edinburgh.gov.uk/ecoschools"">Eco Schools in Edinburgh</a>","Private Day Nursery","55.9087395,-3.1561778"
"Little Monkeys Nursery - Craiglockhart","1 Craiglockhart Terrace","EH14 1AJ","0131 443 8701",craiglockhart@littlemonkeysnursery.com,"<a href=""http://www.educationscotland.gov.uk/inspectionandreview/reports/school/index.asp"">Read Education Scotland's inspection reports</a>",,,,West,Silver,"Read more about <a href=""http://www.edinburgh.gov.uk/ecoschools"">Eco Schools in Edinburgh</a>","Private Day Nursery","55.9268496,-3.2290255"
"Little Monkeys Nursery - Kilmaurs","28 Kilmaurs Road","EH16 5DP","0131 667 5544",kilmaurs@littlemonkeysnursery.com,"<a href=""http://www.educationscotland.gov.uk/inspectionandreview/reports/school/index.asp"">Read Education Scotland's inspection reports</a>",,,,South,Registered,"Read more about <a href=""http://www.edinburgh.gov.uk/ecoschools"">Eco Schools in Edinburgh</a>","Private Day Nursery","55.9339627,-3.1656051"
"Little VIPs Nursery","2 Windsor Place","EH15 2AA","0131 669 5040",mail@little-vips.com,"<a href=""http://www.educationscotland.gov.uk/inspectionandreview/reports/school/index.asp"">Read Education Scotland's inspection reports</a>",,,,East,,,"Private Day Nursery","55.952054,-3.1122655"
"Lochrin Nursery School","8 West Tollcross","EH3 9QN","0131 229 7743",Admin@lochrin-nur.edin.sch.uk,"<a href=""http://www.educationscotland.gov.uk/inspectionandreview/reports/school/index.asp"">Read Education Scotland's inspection reports</a>","Mon-Fri, 8.55am-3.00pm",,"Alice Brown",South,"Green Flag","Read more about <a href=""http://www.edinburgh.gov.uk/ecoschools"">Eco Schools in Edinburgh</a>","Local Authority Nursery School","55.9425697,-3.206216"
"Longstone Primary School Nursery Class","Redhall Grove","EH14 2DU","0131 443 4743",Admin@longstone.edin.sch.uk,"<a href=""http://www.educationscotland.gov.uk/inspectionandreview/reports/school/index.asp"">Read Education Scotland's inspection reports</a>","Nur 8.55am-11.30am, 12.30pm-3.05pm, FT 8.55am-3.05pm, P1-2 Mon-Thur 8.50am-2.50pm, Fri 8.50am-12.15pm, P3-7 Mon-Thu 8.50am-3.20pm, Fri 8.50am-12.05pm",http://www.longstone.edin.sch.uk,"Irene Mirtle","South West",Bronze,"Read more about <a href=""http://www.edinburgh.gov.uk/ecoschools"">Eco Schools in Edinburgh</a>","Local Authority Non-Denominational Primary","55.9214008,-3.2603794"
"Lorne Primary School Nursery Class","7 Lorne Street","EH6 8QS","0131 554 2308",Admin@Lorne.edin.sch.uk,"<a href=""http://www.educationscotland.gov.uk/inspectionandreview/reports/school/index.asp"">Read Education Scotland's inspection reports</a>","Nur 8.55am-11.30am, 12.25pm-3pm, FT 8.55am-3pm, P1-2 Mon-Thur 8.55am-2.55pm, Fri 8.55am-12pm, P3-7 Mon-Thu 8.55am-3.20pm, Fri 8.55am-12.10pm",http://www.lorne.edin.sch.uk,"Colin McLean",North,Green,"Read more about <a href=""http://www.edinburgh.gov.uk/ecoschools"">Eco Schools in Edinburgh</a>","Local Authority Non-Denominational Primary","55.966335,-3.1746314"
"Meadows Nursery","5 Millerfield Place","EH9 1LW","0131 667 5316",info@meadows-nursery.co.uk,"<a href=""http://www.educationscotland.gov.uk/inspectionandreview/reports/school/index.asp"">Read Education Scotland's inspection reports</a>",,,,South,"Green flag","Read more about <a href=""http://www.edinburgh.gov.uk/ecoschools"">Eco Schools in Edinburgh</a>","Private Day Nursery","55.9391115,-3.1876634"
"Melville House Nursery","41 Polwarth Terrace","EH11 1NL","0131 313 0111",melvillehouse@aol.com,"<a href=""http://www.educationscotland.gov.uk/inspectionandreview/reports/school/index.asp"">Read Education Scotland's inspection reports</a>",,,,West,Registered,"Read more about <a href=""http://www.edinburgh.gov.uk/ecoschools"">Eco Schools in Edinburgh</a>","Private Day Nursery","55.9321691,-3.2244524"
"Melville Street Nursery","57 Melville Street","EH3 7HL","0131 226 6184",contact@melvillestreetnursery.org.uk,"<a href=""http://www.educationscotland.gov.uk/inspectionandreview/reports/school/index.asp"">Read Education Scotland's inspection reports</a>",,,,North,,,"Private Day Nursery","55.9492247,-3.2153275"
"Moffat Early Years Campus","Moffat Early Years Campus, 20 Moffat Way","EH16 4NU","0131 661 1401",,"<a href=""http://www.educationscotland.gov.uk/inspectionandreview/reports/school/index.asp"">Read Education Scotland's inspection reports</a>",9.00am-3.00pm,,"Christine McKechnie (Acting)",East,Bronze,"Read more about <a href=""http://www.edinburgh.gov.uk/ecoschools"">Eco Schools in Edinburgh</a>","Early Years Centre","55.9348228,-3.1272605"
"Montessori Nursery School","Church of the Good Shepherd, Murrayfield Avenue","EH12 6AU","0131 346 8921",jpark@montessori-edinburgh.org.uk,"<a href=""http://www.educationscotland.gov.uk/inspectionandreview/reports/school/index.asp"">Read Education Scotland's inspection reports</a>",,http://www.themontessorinurseryschool.com,,West,Bronze,"Read more about <a href=""http://www.edinburgh.gov.uk/ecoschools"">Eco Schools in Edinburgh</a>","Playgroup or Part-Time Nursery","55.9471976,-3.2374582"
"Morningside Children's Nursery","Royal Edinburgh Hospital, Morningside Terrace","EH10 5HF","0131 669 0819",leadryburgh@yahoo.co.uk,"<a href=""http://www.educationscotland.gov.uk/inspectionandreview/reports/school/index.asp"">Read Education Scotland's inspection reports</a>",,,,South,,,"Private Day Nursery","55.9275269,-3.2129459"
"Murrayburn Primary School Nursery Class","1 Sighthill Loan","EH11 4NP","0131 453 5339",Admin@murrayburn.edin.sch.uk,"<a href=""http://www.educationscotland.gov.uk/inspectionandreview/reports/school/index.asp"">Read Education Scotland's inspection reports</a>","Nursery 8.30am-11.40am, 12.20pm-3.30pm
P1-2 Mon-Thur 8.45am-2.45pm, Fri 8.45am-11.50am
P3-7 Mon-Thu 8.45am-3.15pm, Fri 8.45am-12pm</p>",http://murrayburn-edin.j2webby.com,"Catherine Lynch",West,Silver,"Read more about <a href=""http://www.edinburgh.gov.uk/ecoschools"">Eco Schools in Edinburgh</a>","Local Authority Non-Denominational Primary","55.9230049,-3.2818099"
"Murrayfield Nursery","52 Saughton Crescent","EH12 5SP","0131 346 4459",maxinesmith1@btconnect.com,"<a href=""http://www.educationscotland.gov.uk/inspectionandreview/reports/school/index.asp"">Read Education Scotland's inspection reports</a>",,,,West,Silver,"Read more about <a href=""http://www.edinburgh.gov.uk/ecoschools"">Eco Schools in Edinburgh</a>","Private Day Nursery","55.9436499,-3.2547359"
"New Town Nursery","12 Dean Terrace","EH4 1ND","0131 332 5920",irene@newtownnurseries.com,"<a href=""http://www.educationscotland.gov.uk/inspectionandreview/reports/school/index.asp"">Read Education Scotland's inspection reports</a>",,,,North,"Green flag","Read more about <a href=""http://www.edinburgh.gov.uk/ecoschools"">Eco Schools in Edinburgh</a>","Private Day Nursery","55.9571467,-3.2100402"
"New Town Nursery Too","4 Forres Street","EH3 6BJ","0131 226 5692",forres@newtownnurseries.com,"<a href=""http://www.educationscotland.gov.uk/inspectionandreview/reports/school/index.asp"">Read Education Scotland's inspection reports</a>",,,,North,"Green Flag","Read more about <a href=""http://www.edinburgh.gov.uk/ecoschools"">Eco Schools in Edinburgh</a>","Private Day Nursery","55.954037,-3.2078301"
"Newcraighall Primary School Nursery Class","Whitehill Street, Newcraighall","EH21 8QZ","0131 669 3598",Admin@newcraighall.edin.sch.uk,"<a href=""http://www.educationscotland.gov.uk/inspectionandreview/reports/school/index.asp"">Read Education Scotland's inspection reports</a>","Nur 8.40am-11.15am, P1-7 Mon-Thur 8.45am-3.05pm, Fri 8.45am-12.20pm",http://www.newcraighall.edin.sch.uk,"Janet Paterson",East,Bronze,"Read more about <a href=""http://www.edinburgh.gov.uk/ecoschools"">Eco Schools in Edinburgh</a>","Local Authority Non-Denominational Primary","55.9269101,-3.0828501"
"Nippers Nursery","Verdun Villa, 18/19 Main Street","EH30 9TU","0131 319 1778",nippers.nursery@btinternet.com,"<a href=""http://www.educationscotland.gov.uk/inspectionandreview/reports/school/index.asp"">Read Education Scotland's inspection reports</a>",,,,West,Silver,"Read more about <a href=""http://www.edinburgh.gov.uk/ecoschools"">Eco Schools in Edinburgh</a>","Private Day Nursery","55.9817522,-3.3736032"
"North Edinburgh Childcare Project","18b Ferry Road Avenue","EH4 4BL","0131 332 8001",info@northedinburghchildcare.co.uk,"<a href=""http://www.educationscotland.gov.uk/inspectionandreview/reports/school/index.asp"">Read Education Scotland's inspection reports</a>",,,,North,"Green flag","Read more about <a href=""http://www.edinburgh.gov.uk/ecoschools"">Eco Schools in Edinburgh</a>","Community Childcare Centre","55.96933,-3.2409949"
"Northfield/Willowbrae Playgroup","Northfield/Willowbrae Community Centre, Northfield Road","EH8 7PP","0131 661 5723",northfieldwillowbrae@sky.com,"<a href=""http://www.educationscotland.gov.uk/inspectionandreview/reports/school/index.asp"">Read Education Scotland's inspection reports</a>",,,"Jill O`Malley",East,,,"Playgroup or Part-Time Nursery","55.9522605,-3.1405231"
"Orchard Nursery","Royal Victoria Hospital, 29 Inverlieth Row","EH3 5QH","0131 552 5000",edinburgh@orchard-nursery.co.uk,"<a href=""http://www.educationscotland.gov.uk/inspectionandreview/reports/school/index.asp"">Read Education Scotland's inspection reports</a>",,,,North,Silver,"Read more about <a href=""http://www.edinburgh.gov.uk/ecoschools"">Eco Schools in Edinburgh</a>","Private Day Nursery","55.9675314,-3.2058505"
"Oxgangs Primary School Nursery Class","60 Oxgangs Road North","EH13 9DS","0131 441 3649",Admin@Oxgangs.edin.sch.uk,"<a href=""http://www.educationscotland.gov.uk/inspectionandreview/reports/school/index.asp"">Read Education Scotland's inspection reports</a>","Nursery 8:45am-11:55am, 12.30pm-3:40pm. P1-2 Mon-Thur 8.55am-2.45pm, Fri 8.55am-12.25pm. P3-7 Mon-Thu 8.55am-3.20pm, Fri 8.55am-12.30pm",http://www.oxgangs.edin.sch.uk,"Liz Walshe","South West",Silver,"Read more about <a href=""http://www.edinburgh.gov.uk/ecoschools"">Eco Schools in Edinburgh</a>","Local Authority Non-Denominational Primary","55.9131129,-3.2356205"
"Parsons Green Primary School Nursery Class","60 Meadowfield Drive","EH8 7LU","0131 661 4459",Admin@parsonsgreen.edin.sch.uk,"<a href=""http://www.educationscotland.gov.uk/inspectionandreview/reports/school/index.asp"">Read Education Scotland's inspection reports</a>","Nur 9am-11.35am, 12.30pm-3.05pm, FT 9am-3.05pm, P1-2 Mon-Thur 8.55am-2.50pm, Fri 8.55am-12pm, P3-7 Mon-Thu 8.55am-3.20pm, Fri 8.55am-12.30pm",http://www.parsonsgreen.edin.sch.uk,"Jennifer McGowan (Acting)",East,Silver,"Read more about <a href=""http://www.edinburgh.gov.uk/ecoschools"">Eco Schools in Edinburgh</a>","Local Authority Non-Denominational Primary","55.9479798,-3.1441957"
"Peek-A-Boo Nursery School","12 Parkgrove Loan","EH4 7QX","0131 339 9161",sally-anne.p@virgin.net,"<a href=""http://www.educationscotland.gov.uk/inspectionandreview/reports/school/index.asp"">Read Education Scotland's inspection reports</a>",,,,West,Silver,"Read more about <a href=""http://www.edinburgh.gov.uk/ecoschools"">Eco Schools in Edinburgh</a>","Private Day Nursery","55.9584384,-3.2984339"
"Pentland Primary School Nursery Class","Oxgangs Green","EH13 9JF","0131 445 1510",Admin@pentland.edin.sch.uk,"<a href=""http://www.educationscotland.gov.uk/inspectionandreview/reports/school/index.asp"">Read Education Scotland's inspection reports</a>","Nur 8.55am-11.30am, 12.30pm-3.05pm, FT 8.55am-3.05pm, P1-2 Mon-Thur 8.50am-3.05pm, Fri 8.50am-12.15pm, P3-7 Mon-Thu 8.50am-3.15pm, Fri 8.50am-12.25pm",http://www.pentland.edin.sch.uk,"Jacqueline Mackenzie","South West",Silver,"Read more about <a href=""http://www.edinburgh.gov.uk/ecoschools"">Eco Schools in Edinburgh</a>","Local Authority Non-Denominational Primary","55.9086901,-3.2203135"
"Pinocchio's Nursery (Gilmerton)","6 Ferniehill Road","EH17 7AB","0131 664 3276",gilmerton@pinocchiosnursery.co.uk,"<a href=""http://www.educationscotland.gov.uk/inspectionandreview/reports/school/index.asp"">Read Education Scotland's inspection reports</a>",,,,South,Bronze,"Read more about <a href=""http://www.edinburgh.gov.uk/ecoschools"">Eco Schools in Edinburgh</a>","Private Day Nursery","55.9073023,-3.1339001"
"Pinocchio's Nursery (Heriot Watt University)","First Gait, Heriot Watt University, Riccarton Campus","EH14 4AS","0131 451 5236",heriot-watt@pinocchiosnursery.co.uk,"<a href=""http://www.educationscotland.gov.uk/inspectionandreview/reports/school/index.asp"">Read Education Scotland's inspection reports</a>",,,,"South West",Bronze,"Read more about <a href=""http://www.edinburgh.gov.uk/ecoschools"">Eco Schools in Edinburgh</a>","College/University Nursery","55.909403,-3.3206991"
"Pirniehall Primary School Nursery Class","4 West Pilton Crescent","EH4 4EP","0131 332 5256",Admin@pirniehall.edin.sch.uk,"<a href=""http://www.educationscotland.gov.uk/inspectionandreview/reports/school/index.asp"">Read Education Scotland's inspection reports</a>","Nursery 8:30am-11.40am, 12.15pm-3.155pm
P1-2 Mon-Thur 8.40am-2.50pm, Fri 8.40am-12.05pm
P3-7 Mon-Thu 8.40am-3.05pm, Fri 8.40am-12.15pm",http://www.pirniehall.edin.sch.uk,"Mary Ryan-Gillespie",North,"Green Flag","Read more about <a href=""http://www.edinburgh.gov.uk/ecoschools"">Eco Schools in Edinburgh</a>","Local Authority Non-Denominational Primary","55.9727643,-3.2495938"
"Playdays Kindergarten","17 East Suffolk Road","EH16 6PH","0131 662 0010",iplaydays@aol.com,"<a href=""http://www.educationscotland.gov.uk/inspectionandreview/reports/school/index.asp"">Read Education Scotland's inspection reports</a>",,,,South,,,"Private Day Nursery","55.9300835,-3.1681776"
"Prestonfield Primary School Nursery Class","Peffermill Road","EH16 5LJ","0131 667 1336",Admin@Prestonfield.edin.sch.uk,"<a href=""http://www.educationscotland.gov.uk/inspectionandreview/reports/school/index.asp"">Read Education Scotland's inspection reports</a>","Nur 8.55am-11.30am, 12.30pm-3.05pm, FT 8.55am-3.05pm, P1-2 Mon-Thur 8.50am-3.05pm, Fri 8.50am-12.15pm, P3-7 Mon-Thu 8.50am-3.15pm, Fri 8.50am-12.25pm",http://www.prestonfield.edin.sch.uk,"Fiona Murray",South,Silver,"Read more about <a href=""http://www.edinburgh.gov.uk/ecoschools"">Eco Schools in Edinburgh</a>","Local Authority Non-Denominational Primary","55.9320996,-3.1498076"
"Priestfield House Nursery","89 Priestfield Road","EH16 5JD","0131 620 2379",info@priestfieldnursery.com,"<a href=""http://www.educationscotland.gov.uk/inspectionandreview/reports/school/index.asp"">Read Education Scotland's inspection reports</a>",,,,South,"Green flag","Read more about <a href=""http://www.edinburgh.gov.uk/ecoschools"">Eco Schools in Edinburgh</a>","Private Day Nursery","55.9344439,-3.1587765"
"Queensferry Early Years Centre","Burgess Road","EH30 9NX","0131 331 3594 or 07847 116782",,"<a href=""http://www.educationscotland.gov.uk/inspectionandreview/reports/school/index.asp"">Read Education Scotland's inspection reports</a>",,http://www.edinburgh.gov.uk/queensferryeyc/,"Irene Watson",West,Silver,"Read more about <a href=""http://www.edinburgh.gov.uk/ecoschools"">Eco Schools in Edinburgh</a>","Early Years Centre","55.9869903,-3.3947755"
"Queensferry Primary School Nursery Class","Burgess Road, South Queensferry","EH30 9NX","0131 331 1349",quee-adminstaff@ea.edin.sch.uk,"<a href=""http://www.educationscotland.gov.uk/inspectionandreview/reports/school/index.asp"">Read Education Scotland's inspection reports</a>","Nur 8.55am-11.30am, 12.25pm-3pm, FT 8.55am-3pm, P1-2 Mon-Thur 8.55am-2.45pm, Fri 8.55am-12.20pm, P3-7 Mon-Thu 9am-3.25pm, Fri 9am-12.35pm",http://www.queensferry-pri.edin.sch.uk,"Karen MacGregor",West,Silver,"Read more about <a href=""http://www.edinburgh.gov.uk/ecoschools"">Eco Schools in Edinburgh</a>","Local Authority Non-Denominational Primary","55.9869754,-3.3946589"
"Rainbow Kindergarten","72 Gilmore Place","EH3 9NX","0131 226 7340",rainbow.kindergarten@tiscali.co.uk,"<a href=""http://www.educationscotland.gov.uk/inspectionandreview/reports/school/index.asp"">Read Education Scotland's inspection reports</a>",,,,South,,,"Private Day Nursery","55.9408333,-3.2096435"
"Ratho Primary School Nursery Class","1 School Wynd, Ratho","EH28 8TT","0131 333 1293",Admin@ratho.edin.sch.uk,"<a href=""http://www.educationscotland.gov.uk/inspectionandreview/reports/school/index.asp"">Read Education Scotland's inspection reports</a>","Nursery 8.15am-11.25am, 12.20pm-3.30pm
P1-2 Mon-Thur 8.50am-2.40pm, Fri 8.50am-12.15pm
P3-7 Mon-Thu 8.50am-3.15pm, Fri 8.50am-12.25pm",http://www.ratho.edin.sch.uk,"Claire McGlynn","South West","Green Flag","Read more about <a href=""http://www.edinburgh.gov.uk/ecoschools"">Eco Schools in Edinburgh</a>","Local Authority Non-Denominational Primary","55.9222825,-3.384237"
"Rocking Horse Nursery","60A Duddingston Road","EH15 1SG","0131 228 1668",rockinghorsenursery@hotmail.co.uk,"<a href=""http://www.educationscotland.gov.uk/inspectionandreview/reports/school/index.asp"">Read Education Scotland's inspection reports</a>",,,,East,Silver,"Read more about <a href=""http://www.edinburgh.gov.uk/ecoschools"">Eco Schools in Edinburgh</a>","Private Day Nursery","55.9471048,-3.1304663"
"Roseburn Primary School Nursery Class","64 Roseburn Street","EH12 5PL","0131 337 6096",Admin@Roseburn.edin.sch.uk,"<a href=""http://www.educationscotland.gov.uk/inspectionandreview/reports/school/index.asp"">Read Education Scotland's inspection reports</a>","Nursery 8.55am-11.30am, 12.30pm-3.05pm
P1-2 Mon-Thur 8.50am-3pm, Fri 8.50am-12.15pm
P3-7 Mon-Thu 8.50am-3.15pm, Fri 8.50am-12.25pm",http://www.roseburn.edin.sch.uk,"Viv Donaldson",West,"Green Flag","Read more about <a href=""http://www.edinburgh.gov.uk/ecoschools"">Eco Schools in Edinburgh</a>","Local Authority Non-Denominational Primary","55.942908,-3.237876"
"Royal Mile Nursery","215 High Street / Old Stamp Office Close","EH1 1PX","0131 537 6342",lesleybothwell@hotmail.co.uk,"<a href=""http://www.educationscotland.gov.uk/inspectionandreview/reports/school/index.asp"">Read Education Scotland's inspection reports</a>",,,,South,,,"Private Day Nursery","55.9503807,-3.1889507"
"Royal Mile Primary School Nursery Class","86 Canongate","EH8 8BZ","0131 556 3347",Admin@royalmile.edin.sch.uk,"<a href=""http://www.educationscotland.gov.uk/inspectionandreview/reports/school/index.asp"">Read Education Scotland's inspection reports</a>","Nursery 8.55am-11.30am, 12.30pm-3.05pm
P1-2 Mon-Thur 8.50am-3pm, Fri 8.50am-11.55am
P3-7 Mon-Thu 8.50am-3.15pm, Fri 8.50am-12.25pm",http://www.royalmile.edin.sch.uk,"Nicky Johnstone",South,Bronze,"Read more about <a href=""http://www.edinburgh.gov.uk/ecoschools"">Eco Schools in Edinburgh</a>","Local Authority Non-Denominational Primary","55.951868,-3.1774081"
"Scallywags Children's Nursery","62 Longstone Road","EH14 2BA","0131 226 6574",scallywags2008@hotmail.co.uk,"<a href=""http://www.educationscotland.gov.uk/inspectionandreview/reports/school/index.asp"">Read Education Scotland's inspection reports</a>",,,,"South West",Silver,"Read more about <a href=""http://www.edinburgh.gov.uk/ecoschools"">Eco Schools in Edinburgh</a>","Private Day Nursery","55.9252741,-3.2608371"
"Seabeach Nursery","27 Straiton Place","EH15 2BA","0131 443 2002",seabeachnursery@btconnect.com,"<a href=""http://www.educationscotland.gov.uk/inspectionandreview/reports/school/index.asp"">Read Education Scotland's inspection reports</a>",,,,East,Registered,"Read more about <a href=""http://www.edinburgh.gov.uk/ecoschools"">Eco Schools in Edinburgh</a>","Private Day Nursery","55.9537168,-3.1090591"
"Sighthill Early Years Centre","12 Calder Gardens","EH11 4JD","0131 442 2018",,"<a href=""http://www.educationscotland.gov.uk/inspectionandreview/reports/school/index.asp"">Read Education Scotland's inspection reports</a>",,,"Elaine Beattie","South West",Silver,"Read more about <a href=""http://www.edinburgh.gov.uk/ecoschools"">Eco Schools in Edinburgh</a>","Early Years Centre","55.919316,-3.2994225"
"Sighthill Primary School Nursery Class","1 Calder Park","EH11 4NF","0131 453 2464",Admin@Sighthill.edin.sch.uk,"<a href=""http://www.educationscotland.gov.uk/inspectionandreview/reports/school/index.asp"">Read Education Scotland's inspection reports</a>","Nur 8.45am-11.35am, Alternate Fri 9.00am-12.10pm, 12.20pm-3.10pm, P1-2 Mon-Thur 8.50am-2.45pm, Fri 8.50am-12.20pm, P3-7 Mon-Thu 8.50am-3.15pm, Fri 8.50am-12.30pm",http://www.sighthill.edin.sch.uk,"Anne Gallagher","South West",Silver,"Read more about <a href=""http://www.edinburgh.gov.uk/ecoschools"">Eco Schools in Edinburgh</a>","Local Authority Non-Denominational Primary","55.9198054,-3.2938977"
Smilechildcare,"17 Calder Grove","EH11 7LZ","0131 476 7800",droger@smilechildcare.org,"<a href=""http://www.educationscotland.gov.uk/inspectionandreview/reports/school/index.asp"">Read Education Scotland's inspection reports</a>",,,,"South West","Green flag","Read more about <a href=""http://www.edinburgh.gov.uk/ecoschools"">Eco Schools in Edinburgh</a>","Community Childcare Centre","55.9178918,-3.294714"
"South Morningside Primary School Nursery Class","116 Comiston Road","EH10 5QN","0131 447 5446",Admin@southmorningside.edin.sch.uk,"<a href=""http://www.educationscotland.gov.uk/inspectionandreview/reports/school/index.asp"">Read Education Scotland's inspection reports</a>","Nursery 9am-11.35am, 12.25pm-3pm
P1-2 Mon-Thur 8.50am-3pm, Fri 8.50am-12.20pm
P3-7 Mon-Thu 8.45am-3.15pm, Fri 8.45am-12.25pm",http://www.southmorningside.edin.sch.uk,"Elizabeth Grierson",South,Silver,"Read more about <a href=""http://www.edinburgh.gov.uk/ecoschools"">Eco Schools in Edinburgh</a>","Local Authority Non-Denominational Primary","55.9209778,-3.2122294"
"St Catherine's RC Primary School Nursery Class","30 Gracemount Drive","EH16 6RN","0131 664 4257",Admin@st-catherines.edin.sch.uk,"<a href=""http://www.educationscotland.gov.uk/inspectionandreview/reports/school/index.asp"">Read Education Scotland's inspection reports</a>","Nur 8.55am-11.30am, 12.30pm-3.05pm, P1-2 Mon-Thur 8.45am-3.05pm, Fri 8.45am-12.10pm, P3-7 Mon-Thu 8.45am-3.05pm, Fri 8.45am-12.16pm",http://www.st-catherines.edin.sch.uk,"Paul Hunter",South,"Green Flag","Read more about <a href=""http://www.edinburgh.gov.uk/ecoschools"">Eco Schools in Edinburgh</a>","Local Authority Roman Catholic Primary","55.9038364,-3.1568157"
"St David's RC Primary School Nursery Class","4 West Pilton Crescent","EH4 4EP","0131 332 3500",Admin@st-davids.edin.sch.uk,"<a href=""http://www.educationscotland.gov.uk/inspectionandreview/reports/school/index.asp"">Read Education Scotland's inspection reports</a>","Nur 9am-11.35am, 12.25pm-3pm, P1-2 Mon-Thur 8.50am-2.50pm, Fri 8.50am-12.15pm, P3-7 Mon-Thu 8.50am-3.15pm, Fri 8.50am-12.25pm",http://www.st-davids.edin.sch.uk,"Siobhan Kellock",North,"Green Flag","Read more about <a href=""http://www.edinburgh.gov.uk/ecoschools"">Eco Schools in Edinburgh</a>","Local Authority Roman Catholic Primary","55.9727643,-3.2495938"
"St George's School for Girls","9 Garscube Terrace","EH12 6BW","0131 311 8008",admissions@stge.org.uk,"<a href=""http://www.educationscotland.gov.uk/inspectionandreview/reports/school/index.asp"">Read Education Scotland's inspection reports</a>",,,"Mrs Paula Dennis",West,Green,"Read more about <a href=""http://www.edinburgh.gov.uk/ecoschools"">Eco Schools in Edinburgh</a>","Independent School","55.9498846,-3.2363222"
"St James Playgroup","St James Church, Rosefield Place","EH15 1AZ","0131 258 4961/07847 602329",miltonemma@hotmail.com,"<a href=""http://www.educationscotland.gov.uk/inspectionandreview/reports/school/index.asp"">Read Education Scotland's inspection reports</a>",,,"Emma Milton",East,,,"Playgroup or Part-Time Nursery","55.9519238,-3.1169212"
"St John Vianney RC Primary School Nursery Class","17 Ivanhoe Crescent","EH16 6AU","0131 664 1742",Admin@st-johnvianney.edin.sch.uk,"<a href=""http://www.educationscotland.gov.uk/inspectionandreview/reports/school/index.asp"">Read Education Scotland's inspection reports</a>","Nur 8.55am-11.30am, 12.30pm-3.05pm, FT 8.55am-3.05pm, P1-2 Mon-Thur 8.50am-3pm, Fri 8.50am-12.20pm, P3-7 Mon-Thu 8.50am-3.10pm, Fri 8.50am-12.30pm",http://www.take2theweb.com/pub/edinburgh/stjohnvianney,"Helen Hill",South,"Green Flag","Read more about <a href=""http://www.edinburgh.gov.uk/ecoschools"">Eco Schools in Edinburgh</a>","Local Authority Roman Catholic Primary","55.918832,-3.1576063"
"St John's RC Primary School Nursery Class","Hamilton Terrace","EH15 1NB","0131 669 1363",Admin@st-johns.edin.sch.uk,"<a href=""http://www.educationscotland.gov.uk/inspectionandreview/reports/school/index.asp"">Read Education Scotland's inspection reports</a>","Nur 8.45am-11.20am, 12.20pm-2.55pm, FT 8.45am-2.55pm, P1-2 Mon-Thur 8.50am-2.45pm, Fri 8.50am-11.55am, P3-7 Mon-Thu 8.50am-3.20pm, Fri 8.50am-12.05pm",http://www.st-johns.edin.sch.uk/,"Barbara Service",East,Silver,"Read more about <a href=""http://www.edinburgh.gov.uk/ecoschools"">Eco Schools in Edinburgh</a>","Local Authority Roman Catholic Primary","55.9490068,-3.1200965"
"St Joseph's RC Primary School Nursery Class","Saughton Road","EH11 3RQ","0131 443 4591",Admin@st-josephs.edin.sch.uk,"<a href=""http://www.educationscotland.gov.uk/inspectionandreview/reports/school/index.asp"">Read Education Scotland's inspection reports</a>","Nur 8.55am-11.30am, 12.25pm-3pm, FT 8.55am-3pm, P1-2 Mon-Thur 8.50am-3pm, Fri 8.50am-12.15pm, P3-7 Mon-Thu 8.50am-3.15pm, Fri 8.50am-12.25pm",http://www.st-josephs.edin.sch.uk,"Wynne McDonald",West,"Green Flag","Read more about <a href=""http://www.edinburgh.gov.uk/ecoschools"">Eco Schools in Edinburgh</a>","Local Authority Roman Catholic Primary","55.9296341,-3.2726582"
"St Leonard's Nursery School","6 West Adam Street","EH8 9SY","0131 667 4674",Admin@st-leonards-nur.edin.sch.uk,"<a href=""http://www.educationscotland.gov.uk/inspectionandreview/reports/school/index.asp"">Read Education Scotland's inspection reports</a>","Mon-Fri, 8.55am-11.30am; 12.25pm-3.00pm",,"Clare McCusker",South,"Green Flag","Read more about <a href=""http://www.edinburgh.gov.uk/ecoschools"">Eco Schools in Edinburgh</a>","Local Authority Nursery School","55.9468548,-3.1827898"
"St Mark's RC Primary School Nursery Class","63 Firrhill Crescent","EH13 9EE","0131 441 2948",Admin@st-marks.edin.sch.uk,"<a href=""http://www.educationscotland.gov.uk/inspectionandreview/reports/school/index.asp"">Read Education Scotland's inspection reports</a>","Nur 8.55am-11.30am, 12.25pm-3pm, P1-2 Mon-Thur 8.50am-2.50pm, Fri 8.50am-12.25pm, P3-7 Mon-Thu 8.50am-3.15pm, Fri 8.50am-12.25pm",http://www.st-marks.edin.sch.uk,"James McDevitt","South West",Silver,"Read more about <a href=""http://www.edinburgh.gov.uk/ecoschools"">Eco Schools in Edinburgh</a>","Local Authority Roman Catholic Primary","55.9115855,-3.2305903"
"St Mary's RC Primary School (Leith) Nursery Class","30 Links Gardens","EH6 7JG","0131 554 7291",Admin@st-marys-pri.edin.sch.uk,"<a href=""http://www.educationscotland.gov.uk/inspectionandreview/reports/school/index.asp"">Read Education Scotland's inspection reports</a>","Nur 8.55am-11.30am, 12.30pm-3.05pm, FT 8.55am-3.05pm, P1-2 Mon-Thur 8.50am-2.55pm, Fri 8.50am-12.15pm, P3-7 Mon-Thu 8.50am-3.15pm, Fri 8.50am-12.25pm",http://www.stmarysleith.org,"Stephen Gilhooley",North,"Green Flag","Read more about <a href=""http://www.edinburgh.gov.uk/ecoschools"">Eco Schools in Edinburgh</a>","Local Authority Roman Catholic Primary","55.9718447,-3.1609118"
"St Ninian's RC Primary School Nursery Class","150 Restalrig Road South","EH7 6JA","0131 661 3431",Admin@st-ninians.edin.sch.uk,"<a href=""http://www.educationscotland.gov.uk/inspectionandreview/reports/school/index.asp"">Read Education Scotland's inspection reports</a>","Nur 8.55am-11.30am, 12.30pm-3.05pm, FT 8.55am-3.05pm, P1-2 Mon-Thur 8.55am-3.05pm, Fri 8.55am-12pm, P3-7 Mon-Thu 8.55am-3.20pm, Fri 8.55am-12.10pm",http://www.st-ninians.edin.sch.uk,"Angie Brack",North,Bronze,"Read more about <a href=""http://www.edinburgh.gov.uk/ecoschools"">Eco Schools in Edinburgh</a>","Local Authority Roman Catholic Primary","55.9601105,-3.1504411"
"St Peter's RC Primary School Nursery Class","10 Falcon Road","EH10 4AH","0131 447 5742",Admin@st-peters.edin.sch.uk,"<a href=""http://www.educationscotland.gov.uk/inspectionandreview/reports/school/index.asp"">Read Education Scotland's inspection reports</a>","Nur 9am-11.35am, 12.30pm-3.05pm, FT 9am-3.05pm, P1-2 Mon-Thur 8.50am-3pm, Fri 8.50am-12.05pm, P3-7 Mon-Thu 8.50am-3.10pm, Fri 8.50am-12.25pm",http://www.st-peters.edin.sch.uk,"Kathleen Nazarian",South,Silver,"Read more about <a href=""http://www.edinburgh.gov.uk/ecoschools"">Eco Schools in Edinburgh</a>","Local Authority Roman Catholic Primary","55.9296992,-3.2071078"
"Stanwell Nursery School","Junction Place","EH6 5JA","0131 554 1309",Admin@stanwell-nur.edin.sch.uk,"<a href=""http://www.educationscotland.gov.uk/inspectionandreview/reports/school/index.asp"">Read Education Scotland's inspection reports</a>","Mon-Fri, 8.55am-3.00pm",http://www.stanwell-nur.edin.sch.uk,"Alison Smith",North,Green,"Read more about <a href=""http://www.edinburgh.gov.uk/ecoschools"">Eco Schools in Edinburgh</a>","Local Authority Nursery School","55.9716068,-3.1749279"
"Stenhouse Early Years Centre","43 Fords Road","EH11 3HS","0131 443 1207",,"<a href=""http://www.educationscotland.gov.uk/inspectionandreview/reports/school/index.asp"">Read Education Scotland's inspection reports</a>",,,"Elaine Beattie",West,"Not Registered","Read more about <a href=""http://www.edinburgh.gov.uk/ecoschools"">Eco Schools in Edinburgh</a>","Early Years Centre","55.9327351,-3.2527246"
"Stenhouse Primary School Nursery Class","4 Saughton Mains Street","EH11 3HH","0131 443 1255",Admin@stenhouse.edin.sch.uk,"<a href=""http://www.educationscotland.gov.uk/inspectionandreview/reports/school/index.asp"">Read Education Scotland's inspection reports</a>","Nur 8.55am-11.30am, 12.25pm-3pm, P1-2 Mon-Thur 8.45am-2.50pm, Fri 8.45am-11.50pm, P3-7 Mon-Thu 8.45am-3.15pm, Fri 8.45am-12pm",http://www.stenhouse.edin.sch.uk,"Steven Jamieson",West,Registered,"Read more about <a href=""http://www.edinburgh.gov.uk/ecoschools"">Eco Schools in Edinburgh</a>","Local Authority Non-Denominational Primary","55.9313388,-3.2646599"
"Stepping Stones Nursery","21A Millerfield Place","EH9 1LW","0131 668 4249",jnt_burns@yahoo.co.uk,"<a href=""http://www.educationscotland.gov.uk/inspectionandreview/reports/school/index.asp"">Read Education Scotland's inspection reports</a>",,,,South,Bronze,"Read more about <a href=""http://www.edinburgh.gov.uk/ecoschools"">Eco Schools in Edinburgh</a>","Private Day Nursery","55.9391115,-3.1876634"
"Stockbridge Primary School Nursery Class","17a Hamilton Place","EH3 5BA","0131 332 6109",Admin@stockbridge.edin.sch.uk,"<a href=""http://www.educationscotland.gov.uk/inspectionandreview/reports/school/index.asp"">Read Education Scotland's inspection reports</a>","Nur 9am-11.35am, 12.30pm-3.05pm, FT 9am-3.05pm, P1-2 Mon-Thur 8.55am-2.55pm, Fri 8.55am-12.25pm, P3-7 Mon-Thu 8.55am-3.20pm, Fri 8.55am-12.30pm",http://www.stockbridge.edin.sch.uk,"Faye Calder-Kelly",North,Silver,"Read more about <a href=""http://www.edinburgh.gov.uk/ecoschools"">Eco Schools in Edinburgh</a>","Local Authority Non-Denominational Primary","55.9594257,-3.207283"
"Strawberry Hill Nursery","13 Minto Street","EH9 1RG","0131 668 3300",strawberryhill@bertramuk.com,"<a href=""http://www.educationscotland.gov.uk/inspectionandreview/reports/school/index.asp"">Read Education Scotland's inspection reports</a>",,http://www.strawberryhillnursery.co.uk,,South,"Green flag","Read more about <a href=""http://www.edinburgh.gov.uk/ecoschools"">Eco Schools in Edinburgh</a>","Private Day Nursery","55.9365891,-3.1766658"
"Suffolk House Nursery","10 Craigmillar Park","EH16 5NE","0131 667 0778",info@suffolkhousenursery.com,"<a href=""http://www.educationscotland.gov.uk/inspectionandreview/reports/school/index.asp"">Read Education Scotland's inspection reports</a>",,,"Fiona Leslie",South,Registered,"Read more about <a href=""http://www.edinburgh.gov.uk/ecoschools"">Eco Schools in Edinburgh</a>","Private Day Nursery","55.9300297,-3.171009"
"Summerside Kindergarten","1 Summerside Street","EH6 4NT","0131 554 6560",summersidekindergarten@blueyonder.co.uk,"<a href=""http://www.educationscotland.gov.uk/inspectionandreview/reports/school/index.asp"">Read Education Scotland's inspection reports</a>",,,,North,,,"Private Day Nursery","55.9743519,-3.1877991"
"The Edinburgh Academy Nursery","10 Arboretum Road","EH3 5PL","0131 624 4971",lab@edinburghacademy.org.uk,"<a href=""http://www.educationscotland.gov.uk/inspectionandreview/reports/school/index.asp"">Read Education Scotland's inspection reports</a>",,,,North,,,"Independent School","55.9689988,-3.2152347"
"The Owl and The Pussycat Nursery","1 Claverhouse Drive","EH16 6BR","0131 664 1345",owlandpussycatuk@aol.com,"<a href=""http://www.educationscotland.gov.uk/inspectionandreview/reports/school/index.asp"">Read Education Scotland's inspection reports</a>",,,,South,,,"Private Day Nursery","55.9171548,-3.1545769"
"The Royal High Primary School Nursery Class","61 Northfield Broadway","EH8 7RX","0131 669 3200",Admin@royalhigh-pri.edin.sch.uk,"<a href=""http://www.educationscotland.gov.uk/inspectionandreview/reports/school/index.asp"">Read Education Scotland's inspection reports</a>","Nur 8.55am-11.30am, 12.25pm-3pm, FT 8.55am-3pm, P1-2 Mon-Thur 8.55am-3pm, Fri 8.55am-12.20pm, P3-7 Mon-Thu 8.55am-3.25pm, Fri 8.55am-12.30pm",http://www.royalhigh-pri.edin.sch.uk/,"Eileen Forrest",East,"Green Flag","Read more about <a href=""http://www.edinburgh.gov.uk/ecoschools"">Eco Schools in Edinburgh</a>","Local Authority Non-Denominational Primary","55.9545714,-3.1402468"
"The Spinney Lane Nursery School","13a The Spinney","EH17 7LD","0131 664 9102",Admin@spinneylane-nur.edin.sch.uk,"<a href=""http://www.educationscotland.gov.uk/inspectionandreview/reports/school/index.asp"">Read Education Scotland's inspection reports</a>","Mon-Fri, 8.55am-11.30am, 12.30pm-3.05pm",,"Richard Napier",South,Silver,"Read more about <a href=""http://www.edinburgh.gov.uk/ecoschools"">Eco Schools in Edinburgh</a>","Local Authority Nursery School","55.9084027,-3.1392912"
"The University of Edinburgh Day Nursery","79/81 Dalkeith Road","EH16 5AL","0131 667 9584",day.nursery@ed.ac.uk,"<a href=""http://www.educationscotland.gov.uk/inspectionandreview/reports/school/index.asp"">Read Education Scotland's inspection reports</a>",,,,South,Silver,"Read more about <a href=""http://www.edinburgh.gov.uk/ecoschools"">Eco Schools in Edinburgh</a>","College/University Nursery","55.9370609,-3.1705328"
"Tom Thumb Nursery","The Vennel Hall, Smithsland","EH30 9HU","0131 331 4273",debbieurquhart@talktalk.net,"<a href=""http://www.educationscotland.gov.uk/inspectionandreview/reports/school/index.asp"">Read Education Scotland's inspection reports</a>",,,,West,Silver,"Read more about <a href=""http://www.edinburgh.gov.uk/ecoschools"">Eco Schools in Edinburgh</a>","Playgroup or Part-Time Nursery","55.9894373,-3.3957898"
"Towerbank Primary School Nursery Class","Figgate Bank","EH15 1HX","0131 669 1551",Admin@Towerbank.edin.sch.uk,"<a href=""http://www.educationscotland.gov.uk/inspectionandreview/reports/school/index.asp"">Read Education Scotland's inspection reports</a>","Nursery: 8:30am-11.40am / 12.20pm-3.30pm. P1-2: Mon-Thur 9am-3.10pm, Fri 9am-12.20pm, P3-7: Mon-Thu 8.50am-3.20pm, Fri 8.50am-12.20pm",http://www.towerbank.edin.sch.uk,"Joyce Gilmour",East,"Green Flag","Read more about <a href=""http://www.edinburgh.gov.uk/ecoschools"">Eco Schools in Edinburgh</a>","Local Authority Non-Denominational Primary","55.9548283,-3.111671"
"Trinity Nursery","c/o Wardie Parish Church, Primrose Bank Road","EH5 3JE","0131 551 3847",pamjohnston@blueyonder.co.uk,"<a href=""http://www.educationscotland.gov.uk/inspectionandreview/reports/school/index.asp"">Read Education Scotland's inspection reports</a>",,,,North,,,"Playgroup or Part-Time Nursery","55.9789647,-3.2091539"
"Trinity Tots Nursery","9 Granton Road","EH5 3QJ","0131 551 3020",trinitytotsLJK@aol.com,"<a href=""http://www.educationscotland.gov.uk/inspectionandreview/reports/school/index.asp"">Read Education Scotland's inspection reports</a>",,,,North,Silver,"Read more about <a href=""http://www.edinburgh.gov.uk/ecoschools"">Eco Schools in Edinburgh</a>","Private Day Nursery","55.9710039,-3.2135026"
"Tynecastle Nursery School","15 McLeod Street","EH11 2NJ","0131 337 5461",Admin@tynecastle-nur.edin.sch.uk,"<a href=""http://www.educationscotland.gov.uk/inspectionandreview/reports/school/index.asp"">Read Education Scotland's inspection reports</a>","Mon-Fri, 8.55am-3.00pm",http://www.tynecastle-nur.edin.sch.uk,"Stella Brown",West,"Green Flag",http://www.edinburgh.gov.uk/info/20049/environmental_education/595/eco-schools_in_edinburgh,"Local Authority Nursery School","55.9388215,-3.2305093"
"Uni-Tots Nursery","University of Edinburgh, Dept. of Psychology, 7 George Square","EH8 9JZ","0131 650 3448",a.cameron@ed.ac.uk,"<a href=""http://www.educationscotland.gov.uk/inspectionandreview/reports/school/index.asp"">Read Education Scotland's inspection reports</a>",,,,South,"Green flag","Read more about <a href=""http://www.edinburgh.gov.uk/ecoschools"">Eco Schools in Edinburgh</a>","College/University Nursery","55.944313,-3.189014"
"Victoria Quay Nursery","Victoria Quay, Leith Docks","EH6 6QQ","0131 244 0784",beth.pearce@northedinburghchildcare.co.uk,"<a href=""http://www.educationscotland.gov.uk/inspectionandreview/reports/school/index.asp"">Read Education Scotland's inspection reports</a>",,,,North,Bronze,http://www.edinburgh.gov.uk/info/20049/environmental_education/595/eco-schools_in_edinburgh,"Private Day Nursery","55.978355,-3.173671"
"Viewforth Early Years Centre","18 Viewforth Terrace","EH10 4LH","0131 229 6667",,"<a href=""http://www.educationscotland.gov.uk/inspectionandreview/reports/school/index.asp"">Read Education Scotland's inspection reports</a>",,,"Helen Innes/Fiona Allen",South,Silver,http://www.edinburgh.gov.uk/info/20049/environmental_education/595/eco-schools_in_edinburgh,"Early Years Centre","55.9387405,-3.2114875"
"Walker Street Nursery","17 Walker Street","EH3 7NE","0131 220 2699",contact@walkerstreetnursery.org.uk,"<a href=""http://www.educationscotland.gov.uk/inspectionandreview/reports/school/index.asp"">Read Education Scotland's inspection reports</a>",,,,North,Registered,"Read more about <a href=""http://www.edinburgh.gov.uk/ecoschools"">Eco Schools in Edinburgh</a>","Private Day Nursery","55.9498635,-3.214242"
"Wardie Nursery","Wardie Residents Club, 125 Granton Road","EH5 3NJ","07969 099340",wardienursery@gmail.com,"<a href=""http://www.educationscotland.gov.uk/inspectionandreview/reports/school/index.asp"">Read Education Scotland's inspection reports</a>",,,,North,"Green flag","Read more about <a href=""http://www.edinburgh.gov.uk/ecoschools"">Eco Schools in Edinburgh</a>","Playgroup or Part-Time Nursery","55.9761357,-3.2157628"
"Waterfront Nursery","Edinburgh`s Telford College, 350 West Granton Road","EH5 1QE","0131 559 4080",lynn.muir@ed-coll.ac.uk,"<a href=""http://www.educationscotland.gov.uk/inspectionandreview/reports/school/index.asp"">Read Education Scotland's inspection reports</a>",,,,North,,,"College/University Nursery","55.9773321,-3.244953"
"Wee Gems Croileagan Nursery","6a Featherhall Avenue","EH12 7TQ","0131 334 2960",edinburgh@weegems.com,"<a href=""http://www.educationscotland.gov.uk/inspectionandreview/reports/school/index.asp"">Read Education Scotland's inspection reports</a>",,,,West,Bronze,"Read more about <a href=""http://www.edinburgh.gov.uk/ecoschools"">Eco Schools in Edinburgh</a>","Private Day Nursery","55.9428838,-3.2882703"
"Wester Coates Nursery School","13 Wester Coates Terrace","EH12 5LR","0131 346 7398",wcns@hotmail.co.uk,"<a href=""http://www.educationscotland.gov.uk/inspectionandreview/reports/school/index.asp"">Read Education Scotland's inspection reports</a>",,,,West,Registered,"Read more about <a href=""http://www.edinburgh.gov.uk/ecoschools"">Eco Schools in Edinburgh</a>","Playgroup or Part-Time Nursery","55.9468097,-3.2319038"
