Name,Address,Postcode,Telephone,Email,"More information","Opening hours","Head Teacher",Inspections,"Associated secondary school","Meal provider","More about primary school meals","Eco-Schools status","More about the Eco-Schools programme",Neighbourhood,"Catchment area map","Active Schools Co-ordinator",Location
"Abbeyhill Primary School","Abbey Street","EH7 5SJ","0131 661 3054",Admin@Abbeyhill.edin.sch.uk,http://www.abbeyhill.edin.sch.uk,"Nurs 9am-11.35am, 12.30pm-3.05pm, FT 9am-3.05pm, P1-2 Mon-Thu, 8.55am-3.10pm, Fri 8.55am-12.25pm, P3-7 Mon-Thurs 8.54am-3.25pm, Fri 8.54am-12.25pm","Sally Barker","<a href=""http://www.educationscotland.gov.uk/inspectionandreview/reports/school/index.asp"">Read Education Scotland's inspection reports</a>","Drummond Community High","Edinburgh Catering Services","<a href=""http://www.edinburgh.gov.uk/schoolmeals"">Read the school meal menus</a>",Silver,"Read more about <a href=""http://www.edinburgh.gov.uk/ecoschools"">Eco Schools in Edinburgh</a>",North,"<a href=""http://www.edinburgh.gov.uk/catchmentmap"">Read more about school catchments</a>","Alan Reid 0131 556 2651/07799 861494","55.956702,-3.16887"
"Balgreen Primary School","171 Balgreen Road","EH11 3AT","0131 337 6066",Admin@Balgreen.edin.sch.uk,http://www.balgreen.edin.sch.uk,"P1-2 Mon-Thu, 8.50am-2.40pm, Fri 8.50am-12.15pm, P3-7 Mon-Thu 8.50am-3.15pm, Fri 8.50am-12.25pm","Fiona Christie","<a href=""http://www.educationscotland.gov.uk/inspectionandreview/reports/school/index.asp"">Read Education Scotland's inspection reports</a>","Tynecastle High","Edinburgh Catering Services","<a href=""http://www.edinburgh.gov.uk/schoolmeals"">Read the school meal menus</a>","Green Flag","Read more about <a href=""http://www.edinburgh.gov.uk/ecoschools"">Eco Schools in Edinburgh</a>",West,"<a href=""http://www.edinburgh.gov.uk/catchmentmap"">Read more about school catchments</a>","Pamela Brown 07884 142774","55.93736,-3.248541"
"Blackhall Primary School","83 Craigcrook Road","EH4 3PH","0131 336 1023",Admin@blackhall.edin.sch.uk,http://www.blackhall.edin.sch.uk,"P1-2 Mon-Thu, 8.50am-3pm, Fri 8.50am-12.15pm, P3-7 Mon-Thu 8.50am-3.15pm, Fri 8.50am-12.25pm","Arran Finlay","<a href=""http://www.educationscotland.gov.uk/inspectionandreview/reports/school/index.asp"">Read Education Scotland's inspection reports</a>","The Royal High","Edinburgh Catering Services","<a href=""http://www.edinburgh.gov.uk/schoolmeals"">Read the school meal menus</a>","Green Flag","Read more about <a href=""http://www.edinburgh.gov.uk/ecoschools"">Eco Schools in Edinburgh</a>",West,"<a href=""http://www.edinburgh.gov.uk/catchmentmap"">Read more about school catchments</a>","Neil Russell 07825 782585","55.95582,-3.261323"
"Bonaly Primary School","57 Bonaly Road","EH13 0FJ","0131 441 7211",Admin@Bonaly.edin.sch.uk,http://www.bonaly.edin.sch.uk,"Nurs 9am-11.35am, 12.30pm-3.05pm, FT 9am-3.05pm, P1-2 Mon-Thurs 8.55am-3.15pm, Fri 8.55am, P3-7 Mon-Thu 8.55am-3.30pm, Fri 8.55am-12.10pm","Laurinda Ramage","<a href=""http://www.educationscotland.gov.uk/inspectionandreview/reports/school/index.asp"">Read Education Scotland's inspection reports</a>","Firrhill High",Mitie,"<a href=""http://www.edinburgh.gov.uk/schoolmeals"">Read the school meal menus</a>",Silver,"Read more about <a href=""http://www.edinburgh.gov.uk/ecoschools"">Eco Schools in Edinburgh</a>","South West","<a href=""http://www.edinburgh.gov.uk/catchmentmap"">Read more about school catchments</a>","Lorna Norman/Shona Clark 07884 191761/07776 151522","55.900813,-3.259478"
"Broomhouse Primary School","39 Saughton Road","EH11 3RQ","0131 443 3783",Admin@Broomhouse.edin.sch.uk,http://www.broomhouse.edin.sch.uk,"Nurs 8.55am-11.30am, 12.25pm-3pm, FT 8.55am-3pm, P1-2 Mon-Thu 8.50am-2.55pm, Fri 8.50am-12.15pm, P3-7 Mon-Thu 8.50am-3.15pm, Fri 8.50am-12.25pm","Jamie Petrie","<a href=""http://www.educationscotland.gov.uk/inspectionandreview/reports/school/index.asp"">Read Education Scotland's inspection reports</a>","Forrester High",Amey,"<a href=""http://www.edinburgh.gov.uk/schoolmeals"">Read the school meal menus</a>",Silver,"Read more about <a href=""http://www.edinburgh.gov.uk/ecoschools"">Eco Schools in Edinburgh</a>",West,"<a href=""http://www.edinburgh.gov.uk/catchmentmap"">Read more about school catchments</a>","Paddy Dearlove 07884 203270","55.928527,-3.273493"
"Broughton Primary School","132 Broughton Road","EH7 4LD","0131 556 7028",Admin@broughton-pri.edin.sch.uk,http://www.broughton-pri.edin.sch.uk,"Nur 9am-11.35, 12.30pm-3.05pm, FT 9am-3.05pm, P1-2 Mon-Thurs 8.50am-2.45pm, Fri 8.50am-11.55am, P3-7 Mon-Thu 8.50am-3.15pm, Fri 8.50am-12.25pm","Gillian O'Rourke","<a href=""http://www.educationscotland.gov.uk/inspectionandreview/reports/school/index.asp"">Read Education Scotland's inspection reports</a>","Drummond  Community High","Edinburgh Catering Services","<a href=""http://www.edinburgh.gov.uk/schoolmeals"">Read the school meal menus</a>","Green Flag","Read more about <a href=""http://www.edinburgh.gov.uk/ecoschools"">Eco Schools in Edinburgh</a>",North,"<a href=""http://www.edinburgh.gov.uk/catchmentmap"">Read more about school catchments</a>","Alan Reid 0131 556 2651/07799 861494","55.96546,-3.189797"
"Brunstane Primary School","106 Magdalene Drive","EH15 3BE","0131 669 4498",Admin@brunstane.edin.sch.uk,http://www.brunstane.edin.sch.uk,"Nur 8.55am-11.30am, 12.25pm-3pm, FT 8.55am-3pm, P1-2 Mon-Thurs 8.50am-3pm, Fri 8.50am-12.20pm, P3-7 Mon-Thu 8.50am-3.15pm, Fri 8.50am-12.30pm","Willie French (Acting)","<a href=""http://www.educationscotland.gov.uk/inspectionandreview/reports/school/index.asp"">Read Education Scotland's inspection reports</a>","Portobello High","Edinburgh Catering Services","<a href=""http://www.edinburgh.gov.uk/schoolmeals"">Read the school meal menus</a>",Silver,"Read more about <a href=""http://www.edinburgh.gov.uk/ecoschools"">Eco Schools in Edinburgh</a>",East,"<a href=""http://www.edinburgh.gov.uk/catchmentmap"">Read more about school catchments</a>","Lewis Patience/Tony Segall 07825 842971/07884 244362","55.94266,-3.105038"
"Bruntsfield Primary School","12 Montpelier","EH10 4NA","0131 229 1821",Admin@bruntsfield.edin.sch.uk,http://www.bruntsfield.edin.sch.uk,"P1-2 Mon-Thu, 8.50am-3.15pm, Fri 8.50am-12pm, P3-7 Mon-Thu 8.45am-3.20pm, Fri 8.45am-12.05pm","Carol-Anne Kyle","<a href=""http://www.educationscotland.gov.uk/inspectionandreview/reports/school/index.asp"">Read Education Scotland's inspection reports</a>","Boroughmuir High","Edinburgh Catering Services","<a href=""http://www.edinburgh.gov.uk/schoolmeals"">Read the school meal menus</a>",Silver,"Read more about <a href=""http://www.edinburgh.gov.uk/ecoschools"">Eco Schools in Edinburgh</a>",South,"<a href=""http://www.edinburgh.gov.uk/catchmentmap"">Read more about school catchments</a>","Andrew Caldwell 07825 386710/0131 229 9703","55.936935,-3.210556"
"Buckstone Primary School","79 Buckstone Loan East","EH10 6UY","0131 445 4545",Admin@buckstone.edin.sch.uk,http://www.buckstone.edin.sch.uk,"Nur 8.55am-11.30am, 12.25pm-3pm, FT 8.55am-3pm, P1-2 Mon-Thurs 8.50am-2.45pm, Fri 8.50am-12.15pm, P3-7 Mon-Thu 8.50am-3.20pm, Fri 8.50am-12.25pm","Diane Palmer","<a href=""http://www.educationscotland.gov.uk/inspectionandreview/reports/school/index.asp"">Read Education Scotland's inspection reports</a>","Boroughmuir High","Edinburgh Catering Services","<a href=""http://www.edinburgh.gov.uk/schoolmeals"">Read the school meal menus</a>","Green Flag","Read more about <a href=""http://www.edinburgh.gov.uk/ecoschools"">Eco Schools in Edinburgh</a>",South,"<a href=""http://www.edinburgh.gov.uk/catchmentmap"">Read more about school catchments</a>","Andrew Caldwell 07825 386710/0131 229 9703","55.90494,-3.199688"
"Bun-sgoil Taobh na Pairce","139b Bonnington Road","EH6 5NQ","0131 553 5856",admin@taobhnapairce.edin.sch.uk,http://www.taobhnapairce.edin.sch.uk,,"Anne MacPhail","<a href=""http://www.educationscotland.gov.uk/inspectionandreview/reports/school/index.asp"">Read Education Scotland's inspection reports</a>",,,"<a href=""http://www.edinburgh.gov.uk/schoolmeals"">Read the school meal menus</a>",None,,North,,,"55.9705162,-3.180594"
"Canal View Primary School","4 Hailesland Place","EH14 2SL","0131 442 3894",Admin@Canalview.edin.sch.uk,http://www.canalview.edin.sch.uk,"Nur Mon-Fri 8.55am-11.30am, 12.30pm-3.05pm, P1-P2 Mon-Thurs 8.55am-2.50pm, Fri 8.55am-12.20pm, P3-P7 Mon-Thu 8.55am-3.15pm, Fri 8.55am-12.30pm","Ann Moore","<a href=""http://www.educationscotland.gov.uk/inspectionandreview/reports/school/index.asp"">Read Education Scotland's inspection reports</a>","Wester Hailes Education Centre","Edinburgh Catering Services","<a href=""http://www.edinburgh.gov.uk/schoolmeals"">Read the school meal menus</a>",Silver,"Read more about <a href=""http://www.edinburgh.gov.uk/ecoschools"">Eco Schools in Edinburgh</a>","South West","<a href=""http://www.edinburgh.gov.uk/catchmentmap"">Read more about school catchments</a>","Shona Clark 07776 151522","55.916955,-3.281162"
"Carrick Knowe Primary School","Lampacre Road","EH12 7HU","0131 334 4505",Admin@Carrickknowe.edin.sch.uk,http://www.carrickknowe.edin.sch.uk,"Nursery 8.30am-11.40am, 12.20pm-3.30pm
P1-2 Mon-Thurs 8.50am-3pm, Fri 8.50am-12.15pm
P3-7 Mon-Thu 8.50am-3.15pm, Fri 8.50am-12.25pm","Andrew Hunter","<a href=""http://www.educationscotland.gov.uk/inspectionandreview/reports/school/index.asp"">Read Education Scotland's inspection reports</a>","Forrester High","Edinburgh Catering Services","<a href=""http://www.edinburgh.gov.uk/schoolmeals"">Read the school meal menus</a>","Green Flag","Read more about <a href=""http://www.edinburgh.gov.uk/ecoschools"">Eco Schools in Edinburgh</a>",West,"<a href=""http://www.edinburgh.gov.uk/catchmentmap"">Read more about school catchments</a>","Paddy Dearlove 07884 203270","55.938446,-3.275913"
"Castleview Primary School","2d Greendykes Road","EH16 4DP","0131 661 6429",Admin@Castleview.edin.sch.uk,http://www.castleview.edin.sch.uk,"Nur 8.45am-11.20am, 12.15pm-2.50pm, FT 8.45am-2.50pm, P1-2 Mon-Thurs 8.40am-2.50pm, Fri 8.40am-12.35pm, P3-7 Mon-Thu 8.40am-2.55pm, Fri 8.40am-12.40pm","Lindsey Watt","<a href=""http://www.educationscotland.gov.uk/inspectionandreview/reports/school/index.asp"">Read Education Scotland's inspection reports</a>","Castlebrae High",Amey,"<a href=""http://www.edinburgh.gov.uk/schoolmeals"">Read the school meal menus</a>","Green Flag","Read more about <a href=""http://www.edinburgh.gov.uk/ecoschools"">Eco Schools in Edinburgh</a>",East,"<a href=""http://www.edinburgh.gov.uk/catchmentmap"">Read more about school catchments</a>","Shirley Banks/Alan Reid 07774 468782/0131 468 4504","55.929703,-3.133866"
"Clermiston Primary School","18 Parkgrove Place","EH4 7NP","0131 336 3361",Admin@clermiston.edin.sch.uk,http://www.clermiston.edin.sch.uk,"Nur 8.55am-11.30am, 12.25pm-3pm, FT 8.55am-3pm, P1-2 Mon-Thurs 8.50am-3pm, Fri 8.50am-12.20pm, P3-7 Mon-Thu 8.50am-3.20pm, Fri 8.50am-12.30pm","Gordon McIntyre","<a href=""http://www.educationscotland.gov.uk/inspectionandreview/reports/school/index.asp"">Read Education Scotland's inspection reports</a>","The Royal High","Edinburgh Catering Services","<a href=""http://www.edinburgh.gov.uk/schoolmeals"">Read the school meal menus</a>",Silver,"Read more about <a href=""http://www.edinburgh.gov.uk/ecoschools"">Eco Schools in Edinburgh</a>",West,"<a href=""http://www.edinburgh.gov.uk/catchmentmap"">Read more about school catchments</a>","Neil Russell 07825 782585","55.959611,-3.290001"
"Clovenstone Primary School","54 Clovenstone Park","EH14 3EY","0131 453 4242",Admin@Clovenstone.edin.sch.uk,http://www.clovenstone.edin.sch.uk,"Nur Mon-Thu 8.45am-11.30am, 12.30pm-3.15pm, Fri 8.30am-10.30am, 10.30am-12.30pm, P1-2 Mon-Thurs 8.50am-2.50pm, Fri 8.50am-12.15pm, P3-7 Mon-Thu 8.50am-3.15pm, Fri 8.50am-12.25pm","Carolyn Didcock","<a href=""http://www.educationscotland.gov.uk/inspectionandreview/reports/school/index.asp"">Read Education Scotland's inspection reports</a>","Wester Hailes Education Centre","Edinburgh Catering Services","<a href=""http://www.edinburgh.gov.uk/schoolmeals"">Read the school meal menus</a>",Bronze,"Read more about <a href=""http://www.edinburgh.gov.uk/ecoschools"">Eco Schools in Edinburgh</a>","South West","<a href=""http://www.edinburgh.gov.uk/catchmentmap"">Read more about school catchments</a>","Shona Clark 07776 151522","55.910993,-3.27295"
"Colinton Primary School","Redford Place","EH13 0AL","0131 441 1946",Admin@Colinton.edin.sch.uk,http://www.colinton.edin.sch.uk,"Nur 8.55am-11.30am, 12.25pm-3pm, FT 8.55am-3pm, P1-2 Mon-Thurs 8.50am-2.50pm, Fri 8.50am-12.15pm, P3-7 Mon-Thu 8.50am-3.10pm, Fri 8.50am-12.25pm","Susan Imrie","<a href=""http://www.educationscotland.gov.uk/inspectionandreview/reports/school/index.asp"">Read Education Scotland's inspection reports</a>","Firrhill High","Edinburgh Catering Services","<a href=""http://www.edinburgh.gov.uk/schoolmeals"">Read the school meal menus</a>",Silver,"Read more about <a href=""http://www.edinburgh.gov.uk/ecoschools"">Eco Schools in Edinburgh</a>","South West","<a href=""http://www.edinburgh.gov.uk/catchmentmap"">Read more about school catchments</a>","Lorna Norman/Shona Clark 07884 191761/07776 151522","55.907645,-3.237333"
"Corstorphine Primary School","62 Corstorphine High Street","EH12 7SY","0131 334 3865",Admin@Corstorphine.edin.sch.uk,http://www.corstorphine.edin.sch.uk,"Nur 8.50am-11.25am, 12.30pm-3.05pm, P1-2 Mon-Thurs 8.50am-3.00pm, Fri 8.50am-12.15pm, P3 Mon-Thu 8.50am-3.15pm, Fri 8.50am-12.25pm, P4-P7 Mon-Thu 8.50am-3.15pm, Fri 8.50am-12.25pm","Jennifer Ross","<a href=""http://www.educationscotland.gov.uk/inspectionandreview/reports/school/index.asp"">Read Education Scotland's inspection reports</a>","Craigmount High","Edinburgh Catering Services","<a href=""http://www.edinburgh.gov.uk/schoolmeals"">Read the school meal menus</a>",Green,"Read more about <a href=""http://www.edinburgh.gov.uk/ecoschools"">Eco Schools in Edinburgh</a>",West,"<a href=""http://www.edinburgh.gov.uk/catchmentmap"">Read more about school catchments</a>","Alisa Wilson/Bob Laurie 07825 843159/0131 3396823","55.940246,-3.283464"
"Craigentinny Primary School","4 Loganlea Drive","EH7 6LR","0131 661 2749",morag.paterson@craigentinny.edin.sch.uk,http://www.craigentinny.edin.sch.uk,"Nursery 9am-11.35am, 12.25pm-3pm
P1-2 Mon-Thur 8.45am-2.55pm, Fri 8.45am-12pm
P3-7 Mon-Thu 8.45am-3.15pm, Fri 8.45am-12pm","Maria Gowans","<a href=""http://www.educationscotland.gov.uk/inspectionandreview/reports/school/index.asp"">Read Education Scotland's inspection reports</a>","Leith Academy","Edinburgh Catering Services","<a href=""http://www.edinburgh.gov.uk/schoolmeals"">Read the school meal menus</a>","Green Flag","Read more about <a href=""http://www.edinburgh.gov.uk/ecoschools"">Eco Schools in Edinburgh</a>",North,"<a href=""http://www.edinburgh.gov.uk/catchmentmap"">Read more about school catchments</a>","Craig Renwick 07884 228020","55.959533,-3.143133"
"Craiglockhart Primary School","90 Ashley Terrace","EH11 1RG","0131 337 1407",Admin@Craiglockhart.edin.sch.uk,http://www.Craiglockhart.edin.sch.uk,"Nur 8.55am-11.30am, 12.30pm-3.05pm, FT 8.55am-3.05pm, P1-2 Mon-Thurs 8.50am-2.45pm, Fri 8.50am-12.20pm, P3-7 Mon-Thu 8.50am-3.15pm, Fri 8.50am-12.30pm","Derek Law","<a href=""http://www.educationscotland.gov.uk/inspectionandreview/reports/school/index.asp"">Read Education Scotland's inspection reports</a>","Tynecastle High","Edinburgh Catering Services","<a href=""http://www.edinburgh.gov.uk/schoolmeals"">Read the school meal menus</a>",Silver,"Read more about <a href=""http://www.edinburgh.gov.uk/ecoschools"">Eco Schools in Edinburgh</a>",West,"<a href=""http://www.edinburgh.gov.uk/catchmentmap"">Read more about school catchments</a>","Pamela Brown 07884 142774","55.93176,-3.227708"
"Craigour Park Primary School","102 Moredun Park Road","EH17 7HL","0131 664 7594",Admin@craigourpark.edin.sch.uk,http://www.craigourpark.edin.sch.uk,"Nursery 8.30am-11.40am, 12.20pm-3.30pm
P1-2 Mon-Thurs 8.45am-2.30pm Fri 8.45am-12.10pm
P3-7 Mon-Thu 8.45am-3.05pm, Fri 8.45am-12.20pm","Carol Cameron","<a href=""http://www.educationscotland.gov.uk/inspectionandreview/reports/school/index.asp"">Read Education Scotland's inspection reports</a>","Liberton High",Amey,"<a href=""http://www.edinburgh.gov.uk/schoolmeals"">Read the school meal menus</a>","Green Flag","Read more about <a href=""http://www.edinburgh.gov.uk/ecoschools"">Eco Schools in Edinburgh</a>",South,"<a href=""http://www.edinburgh.gov.uk/catchmentmap"">Read more about school catchments</a>","Ellie Forgan 07884 210647","55.913422,-3.133718"
"Craigroyston Primary School","7 Muirhouse Place West","EH4 4PX","0131 343 6465",Admin@craigroyston-pri.edin.sch.uk,http://www.craigroyston-pri.edin.sch.uk,"P1-2 Mon-Thu, 8.40am-2.30pm, Fri 8.40am-12.10pm, P3-7 Mon-Thu 8.40am-3pm, Fri 8.40am-12.40pm","Lorna Stewart","<a href=""http://www.educationscotland.gov.uk/inspectionandreview/reports/school/index.asp"">Read Education Scotland's inspection reports</a>","Craigroyston Community High",Amey,"<a href=""http://www.edinburgh.gov.uk/schoolmeals"">Read the school meal menus</a>","Green Flag","Read more about <a href=""http://www.edinburgh.gov.uk/ecoschools"">Eco Schools in Edinburgh</a>",North,"<a href=""http://www.edinburgh.gov.uk/catchmentmap"">Read more about school catchments</a>","Andrew Gallacher 07711 390745/0131 477 7801","55.96925,-3.254227"
"Cramond Primary School","4 Cramond Crescent","EH4 6PG","0131 312 6450",Admin@cramond.edin.sch.uk,http://www.cramond.edin.sch.uk,"Nur 8.50am-11.25am, 12.15pm-2.50pm, FT 8.50am-2.50pm, P1-2 Mon-Thurs 8.50am-2.50pm, Fri 8.50am-12.20pm, P3-7 Mon-Thu 8.50am-3.20pm, Fri 8.50am-12.25pm","Helen Donaldson","<a href=""http://www.educationscotland.gov.uk/inspectionandreview/reports/school/index.asp"">Read Education Scotland's inspection reports</a>","The Royal High","Edinburgh Catering Services","<a href=""http://www.edinburgh.gov.uk/schoolmeals"">Read the school meal menus</a>",Silver,"Read more about <a href=""http://www.edinburgh.gov.uk/ecoschools"">Eco Schools in Edinburgh</a>",West,"<a href=""http://www.edinburgh.gov.uk/catchmentmap"">Read more about school catchments</a>","Neil Russell 07825 782585","55.971712,-3.303722"
"Currie Primary School","59 Curriehill Road, Currie","EH14 5PU","0131 449 3359",Admin@currie-pri.edin.sch.uk,http://www.currie-pri.edin.sch.uk,"Nur 9am-11.35am, 12.30pm-3.05pm, P1-2 Mon-Thurs 8.45am-2.45pm, Fri 8.45am-11.55am, P3-7 Mon-Thu 8.45am-3.15pm, Fri 8.45am-12pm","Sally Hourston","<a href=""http://www.educationscotland.gov.uk/inspectionandreview/reports/school/index.asp"">Read Education Scotland's inspection reports</a>","Currie High","Edinburgh Catering Services","<a href=""http://www.edinburgh.gov.uk/schoolmeals"">Read the school meal menus</a>","Green Flag","Read more about <a href=""http://www.edinburgh.gov.uk/ecoschools"">Eco Schools in Edinburgh</a>","South West","<a href=""http://www.edinburgh.gov.uk/catchmentmap"">Read more about school catchments</a>","Bev Anderson 0131 477 7788/07799 861460","55.897559,-3.313358"
"Dalmeny Primary School","Carlowrie Crescent, Dalmeny","EH30 9TZ","0131 331 1447",Admin@Dalmeny.edin.sch.uk,http://www.dalmeny.edin.sch.uk,"Nursery 8.55am-11.30am, 12.30pm-3.05pm
P1-2 Mon-Thurs 8.50am-2.45pm, Fri 8.50am-12.25pm
P3-7 Mon-Thu 8.50am-3.15pm, Fri 8.50am-12.25pm","Laura Brandon","<a href=""http://www.educationscotland.gov.uk/inspectionandreview/reports/school/index.asp"">Read Education Scotland's inspection reports</a>","Queensferry High","Edinburgh Catering Services","<a href=""http://www.edinburgh.gov.uk/schoolmeals"">Read the school meal menus</a>",Silver,"Read more about <a href=""http://www.edinburgh.gov.uk/ecoschools"">Eco Schools in Edinburgh</a>",West,"<a href=""http://www.edinburgh.gov.uk/catchmentmap"">Read more about school catchments</a>","Heather Darling 07825 386846","55.98091,-3.372572"
"Dalry Primary School","Dalry Road","EH11 2JB","0131 337 6086",Admin@Dalry.edin.sch.uk,http://www.dalry.edin.sch.uk,"Nur 9am-11.35am, 12.25pm-3pm, FT 9am-3pm, P1-2 Mon-Thurs 8.50am-3.07pm, Fri 8.50am-12.27pm, P3-7 Mon-Thu 8.50am-3.15pm, Fri 8.50am-12.25pm","Grant Gillies","<a href=""http://www.educationscotland.gov.uk/inspectionandreview/reports/school/index.asp"">Read Education Scotland's inspection reports</a>","Tynecastle High","Edinburgh Catering Services","<a href=""http://www.edinburgh.gov.uk/schoolmeals"">Read the school meal menus</a>","Green Flag","Read more about <a href=""http://www.edinburgh.gov.uk/ecoschools"">Eco Schools in Edinburgh</a>",West,"<a href=""http://www.edinburgh.gov.uk/catchmentmap"">Read more about school catchments</a>","Pamela Brown 07884 142774","55.942599,-3.221464"
"Davidson's Mains Primary School","Corbiehill Road","EH4 5DZ","0131 336 1184",Admin@davidsonsmains.edin.sch.uk,http://www.davidsonsmains.edin.sch.uk,"Nur 8.50am-11.25am, 12.25pm-3pm, FT 8.50am-3pm, P1-2 Mon-Thurs 8.50am-3pm, Fri 8.50am-12.15pm, P3-7 Mon-Thu 8.50am-3.15pm, Fri 8.50am-12.30pm","Lesley Nock","<a href=""http://www.educationscotland.gov.uk/inspectionandreview/reports/school/index.asp"">Read Education Scotland's inspection reports</a>","The Royal High","Edinburgh Catering Services","<a href=""http://www.edinburgh.gov.uk/schoolmeals"">Read the school meal menus</a>",Silver,"Read more about <a href=""http://www.edinburgh.gov.uk/ecoschools"">Eco Schools in Edinburgh</a>",West,"<a href=""http://www.edinburgh.gov.uk/catchmentmap"">Read more about school catchments</a>","Neil Russell 07825 782585","55.963982,-3.266582"
"Dean Park Primary School","31 Marchbank Gardens, Balerno","EH14 7ET","0131 449 4529",Admin@deanpark.edin.sch.uk,http://deanparkschool.org.uk,"Nur 9am-11.35am, 12.25pm-3pm, FT 9am-3pm, P1-2 Mon-Thurs 8.50am-2.45pm, Fri 8.50am-12.15pm, P3-7 Mon/Tue/Thu 8.50am-3.15pm, Wed 8.50am-3.10pm, Fri 8.50am-12.25pm","Rehana Shanks","<a href=""http://www.educationscotland.gov.uk/inspectionandreview/reports/school/index.asp"">Read Education Scotland's inspection reports</a>","Balerno Community High","Edinburgh Catering Services","<a href=""http://www.edinburgh.gov.uk/schoolmeals"">Read the school meal menus</a>","Green Flag","Read more about <a href=""http://www.edinburgh.gov.uk/ecoschools"">Eco Schools in Edinburgh</a>","South West","<a href=""http://www.edinburgh.gov.uk/catchmentmap"">Read more about school catchments</a>","Ricky Karoyan 07884 175080","55.879695,-3.340791"
"Duddingston Primary School","70a Duddingston Road","EH15 1SW","0131 669 5092",Admin@duddingston.edin.sch.uk,http://www.duddingston.edin.sch.uk,"Nur 8.55am-11.30am, 12.30pm-3.05pm, P1-2 Mon-Thurs 8.45am-2.55pm, Fri 8.45am-12.10pm, P3-7 Mon-Thu 8.45am-3.15pm, Fri 8.45am-12.20pm","Karen Morris","<a href=""http://www.educationscotland.gov.uk/inspectionandreview/reports/school/index.asp"">Read Education Scotland's inspection reports</a>","Portobello High","Edinburgh Catering Services","<a href=""http://www.edinburgh.gov.uk/schoolmeals"">Read the school meal menus</a>",Silver,"Read more about <a href=""http://www.edinburgh.gov.uk/ecoschools"">Eco Schools in Edinburgh</a>",East,"<a href=""http://www.edinburgh.gov.uk/catchmentmap"">Read more about school catchments</a>","Lewis Patience / Tony Segall 07825 842971/ 07884 244362","55.946922,-3.131647"
"East Craigs Primary School","79 Craigmount Brae","EH12 8XF","0131 339 7115",Admin@eastcraigs.edin.sch.uk,http://www.eastcraigs.edin.sch.uk,"Nur 8.50am-11.25am, 12.20pm-2.55pm, FT 8.50am-2.55pm, P1-2 Mon-Thurs 8.50am-2.45pm, Fri 8.50am-12.15pm, P3-7 Mon-Thu 8.50am-3.15pm, Fri 8.50am-12.25pm","Caroline Sanderson","<a href=""http://www.educationscotland.gov.uk/inspectionandreview/reports/school/index.asp"">Read Education Scotland's inspection reports</a>","Craigmount High","Edinburgh Catering Services","<a href=""http://www.edinburgh.gov.uk/schoolmeals"">Read the school meal menus</a>","Green Flag","Read more about <a href=""http://www.edinburgh.gov.uk/ecoschools"">Eco Schools in Edinburgh</a>",West,"<a href=""http://www.edinburgh.gov.uk/catchmentmap"">Read more about school catchments</a>","Alisa Wilson/Bob Laurie 07825 843159/0131 3396823","55.952598,-3.302855"
"Echline Primary School","Bo'ness Road, South Queensferry","EH30 9XJ","0131 331 3397",Admin@echline.edin.sch.uk,http://www.echline.edin.sch.uk,"Nur 8.50am-11.25am, 12.20pm-2.55pm, FT 8.50am-2.55pm, P1-2 Mon-Thur 8.50am-2.50pm, Fri 8.50am-12.15pm, P3-7 Mon-Thu 8.50am-3.15pm, Fri 8.50am-12.25pm","Dorothy Crawford","<a href=""http://www.educationscotland.gov.uk/inspectionandreview/reports/school/index.asp"">Read Education Scotland's inspection reports</a>","Queensferry High","Edinburgh Catering Services","<a href=""http://www.edinburgh.gov.uk/schoolmeals"">Read the school meal menus</a>","Green Flag","Read more about <a href=""http://www.edinburgh.gov.uk/ecoschools"">Eco Schools in Edinburgh</a>",West,"<a href=""http://www.edinburgh.gov.uk/catchmentmap"">Read more about school catchments</a>","Heather Darling 07825 386846","55.989156,-3.411124"
"Ferryhill Primary School","Groathill Road North","EH4 2SQ","0131 538 7382",Admin@ferryhill.edin.sch.uk,http://www.ferryhill.edin.sch.uk,"Nur 8.55am-11.30am, 12.30pm-3.05pm, FT 8.55am-3.05pm, P1-2 Mon-Thur 8.50am-2.40pm, Fri 8.50am-12.20pm, P3-7 Mon-Thu 8.50am-3.15pm, Fri 8.50am-12.30pm","Stewart Crabb","<a href=""http://www.educationscotland.gov.uk/inspectionandreview/reports/school/index.asp"">Read Education Scotland's inspection reports</a>","Broughton High","Edinburgh Catering Services","<a href=""http://www.edinburgh.gov.uk/schoolmeals"">Read the school meal menus</a>","Green Flag","Read more about <a href=""http://www.edinburgh.gov.uk/ecoschools"">Eco Schools in Edinburgh</a>",North,"<a href=""http://www.edinburgh.gov.uk/catchmentmap"">Read more about school catchments</a>","Robert Ure 07884 216213","55.964143,-3.249043"
"Flora Stevenson Primary School","175 Comely Bank","EH4 1BG","0131 332 1604",Admin@florastevenson.edin.sch.uk,http://www.florastevenson.edin.sch.uk,"Nur 8.55am-11.30am, 12.30pm-3.05pm, FT 8.55am-3.05pm, P1-2 Mon-Thur 8.50am-2.45pm, Fri 8.50am-12.15pm, P3-7 Mon-Thu 8.50am-3.20pm, Fri 8.50am-12.25pm","Irene Brennan","<a href=""http://www.educationscotland.gov.uk/inspectionandreview/reports/school/index.asp"">Read Education Scotland's inspection reports</a>","Broughton High","Edinburgh Catering Services","<a href=""http://www.edinburgh.gov.uk/schoolmeals"">Read the school meal menus</a>",Silver,"Read more about <a href=""http://www.edinburgh.gov.uk/ecoschools"">Eco Schools in Edinburgh</a>",North,"<a href=""http://www.edinburgh.gov.uk/catchmentmap"">Read more about school catchments</a>","Robert Ure 07884 216213","55.958702,-3.224944"
"Forthview Primary School","West Pilton Place","EH4 4DF","0131 332 2468",Admin@forthview.edin.sch.uk,http://www.forthview.edin.sch.uk,"Nur Mon-Thu 8.45am-11.20am, 12.15pm-2.50pm, Fri 8.45am-12pm, P1-2 Mon-Thur 8.45am-3pm, Fri 8.45am-12pm, P3-7 Mon-Thu 8.45am-3.15pm, Fri 8.45am-12pm","Eileen Littlewood","<a href=""http://www.educationscotland.gov.uk/inspectionandreview/reports/school/index.asp"">Read Education Scotland's inspection reports</a>","Craigroyston Community High",Amey,"<a href=""http://www.edinburgh.gov.uk/schoolmeals"">Read the school meal menus</a>",Silver,"Read more about <a href=""http://www.edinburgh.gov.uk/ecoschools"">Eco Schools in Edinburgh</a>",North,"<a href=""http://www.edinburgh.gov.uk/catchmentmap"">Read more about school catchments</a>","Andrew Gallacher 07711 390745/0131 477 7801","55.97181,-3.241689"
"Fox Covert Primary School","Clerwood Terrace","EH12 8PG","0131 339 3749",Admin@foxcovert.edin.sch.uk,http://www.foxcovert.edin.sch.uk,"P1-2 Mon-Thur 8.50am-3.15pm, Fri 8.50am-12pm, P3-7 Mon-Thu 8.50am-3.20pm, Fri 8.50am-12.05pm","Lorraine Budge","<a href=""http://www.educationscotland.gov.uk/inspectionandreview/reports/school/index.asp"">Read Education Scotland's inspection reports</a>","Craigmount High","Edinburgh Catering Services","<a href=""http://www.edinburgh.gov.uk/schoolmeals"">Read the school meal menus</a>","Green Flag","Read more about <a href=""http://www.edinburgh.gov.uk/ecoschools"">Eco Schools in Edinburgh</a>",West,"<a href=""http://www.edinburgh.gov.uk/catchmentmap"">Read more about school catchments</a>","Alisa Wilson/Bob Laurie 07825 843159/0131 3396823","55.951578,-3.281192"
"Fox Covert RC Primary School","Clerwood Terrace","EH12 8PG","0131 339 2383",Admin@foxcovert-rc.edin.sch.uk,http://www.foxcovert-rc.edin.sch.uk,"P1-2 Mon-Thur 8.50am-3.15pm, Fri 8.50am-12pm, P3-7 Mon-Thu 8.50am-3.20pm, Fri 8.50am-12.05pm","Anne Purcell","<a href=""http://www.educationscotland.gov.uk/inspectionandreview/reports/school/index.asp"">Read Education Scotland's inspection reports</a>","St Augustine`s RC High","Edinburgh Catering Services","<a href=""http://www.edinburgh.gov.uk/schoolmeals"">Read the school meal menus</a>","Green Flag","Read more about <a href=""http://www.edinburgh.gov.uk/ecoschools"">Eco Schools in Edinburgh</a>",West,"<a href=""http://www.edinburgh.gov.uk/catchmentmap"">Read more about school catchments</a>","Alisa Wilson 0131 336 2532/07825 843159","55.951578,-3.281192"
"Gilmerton Primary School","2 Moredun Dykes Road","EH17 8NQ","0131 664 3614",Admin@Gilmerton.edin.sch.uk,http://www.gilmerton.edin.sch.uk,"P1-2 Mon-Thur 8.45am-2.45pm, Fri 8.45am-12.15pm, P3-7 Mon-Thu 8.45am-3.05pm, Fri 8.45am-12.20pm","Richard Napier","<a href=""http://www.educationscotland.gov.uk/inspectionandreview/reports/school/index.asp"">Read Education Scotland's inspection reports</a>","Liberton High - a section of Gilmerton PS also feeds to Gracemount High School","Edinburgh Catering Services","<a href=""http://www.edinburgh.gov.uk/schoolmeals"">Read the school meal menus</a>",Silver,"Read more about <a href=""http://www.edinburgh.gov.uk/ecoschools"">Eco Schools in Edinburgh</a>",South,"<a href=""http://www.edinburgh.gov.uk/catchmentmap"">Read more about school catchments</a>","Ellie Forgan 07884 210647","55.907197,-3.137496"
"Gracemount Primary School","45 Gracemount House Drive","EH16 6FD","0131 664 2331",Admin@gracemount-pri.edin.sch.uk,http://www.gracemount-pri.edin.sch.uk,"Nur 8.50am-11.25am, 12.30pm-3.05pm, FT 8.50am-3.05pm, P1-2 Mon-Thur 8.45am-2.50pm, Fri 8.45am-12.15pm, P3-7 Mon-Thu 8.45am-3.25pm, Fri 8.45am-12.25pm","Greg Dimeck","<a href=""http://www.educationscotland.gov.uk/inspectionandreview/reports/school/index.asp"">Read Education Scotland's inspection reports</a>","Gracemount High","Edinburgh Catering Services","<a href=""http://www.edinburgh.gov.uk/schoolmeals"">Read the school meal menus</a>","Green Flag","Read more about <a href=""http://www.edinburgh.gov.uk/ecoschools"">Eco Schools in Edinburgh</a>",South,"<a href=""http://www.edinburgh.gov.uk/catchmentmap"">Read more about school catchments</a>","Phil Kidd 0131 664 7440/07824 622953","55.905578,-3.154164"
"Granton Primary School","55 Boswall Parkway","EH5 2DA","0131 552 3987",Admin@Granton.edin.sch.uk,http://www.granton.edin.sch.uk/,"Nur 8.45am-11.20am, 12.40pm-3.15pm, FT 8.45am-3.15pm, P1-2 Mon-Thur 8.45am-2.50pm, Fri 8.45am-12.15pm, P3-7 Mon-Thu 8.45am-3.15pm, Fri 8.45am-12.25pm","Shelagh Dow","<a href=""http://www.educationscotland.gov.uk/inspectionandreview/reports/school/index.asp"">Read Education Scotland's inspection reports</a>","Broughton High","Edinburgh Catering Services","<a href=""http://www.edinburgh.gov.uk/schoolmeals"">Read the school meal menus</a>",Silver,"Read more about <a href=""http://www.edinburgh.gov.uk/ecoschools"">Eco Schools in Edinburgh</a>",North,"<a href=""http://www.edinburgh.gov.uk/catchmentmap"">Read more about school catchments</a>","Robert Ure 07884 216213","55.975724,-3.226623"
"Gylemuir Primary School","10 Wester Broom Place","EH12 7RT","0131 334 7138",Admin@Gylemuir.edin.sch.uk,http://www.gylemuir.edin.sch.uk,"Nur 8.55am-11.30am, 12.30pm-3.05pm, FT 8.55am-3.05pm, P1-2 Mon-Thur 8.50am-2.40pm, Fri 8.50am-12.15pm, P3-7 Mon-Thu 8.50am-3.15pm, Fri 8.50am-12.25pm","Aileen Smart","<a href=""http://www.educationscotland.gov.uk/inspectionandreview/reports/school/index.asp"">Read Education Scotland's inspection reports</a>","Forrester High","Edinburgh Catering Services","<a href=""http://www.edinburgh.gov.uk/schoolmeals"">Read the school meal menus</a>","Green Flag","Read more about <a href=""http://www.edinburgh.gov.uk/ecoschools"">Eco Schools in Edinburgh</a>",West,"<a href=""http://www.edinburgh.gov.uk/catchmentmap"">Read more about school catchments</a>","Paddy Dearlove 07884 203270","55.938006,-3.294603"
"Hermitage Park Primary School","9 Hermitage Park","EH6 8HD","0131 554 2952",Admin@Hermitagepark.edin.sch.uk,http://www.hermitagepark.edin.sch.uk,"Nur 8.55am-11.30am, 12.25pm-3pm, FT 8.55am-3pm, P1-2 Mon-Thur 9am-3pm, Fri 9am-12.05pm, P3-7 Mon-Thu 9am-3.30pm, Fri 9am-12.15pm","Denise Penman","<a href=""http://www.educationscotland.gov.uk/inspectionandreview/reports/school/index.asp"">Read Education Scotland's inspection reports</a>","Leith Academy","Edinburgh Catering Services","<a href=""http://www.edinburgh.gov.uk/schoolmeals"">Read the school meal menus</a>","Green Flag","Read more about <a href=""http://www.edinburgh.gov.uk/ecoschools"">Eco Schools in Edinburgh</a>",North,"<a href=""http://www.edinburgh.gov.uk/catchmentmap"">Read more about school catchments</a>","Craig Renwick 07884 228020","55.965808,-3.162323"
"Hillwood Primary School","Station Road, Ratho Station","EH28 8PT","0131 333 1210",Admin@hillwood.edin.sch.uk,http://www.hillwood.edin.sch.uk,"Nur 9.00am-11.30am, P1-7 Mon-Thu 8.50am-3.15pm, Fri 8.50am-12.15pm","Lucy Henderson","<a href=""http://www.educationscotland.gov.uk/inspectionandreview/reports/school/index.asp"">Read Education Scotland's inspection reports</a>","Craigmount High","Edinburgh Catering Services","<a href=""http://www.edinburgh.gov.uk/schoolmeals"">Read the school meal menus</a>",Silver,"Read more about <a href=""http://www.edinburgh.gov.uk/ecoschools"">Eco Schools in Edinburgh</a>",West,"<a href=""http://www.edinburgh.gov.uk/catchmentmap"">Read more about school catchments</a>","Alisa Wilson/Bob Laurie 07825 843159/0131 3396823","55.938807,-3.391718"
"Holy Cross RC Primary School","Craighall Road","EH6 4RE","0131 552 1972",Admin@Holycross.edin.sch.uk,http://www.holycross.edin.sch.uk,"Nur 8.55am-11.30am, 12.25pm-3pm, FT 8.55am-3pm, P1-2 Mon-Thur 8.50am-2.55pm, Fri 8.50am-12.15pm, P3-7 Mon-Thu 8.50am-3.15pm, Fri 8.50am-12.25pm","Jackie McCarry","<a href=""http://www.educationscotland.gov.uk/inspectionandreview/reports/school/index.asp"">Read Education Scotland's inspection reports</a>","St Thomas of Aquin`s RC High","Edinburgh Catering Services","<a href=""http://www.edinburgh.gov.uk/schoolmeals"">Read the school meal menus</a>",Silver,"Read more about <a href=""http://www.edinburgh.gov.uk/ecoschools"">Eco Schools in Edinburgh</a>",North,"<a href=""http://www.edinburgh.gov.uk/catchmentmap"">Read more about school catchments</a>","Cameron Reid 07824 622936","55.976707,-3.197021"
"James Gillespie's Primary School","Whitehouse Loan","EH9 1BD","0131 447 1014",Admin@jamesgillespies-pri.edin.sch.uk,http://www.jamesgillespies-pri.edin.sch.uk,"Nur 8.55am-11.30am, 12.35pm-3.10pm, FT 8.45am-3pm, P1-2 Mon-Thur 8.45am-2.50pm, Fri 8.45am-12.15pm, P3-7 Mon-Thu 8.45am-3.20pm, Fri 8.45am-12.25pm","Anthea Grierson","<a href=""http://www.educationscotland.gov.uk/inspectionandreview/reports/school/index.asp"">Read Education Scotland's inspection reports</a>","James Gillespie`s High","Edinburgh Catering Services","<a href=""http://www.edinburgh.gov.uk/schoolmeals"">Read the school meal menus</a>",Silver,"Read more about <a href=""http://www.edinburgh.gov.uk/ecoschools"">Eco Schools in Edinburgh</a>",South,"<a href=""http://www.edinburgh.gov.uk/catchmentmap"">Read more about school catchments</a>","Jonathan Wallace/Lesley Ann Chessor 07799 861473/07884 271028","55.934595,-3.201203"
"Juniper Green Primary School","20 Baberton Mains Wynd","EH14 3EE","0131 442 2121",Admin@junipergreen.edin.sch.uk,http://www.junipergreen.edin.sch.uk,"Nur 8.55am-11.30am, 12.25pm-3pm, FT 8.55am-3pm, P1-2 Mon-Thur 8.45am-2.50pm, Fri 8.45am-11.50am, P3-7 Mon-Thu 8.45am-3.15pm, Fri 8.45am-12pm","Ingrid Donaldson","<a href=""http://www.educationscotland.gov.uk/inspectionandreview/reports/school/index.asp"">Read Education Scotland's inspection reports</a>","Currie High",Mitie,"<a href=""http://www.edinburgh.gov.uk/schoolmeals"">Read the school meal menus</a>",Green,"Read more about <a href=""http://www.edinburgh.gov.uk/ecoschools"">Eco Schools in Edinburgh</a>","South West","<a href=""http://www.edinburgh.gov.uk/catchmentmap"">Read more about school catchments</a>","Bev Anderson 0131 477 7788/07799 861460","55.907188,-3.285871"
"Kirkliston Primary School","15 Carmel Road, Kirkliston","EH29 9DD","0131 333 3260",Admin@kirkliston.edin.sch.uk,http://www.kirkliston.edin.sch.uk,"P1-2 Mon-Thur 8.50am-2.45pm, Fri 8.50am-12.15pm, P3-7 Mon-Thu 8.50am-3.15pm, Fri 8.50am-12.25pm","Lynn Paterson","<a href=""http://www.educationscotland.gov.uk/inspectionandreview/reports/school/index.asp"">Read Education Scotland's inspection reports</a>","Queensferry High","Edinburgh Catering Services","<a href=""http://www.edinburgh.gov.uk/schoolmeals"">Read the school meal menus</a>","Green Flag","Read more about <a href=""http://www.edinburgh.gov.uk/ecoschools"">Eco Schools in Edinburgh</a>",West,"<a href=""http://www.edinburgh.gov.uk/catchmentmap"">Read more about school catchments</a>","Heather Darling 07825 386846","55.955224,-3.409543"
"Leith Primary School","St Andrew's Place","EH6 7EG","0131 554 4844",Admin@Leith-pri.edin.sch.uk,http://www.leith-pri.edin.sch.uk,"Nur 8.55am-11.30am, 12.30pm-3.05pm, FT 8.55am-3.05pm, P1-2 Mon-Thur 8.50am-3pm, Fri 8.50am-12pm, P3-7 Mon-Thu 8.50am-3.15pm, Fri 8.50am-12.25pm","Alasdair Friend","<a href=""http://www.educationscotland.gov.uk/inspectionandreview/reports/school/index.asp"">Read Education Scotland's inspection reports</a>","Leith Academy","Edinburgh Catering Services","<a href=""http://www.edinburgh.gov.uk/schoolmeals"">Read the school meal menus</a>",Silver,"Read more about <a href=""http://www.edinburgh.gov.uk/ecoschools"">Eco Schools in Edinburgh</a>",North,"<a href=""http://www.edinburgh.gov.uk/catchmentmap"">Read more about school catchments</a>","Craig Renwick 07884 228020","55.954071,-3.195837"
"Leith Walk Primary School","9 Brunswick Road","EH7 5NG","0131 556 3873",Admin@leithwalk.edin.sch.uk,http://www.leithwalk.edin.sch.uk,"Nur 8.55am-11.30am, 12.30pm-3.05pm, FT 8.55am-3.05pm, P1-2 Mon-Thur 8.55am-3pm, Fri 8.55am-12.20pm, P3-7 Mon-Thu 8.55am-3.20pm, Fri 8.55am-12.30pm","Jackie Reid","<a href=""http://www.educationscotland.gov.uk/inspectionandreview/reports/school/index.asp"">Read Education Scotland's inspection reports</a>","Drummond Community High","Edinburgh Catering Services","<a href=""http://www.edinburgh.gov.uk/schoolmeals"">Read the school meal menus</a>","Green Flag","Read more about <a href=""http://www.edinburgh.gov.uk/ecoschools"">Eco Schools in Edinburgh</a>",North,"<a href=""http://www.edinburgh.gov.uk/catchmentmap"">Read more about school catchments</a>","Alan Reid 0131 556 2651/07799 861 494","55.959948,-3.177608"
"Liberton Primary School","229 Gilmerton Road","EH16 5UD","0131 664 2337",Admin@liberton-pri.edin.sch.uk,http://www.liberton-pri.edin.sch.uk,"Nur 8.55am-11.30am, 12.30pm-3.05pm, FT 8.55am-3.05pm, P1-2 Mon-Thur 8.50am-2.45pm, Fri 8.50am-12.15pm, P3-7 Mon-Thu 8.50am-3.15pm, Fri 8.50am-12.25pm","Paul Ewing","<a href=""http://www.educationscotland.gov.uk/inspectionandreview/reports/school/index.asp"">Read Education Scotland's inspection reports</a>","Liberton High","Edinburgh Catering Services","<a href=""http://www.edinburgh.gov.uk/schoolmeals"">Read the school meal menus</a>",Silver,"Read more about <a href=""http://www.edinburgh.gov.uk/ecoschools"">Eco Schools in Edinburgh</a>",South,"<a href=""http://www.edinburgh.gov.uk/catchmentmap"">Read more about school catchments</a>","Ellie Forgan 07884 210647","55.923002,-3.163548"
"Longstone Primary School","Redhall Grove","EH14 2DU","0131 443 4743",Admin@longstone.edin.sch.uk,http://www.longstone.edin.sch.uk,"Nur 8.55am-11.30am, 12.30pm-3.05pm, FT 8.55am-3.05pm, P1-2 Mon-Thur 8.50am-2.50pm, Fri 8.50am-12.15pm, P3-7 Mon-Thu 8.50am-3.20pm, Fri 8.50am-12.05pm","Irene Mirtle","<a href=""http://www.educationscotland.gov.uk/inspectionandreview/reports/school/index.asp"">Read Education Scotland's inspection reports</a>","Firrhill High","Edinburgh Catering Services","<a href=""http://www.edinburgh.gov.uk/schoolmeals"">Read the school meal menus</a>",Bronze,"Read more about <a href=""http://www.edinburgh.gov.uk/ecoschools"">Eco Schools in Edinburgh</a>","South West","<a href=""http://www.edinburgh.gov.uk/catchmentmap"">Read more about school catchments</a>","Lorna Norman/Shona Clark 07884 191761/07776 151522","55.92141,-3.261754"
"Lorne Primary School","7 Lorne Street","EH6 8QS","0131 554 2308",Admin@Lorne.edin.sch.uk,http://www.lorne.edin.sch.uk,"Nur 8.55am-11.30am, 12.25pm-3pm, FT 8.55am-3pm, P1-2 Mon-Thur 8.55am-2.55pm, Fri 8.55am-12pm, P3-7 Mon-Thu 8.55am-3.20pm, Fri 8.55am-12.10pm","Colin McLean","<a href=""http://www.educationscotland.gov.uk/inspectionandreview/reports/school/index.asp"">Read Education Scotland's inspection reports</a>","Leith Academy","Edinburgh Catering Services","<a href=""http://www.edinburgh.gov.uk/schoolmeals"">Read the school meal menus</a>",Green,"Read more about <a href=""http://www.edinburgh.gov.uk/ecoschools"">Eco Schools in Edinburgh</a>",North,"<a href=""http://www.edinburgh.gov.uk/catchmentmap"">Read more about school catchments</a>","Craig Renwick 07884 228020","55.966333,-3.174622"
"Murrayburn Primary School","1 Sighthill Loan","EH11 4NP","0131 453 5339",Admin@murrayburn.edin.sch.uk,http://murrayburn-edin.j2webby.com,"Nursery 8.30am-11.40am, 12.20pm-3.30pm
P1-2 Mon-Thur 8.45am-2.45pm, Fri 8.45am-11.50am
P3-7 Mon-Thu 8.45am-3.15pm, Fri 8.45am-12pm</p>","Catherine Lynch","<a href=""http://www.educationscotland.gov.uk/inspectionandreview/reports/school/index.asp"">Read Education Scotland's inspection reports</a>","Forrester High","Edinburgh Catering Services","<a href=""http://www.edinburgh.gov.uk/schoolmeals"">Read the school meal menus</a>",Silver,"Read more about <a href=""http://www.edinburgh.gov.uk/ecoschools"">Eco Schools in Edinburgh</a>",West,"<a href=""http://www.edinburgh.gov.uk/catchmentmap"">Read more about school catchments</a>","Paddy Dearlove 07884 203270","55.922937,-3.280263"
"Nether Currie Primary School","23 Thomson Crescent, Currie","EH14 5JR","0131 449 3140",Admin@Nethercurrie.edin.sch.uk,http://www.nethercurrie.edin.sch.uk,"P1-2 Mon-Thu 8.45am-2.40pm, Fri 8.45am-12pm, P3-7 Mon-Thu 8.45am-3.15pm, Fri 8.45am-12pm","Sheila Nicol","<a href=""http://www.educationscotland.gov.uk/inspectionandreview/reports/school/index.asp"">Read Education Scotland's inspection reports</a>","Currie High","Edinburgh Catering Services","<a href=""http://www.edinburgh.gov.uk/schoolmeals"">Read the school meal menus</a>","Green Flag","Read more about <a href=""http://www.edinburgh.gov.uk/ecoschools"">Eco Schools in Edinburgh</a>","South West","<a href=""http://www.edinburgh.gov.uk/catchmentmap"">Read more about school catchments</a>","Bev Anderson 0131 477 7788/07799 861460","55.899834,-3.303725"
"Newcraighall Primary School","Whitehill Street, Newcraighall","EH21 8QZ","0131 669 3598",Admin@newcraighall.edin.sch.uk,http://www.newcraighall.edin.sch.uk,"Nur 8.40am-11.15am, P1-7 Mon-Thur 8.45am-3.05pm, Fri 8.45am-12.20pm","Janet Paterson","<a href=""http://www.educationscotland.gov.uk/inspectionandreview/reports/school/index.asp"">Read Education Scotland's inspection reports</a>","Castlebrae High","Edinburgh Catering Services","<a href=""http://www.edinburgh.gov.uk/schoolmeals"">Read the school meal menus</a>",Bronze,"Read more about <a href=""http://www.edinburgh.gov.uk/ecoschools"">Eco Schools in Edinburgh</a>",East,"<a href=""http://www.edinburgh.gov.uk/catchmentmap"">Read more about school catchments</a>","Shirley Banks/Alan Reid 07774 468782/0131 468 4504","55.92691,-3.08285"
"Niddrie Mill Primary School","20 Moffat Way","EH16 4PY","0131 468 7025",Admin@niddriemill.edin.sch.uk,http://www.niddriemill.edin.sch.uk,"P1-2 Mon-Thu 8.50am-2.45pm, Fri 8.50am-12.15pm
P3-7 Mon-Thu 8.50am-3pm, Fri 8.50am-12.25pm","Anne Pettit","<a href=""http://www.educationscotland.gov.uk/inspectionandreview/reports/school/index.asp"">Read Education Scotland's inspection reports</a>","Castlebrae High","Edinburgh Catering Services","<a href=""http://www.edinburgh.gov.uk/schoolmeals"">Read the school meal menus</a>",Bronze,"Read more about <a href=""http://www.edinburgh.gov.uk/ecoschools"">Eco Schools in Edinburgh</a>",East,"<a href=""http://www.edinburgh.gov.uk/catchmentmap"">Read more about school catchments</a>","Shirley Banks/Alan Reid 07774 468782/0131 468 4504","55.934823,-3.12726"
"Oxgangs Primary School","60 Oxgangs Road North","EH13 9DS","0131 441 3649",Admin@Oxgangs.edin.sch.uk,http://www.oxgangs.edin.sch.uk,"Nursery 8:45am-11:55am, 12.30pm-3:40pm. P1-2 Mon-Thur 8.55am-2.45pm, Fri 8.55am-12.25pm. P3-7 Mon-Thu 8.55am-3.20pm, Fri 8.55am-12.30pm","Liz Walshe","<a href=""http://www.educationscotland.gov.uk/inspectionandreview/reports/school/index.asp"">Read Education Scotland's inspection reports</a>","Firrhill High",Amey,"<a href=""http://www.edinburgh.gov.uk/schoolmeals"">Read the school meal menus</a>",Silver,"Read more about <a href=""http://www.edinburgh.gov.uk/ecoschools"">Eco Schools in Edinburgh</a>","South West","<a href=""http://www.edinburgh.gov.uk/catchmentmap"">Read more about school catchments</a>","Lorna Norman/Shona Clark 07884 191761/07776 151522","55.913113,-3.23562"
"Parsons Green Primary School","60 Meadowfield Drive","EH8 7LU","0131 661 4459",Admin@parsonsgreen.edin.sch.uk,http://www.parsonsgreen.edin.sch.uk,"Nur 9am-11.35am, 12.30pm-3.05pm, FT 9am-3.05pm, P1-2 Mon-Thur 8.55am-2.50pm, Fri 8.55am-12pm, P3-7 Mon-Thu 8.55am-3.20pm, Fri 8.55am-12.30pm","Jennifer McGowan (Acting)","<a href=""http://www.educationscotland.gov.uk/inspectionandreview/reports/school/index.asp"">Read Education Scotland's inspection reports</a>","Portobello High","Edinburgh Catering Services","<a href=""http://www.edinburgh.gov.uk/schoolmeals"">Read the school meal menus</a>",Silver,"Read more about <a href=""http://www.edinburgh.gov.uk/ecoschools"">Eco Schools in Edinburgh</a>",East,"<a href=""http://www.edinburgh.gov.uk/catchmentmap"">Read more about school catchments</a>","Lewis Patience/Tony Segall 07825 842971/ 07884 244362","55.947545,-3.143571"
"Pentland Primary School","Oxgangs Green","EH13 9JF","0131 445 1510",Admin@pentland.edin.sch.uk,http://www.pentland.edin.sch.uk,"Nur 8.55am-11.30am, 12.30pm-3.05pm, FT 8.55am-3.05pm, P1-2 Mon-Thur 8.50am-3.05pm, Fri 8.50am-12.15pm, P3-7 Mon-Thu 8.50am-3.15pm, Fri 8.50am-12.25pm","Jacqueline Mackenzie","<a href=""http://www.educationscotland.gov.uk/inspectionandreview/reports/school/index.asp"">Read Education Scotland's inspection reports</a>","Firrhill High","Edinburgh Catering Services","<a href=""http://www.edinburgh.gov.uk/schoolmeals"">Read the school meal menus</a>",Silver,"Read more about <a href=""http://www.edinburgh.gov.uk/ecoschools"">Eco Schools in Edinburgh</a>","South West","<a href=""http://www.edinburgh.gov.uk/catchmentmap"">Read more about school catchments</a>","Lorna Norman/Shona Clark 07884 191761/07776 151522","55.908433,-3.220216"
"Pirniehall Primary School","4 West Pilton Crescent","EH4 4EP","0131 332 5256",Admin@pirniehall.edin.sch.uk,http://www.pirniehall.edin.sch.uk,"Nursery 8:30am-11.40am, 12.15pm-3.155pm
P1-2 Mon-Thur 8.40am-2.50pm, Fri 8.40am-12.05pm
P3-7 Mon-Thu 8.40am-3.05pm, Fri 8.40am-12.15pm","Mary Ryan-Gillespie","<a href=""http://www.educationscotland.gov.uk/inspectionandreview/reports/school/index.asp"">Read Education Scotland's inspection reports</a>","Craigroyston Community High",Amey,"<a href=""http://www.edinburgh.gov.uk/schoolmeals"">Read the school meal menus</a>","Green Flag","Read more about <a href=""http://www.edinburgh.gov.uk/ecoschools"">Eco Schools in Edinburgh</a>",North,"<a href=""http://www.edinburgh.gov.uk/catchmentmap"">Read more about school catchments</a>","Andrew Gallacher 07711 390745/0131 477 7801","55.972152,-3.244671"
"Preston Street Primary School","169 Dalkeith Road","EH16 5BR","0131 667 4208",Admin@prestonstreet.edin.sch.uk,http://www.prestonstreet.edin.sch.uk,"P1-2 Mon-Thu 8.50am-2.50pm, Fri 8.50am-12.15pm, P3-7 Mon-Thu 8.45am-3.10pm, Fri 8.45am-12.20pm","Maureen Allan","<a href=""http://www.educationscotland.gov.uk/inspectionandreview/reports/school/index.asp"">Read Education Scotland's inspection reports</a>","James Gillespie`s High","Edinburgh Catering Services","<a href=""http://www.edinburgh.gov.uk/schoolmeals"">Read the school meal menus</a>",Silver,"Read more about <a href=""http://www.edinburgh.gov.uk/ecoschools"">Eco Schools in Edinburgh</a>",South,"<a href=""http://www.edinburgh.gov.uk/catchmentmap"">Read more about school catchments</a>","Jonathan Wallace/Lesley Ann Chessor 07799 861473/ 07884 271028","55.934312,-3.167317"
"Prestonfield Primary School","Peffermill Road","EH16 5LJ","0131 667 1336",Admin@Prestonfield.edin.sch.uk,http://www.prestonfield.edin.sch.uk,"Nur 8.55am-11.30am, 12.30pm-3.05pm, FT 8.55am-3.05pm, P1-2 Mon-Thur 8.50am-3.05pm, Fri 8.50am-12.15pm, P3-7 Mon-Thu 8.50am-3.15pm, Fri 8.50am-12.25pm","Fiona Murray","<a href=""http://www.educationscotland.gov.uk/inspectionandreview/reports/school/index.asp"">Read Education Scotland's inspection reports</a>","Castlebrae High (Dual status with Liberton High)","Edinburgh Catering Services","<a href=""http://www.edinburgh.gov.uk/schoolmeals"">Read the school meal menus</a>",Silver,"Read more about <a href=""http://www.edinburgh.gov.uk/ecoschools"">Eco Schools in Edinburgh</a>",South,"<a href=""http://www.edinburgh.gov.uk/catchmentmap"">Read more about school catchments</a>","Ellie Forgan 07884 210647","55.9321,-3.149808"
"Queensferry Primary School","Burgess Road, South Queensferry","EH30 9NX","0131 331 1349",quee-adminstaff@ea.edin.sch.uk,http://www.queensferry-pri.edin.sch.uk,"Nur 8.55am-11.30am, 12.25pm-3pm, FT 8.55am-3pm, P1-2 Mon-Thur 8.55am-2.45pm, Fri 8.55am-12.20pm, P3-7 Mon-Thu 9am-3.25pm, Fri 9am-12.35pm","Karen MacGregor","<a href=""http://www.educationscotland.gov.uk/inspectionandreview/reports/school/index.asp"">Read Education Scotland's inspection reports</a>","Queensferry High","Edinburgh Catering Services","<a href=""http://www.edinburgh.gov.uk/schoolmeals"">Read the school meal menus</a>",Silver,"Read more about <a href=""http://www.edinburgh.gov.uk/ecoschools"">Eco Schools in Edinburgh</a>",West,"<a href=""http://www.edinburgh.gov.uk/catchmentmap"">Read more about school catchments</a>","Heather Darling 07825 386846","55.986975,-3.394659"
"Ratho Primary School","1 School Wynd, Ratho","EH28 8TT","0131 333 1293",Admin@ratho.edin.sch.uk,http://www.ratho.edin.sch.uk,"Nursery 8.15am-11.25am, 12.20pm-3.30pm
P1-2 Mon-Thur 8.50am-2.40pm, Fri 8.50am-12.15pm
P3-7 Mon-Thu 8.50am-3.15pm, Fri 8.50am-12.25pm","Claire McGlynn","<a href=""http://www.educationscotland.gov.uk/inspectionandreview/reports/school/index.asp"">Read Education Scotland's inspection reports</a>","Balerno Community High","Edinburgh Catering Services","<a href=""http://www.edinburgh.gov.uk/schoolmeals"">Read the school meal menus</a>","Green Flag","Read more about <a href=""http://www.edinburgh.gov.uk/ecoschools"">Eco Schools in Edinburgh</a>","South West","<a href=""http://www.edinburgh.gov.uk/catchmentmap"">Read more about school catchments</a>","Ricky Karoyan 07884 175080","55.922282,-3.384237"
"Roseburn Primary School","64 Roseburn Street","EH12 5PL","0131 337 6096",Admin@Roseburn.edin.sch.uk,http://www.roseburn.edin.sch.uk,"Nursery 8.55am-11.30am, 12.30pm-3.05pm
P1-2 Mon-Thur 8.50am-3pm, Fri 8.50am-12.15pm
P3-7 Mon-Thu 8.50am-3.15pm, Fri 8.50am-12.25pm","Viv Donaldson","<a href=""http://www.educationscotland.gov.uk/inspectionandreview/reports/school/index.asp"">Read Education Scotland's inspection reports</a>","Craigmount High","Edinburgh Catering Services","<a href=""http://www.edinburgh.gov.uk/schoolmeals"">Read the school meal menus</a>","Green Flag","Read more about <a href=""http://www.edinburgh.gov.uk/ecoschools"">Eco Schools in Edinburgh</a>",West,"<a href=""http://www.edinburgh.gov.uk/catchmentmap"">Read more about school catchments</a>","Alisa Wilson/Bob Laurie 07825 843159/0131 339 6823","55.942908,-3.237876"
"Royal Mile Primary School","86 Canongate","EH8 8BZ","0131 556 3347",Admin@royalmile.edin.sch.uk,http://www.royalmile.edin.sch.uk,"Nursery 8.55am-11.30am, 12.30pm-3.05pm
P1-2 Mon-Thur 8.50am-3pm, Fri 8.50am-11.55am
P3-7 Mon-Thu 8.50am-3.15pm, Fri 8.50am-12.25pm","Nicky Johnstone","<a href=""http://www.educationscotland.gov.uk/inspectionandreview/reports/school/index.asp"">Read Education Scotland's inspection reports</a>","James Gillespie`s High","Edinburgh Catering Services","<a href=""http://www.edinburgh.gov.uk/schoolmeals"">Read the school meal menus</a>",Bronze,"Read more about <a href=""http://www.edinburgh.gov.uk/ecoschools"">Eco Schools in Edinburgh</a>",South,"<a href=""http://www.edinburgh.gov.uk/catchmentmap"">Read more about school catchments</a>","Jonathan Wallace/Lesley Ann Chessor 07799 861473/07884 271028","55.952043,-3.176734"
"Sciennes Primary School","10 Sciennes Road","EH9 1LG","0131 667 1243",Admin@sciennes.edin.sch.uk,http://www.sciennes.edin.sch.uk,"P1-2 Mon-Thu 8.50am-2.42pm, Fri 8.50am-12.07pm, P3-7 Mon-Thu 8.50am-3.20pm, Fri 8.50am-12.05pm","Alison Noble","<a href=""http://www.educationscotland.gov.uk/inspectionandreview/reports/school/index.asp"">Read Education Scotland's inspection reports</a>","James Gillespie`s High","Edinburgh Catering Services","<a href=""http://www.edinburgh.gov.uk/schoolmeals"">Read the school meal menus</a>","Green Flag","Read more about <a href=""http://www.edinburgh.gov.uk/ecoschools"">Eco Schools in Edinburgh</a>",South,"<a href=""http://www.edinburgh.gov.uk/catchmentmap"">Read more about school catchments</a>","Jonathan Wallace/Lesley Ann Chessor 07799 861473/07884 271028","55.9381,-3.186861"
"Sighthill Primary School","1 Calder Park","EH11 4NF","0131 453 2464",Admin@Sighthill.edin.sch.uk,http://www.sighthill.edin.sch.uk,"Nur 8.45am-11.35am, Alternate Fri 9.00am-12.10pm, 12.20pm-3.10pm, P1-2 Mon-Thur 8.50am-2.45pm, Fri 8.50am-12.20pm, P3-7 Mon-Thu 8.50am-3.15pm, Fri 8.50am-12.30pm","Anne Gallagher","<a href=""http://www.educationscotland.gov.uk/inspectionandreview/reports/school/index.asp"">Read Education Scotland's inspection reports</a>","Wester Hailes Education Centre","Edinburgh Catering Services","<a href=""http://www.edinburgh.gov.uk/schoolmeals"">Read the school meal menus</a>",Silver,"Read more about <a href=""http://www.edinburgh.gov.uk/ecoschools"">Eco Schools in Edinburgh</a>","South West","<a href=""http://www.edinburgh.gov.uk/catchmentmap"">Read more about school catchments</a>","Shona Clark 07776 151522","55.919805,-3.293898"
"South Morningside Primary School","116 Comiston Road","EH10 5QN","0131 447 5446",Admin@southmorningside.edin.sch.uk,http://www.southmorningside.edin.sch.uk,"Nursery 9am-11.35am, 12.25pm-3pm
P1-2 Mon-Thur 8.50am-3pm, Fri 8.50am-12.20pm
P3-7 Mon-Thu 8.45am-3.15pm, Fri 8.45am-12.25pm","Elizabeth Grierson","<a href=""http://www.educationscotland.gov.uk/inspectionandreview/reports/school/index.asp"">Read Education Scotland's inspection reports</a>","Boroughmuir High","Edinburgh Catering Services","<a href=""http://www.edinburgh.gov.uk/schoolmeals"">Read the school meal menus</a>",Silver,"Read more about <a href=""http://www.edinburgh.gov.uk/ecoschools"">Eco Schools in Edinburgh</a>",South,"<a href=""http://www.edinburgh.gov.uk/catchmentmap"">Read more about school catchments</a>","Andrew Caldwell 07825 386710/0131 229 9703","55.920835,-3.212112"
"St Catherine's RC Primary School","30 Gracemount Drive","EH16 6RN","0131 664 4257",Admin@st-catherines.edin.sch.uk,http://www.st-catherines.edin.sch.uk,"Nur 8.55am-11.30am, 12.30pm-3.05pm, P1-2 Mon-Thur 8.45am-3.05pm, Fri 8.45am-12.10pm, P3-7 Mon-Thu 8.45am-3.05pm, Fri 8.45am-12.16pm","Paul Hunter","<a href=""http://www.educationscotland.gov.uk/inspectionandreview/reports/school/index.asp"">Read Education Scotland's inspection reports</a>","Holy Rood RC High","Edinburgh Catering Services","<a href=""http://www.edinburgh.gov.uk/schoolmeals"">Read the school meal menus</a>","Green Flag","Read more about <a href=""http://www.edinburgh.gov.uk/ecoschools"">Eco Schools in Edinburgh</a>",South,"<a href=""http://www.edinburgh.gov.uk/catchmentmap"">Read more about school catchments</a>","Phil Kidd 0131 664 7440/07824 622953","55.903836,-3.156816"
"St Cuthbert's RC Primary School","9 Hutchison Crossway","EH14 1RP","0131 443 2621",Admin@st-cuthberts.edin.sch.uk,http://www.st-cuthberts.edin.sch.uk,"P1-2 Mon-Thu 8.55am-3pm, Fri 8.55am-12.20pm, P3-7 Mon-Thu 8.55am-3.20pm, Fri 8.55am-12.30pm","Catriona Taylor","<a href=""http://www.educationscotland.gov.uk/inspectionandreview/reports/school/index.asp"">Read Education Scotland's inspection reports</a>","St Augustine`s RC High","Edinburgh Catering Services","<a href=""http://www.edinburgh.gov.uk/schoolmeals"">Read the school meal menus</a>",Silver,"Read more about <a href=""http://www.edinburgh.gov.uk/ecoschools"">Eco Schools in Edinburgh</a>",West,"<a href=""http://www.edinburgh.gov.uk/catchmentmap"">Read more about school catchments</a>","Fiona Damen 07769 922742","55.930707,-3.240398"
"St David's RC Primary School","4 West Pilton Crescent","EH4 4EP","0131 332 3500",Admin@st-davids.edin.sch.uk,http://www.st-davids.edin.sch.uk,"Nur 9am-11.35am, 12.25pm-3pm, P1-2 Mon-Thur 8.50am-2.50pm, Fri 8.50am-12.15pm, P3-7 Mon-Thu 8.50am-3.15pm, Fri 8.50am-12.25pm","Siobhan Kellock","<a href=""http://www.educationscotland.gov.uk/inspectionandreview/reports/school/index.asp"">Read Education Scotland's inspection reports</a>","St Augustine`s RC High",Amey,"<a href=""http://www.edinburgh.gov.uk/schoolmeals"">Read the school meal menus</a>","Green Flag","Read more about <a href=""http://www.edinburgh.gov.uk/ecoschools"">Eco Schools in Edinburgh</a>",North,"<a href=""http://www.edinburgh.gov.uk/catchmentmap"">Read more about school catchments</a>","Andrew Gallacher 07711 390745/0131 477 7801","55.972152,-3.244671"
"St Francis' RC Primary School","20 Moffat Way","EH16 4PY","0131 621 6600",Admin@st-francis.edin.sch.uk,http://www.st-francis.edin.sch.uk,"P1-2 Mon-Thu 8.50am-2.45pm, Fri 8.50am-12.15pm, P3-7 Mon-Thu 8.50am-3.10pm, Fri 8.50am-12.25pm","Margot MacAlister","<a href=""http://www.educationscotland.gov.uk/inspectionandreview/reports/school/index.asp"">Read Education Scotland's inspection reports</a>","Holy Rood RC High","Edinburgh Catering Services","<a href=""http://www.edinburgh.gov.uk/schoolmeals"">Read the school meal menus</a>",Bronze,"Read more about <a href=""http://www.edinburgh.gov.uk/ecoschools"">Eco Schools in Edinburgh</a>",East,"<a href=""http://www.edinburgh.gov.uk/catchmentmap"">Read more about school catchments</a>","Shirley Banks/Alan Reid 07774 468782/0131 468 4504","55.934823,-3.12726"
"St John Vianney RC Primary School","17 Ivanhoe Crescent","EH16 6AU","0131 664 1742",Admin@st-johnvianney.edin.sch.uk,http://www.take2theweb.com/pub/edinburgh/stjohnvianney,"Nur 8.55am-11.30am, 12.30pm-3.05pm, FT 8.55am-3.05pm, P1-2 Mon-Thur 8.50am-3pm, Fri 8.50am-12.20pm, P3-7 Mon-Thu 8.50am-3.10pm, Fri 8.50am-12.30pm","Helen Hill","<a href=""http://www.educationscotland.gov.uk/inspectionandreview/reports/school/index.asp"">Read Education Scotland's inspection reports</a>","Holy Rood RC High","Edinburgh Catering Services","<a href=""http://www.edinburgh.gov.uk/schoolmeals"">Read the school meal menus</a>","Green Flag","Read more about <a href=""http://www.edinburgh.gov.uk/ecoschools"">Eco Schools in Edinburgh</a>",South,"<a href=""http://www.edinburgh.gov.uk/catchmentmap"">Read more about school catchments</a>","Lorraine Dickson 07825 387256","55.918932,-3.157825"
"St John's RC Primary School","Hamilton Terrace","EH15 1NB","0131 669 1363",Admin@st-johns.edin.sch.uk,http://www.st-johns.edin.sch.uk/,"Nur 8.45am-11.20am, 12.20pm-2.55pm, FT 8.45am-2.55pm, P1-2 Mon-Thur 8.50am-2.45pm, Fri 8.50am-11.55am, P3-7 Mon-Thu 8.50am-3.20pm, Fri 8.50am-12.05pm","Barbara Service","<a href=""http://www.educationscotland.gov.uk/inspectionandreview/reports/school/index.asp"">Read Education Scotland's inspection reports</a>","Holy Rood RC High","Edinburgh Catering Services","<a href=""http://www.edinburgh.gov.uk/schoolmeals"">Read the school meal menus</a>",Silver,"Read more about <a href=""http://www.edinburgh.gov.uk/ecoschools"">Eco Schools in Edinburgh</a>",East,"<a href=""http://www.edinburgh.gov.uk/catchmentmap"">Read more about school catchments</a>","Lorraine Dickson (Wed, Thu, Fri) 07825 387256","55.949342,-3.121359"
"St Joseph's RC Primary School","Saughton Road","EH11 3RQ","0131 443 4591",Admin@st-josephs.edin.sch.uk,http://www.st-josephs.edin.sch.uk,"Nur 8.55am-11.30am, 12.25pm-3pm, FT 8.55am-3pm, P1-2 Mon-Thur 8.50am-3pm, Fri 8.50am-12.15pm, P3-7 Mon-Thu 8.50am-3.15pm, Fri 8.50am-12.25pm","Wynne McDonald","<a href=""http://www.educationscotland.gov.uk/inspectionandreview/reports/school/index.asp"">Read Education Scotland's inspection reports</a>","St Augustine`s RC High",Amey,"<a href=""http://www.edinburgh.gov.uk/schoolmeals"">Read the school meal menus</a>","Green Flag","Read more about <a href=""http://www.edinburgh.gov.uk/ecoschools"">Eco Schools in Edinburgh</a>",West,"<a href=""http://www.edinburgh.gov.uk/catchmentmap"">Read more about school catchments</a>","Fiona Damen 07769 922742","55.929634,-3.272658"
"St Margaret's RC Primary School","Station Road, South Queensferry","EH30 9JY","0131 331 1895",admin@st-margarets-pri.edin.sch.uk,http://www.st-margarets-pri.edin.sch.uk,"P1-2 Mon-Thu 8.52am-2.40pm, Fri 8.52am-12.25pm, P3-7 Mon-Thu 8.50am-3.15pm, Fri 8.50am-12.25pm","Katy Westacott","<a href=""http://www.educationscotland.gov.uk/inspectionandreview/reports/school/index.asp"">Read Education Scotland's inspection reports</a>","St Augustine`s RC High","Edinburgh Catering Services","<a href=""http://www.edinburgh.gov.uk/schoolmeals"">Read the school meal menus</a>","Green Flag","Read more about <a href=""http://www.edinburgh.gov.uk/ecoschools"">Eco Schools in Edinburgh</a>",West,"<a href=""http://www.edinburgh.gov.uk/catchmentmap"">Read more about school catchments</a>","Fiona Damen 07769 922742","55.987447,-3.389779"
"St Mark's RC Primary School","63 Firrhill Crescent","EH13 9EE","0131 441 2948",Admin@st-marks.edin.sch.uk,http://www.st-marks.edin.sch.uk,"Nur 8.55am-11.30am, 12.25pm-3pm, P1-2 Mon-Thur 8.50am-2.50pm, Fri 8.50am-12.25pm, P3-7 Mon-Thu 8.50am-3.15pm, Fri 8.50am-12.25pm","James McDevitt","<a href=""http://www.educationscotland.gov.uk/inspectionandreview/reports/school/index.asp"">Read Education Scotland's inspection reports</a>","St Thomas of Aquin`s RC High","Edinburgh Catering Services","<a href=""http://www.edinburgh.gov.uk/schoolmeals"">Read the school meal menus</a>",Silver,"Read more about <a href=""http://www.edinburgh.gov.uk/ecoschools"">Eco Schools in Edinburgh</a>","South West","<a href=""http://www.edinburgh.gov.uk/catchmentmap"">Read more about school catchments</a>","Cameron Reid 07824 622936/0131 229 8734","55.911585,-3.23059"
"St Mary's RC Primary School (Edin)","63 East London Street","EH7 4BW","0131 556 7128",Admin@st-marysrc-pri.edin.sch.uk,http://www.st-marysrc-pri.edin.sch.uk,"P1-2 Mon-Thu 8.45am-3.10pm, Fri 8.45am-12.15pm, P3-7 Mon-Thu 8.45am-3.15pm, Fri 8.45am-12.25pm","Nicola Kehoe","<a href=""http://www.educationscotland.gov.uk/inspectionandreview/reports/school/index.asp"">Read Education Scotland's inspection reports</a>","St Thomas of Aquin`s RC High","Edinburgh Catering Services","<a href=""http://www.edinburgh.gov.uk/schoolmeals"">Read the school meal menus</a>","Green Flag","Read more about <a href=""http://www.edinburgh.gov.uk/ecoschools"">Eco Schools in Edinburgh</a>",North,"<a href=""http://www.edinburgh.gov.uk/catchmentmap"">Read more about school catchments</a>","Cameron Reid 07824 622936/0131 229 8734","55.959887,-3.187887"
"St Mary's RC Primary School (Leith)","30 Links Gardens","EH6 7JG","0131 554 7291",Admin@st-marys-pri.edin.sch.uk,http://www.stmarysleith.org,"Nur 8.55am-11.30am, 12.30pm-3.05pm, FT 8.55am-3.05pm, P1-2 Mon-Thur 8.50am-2.55pm, Fri 8.50am-12.15pm, P3-7 Mon-Thu 8.50am-3.15pm, Fri 8.50am-12.25pm","Stephen Gilhooley","<a href=""http://www.educationscotland.gov.uk/inspectionandreview/reports/school/index.asp"">Read Education Scotland's inspection reports</a>","Holy Rood RC High","Edinburgh Catering Services","<a href=""http://www.edinburgh.gov.uk/schoolmeals"">Read the school meal menus</a>","Green Flag","Read more about <a href=""http://www.edinburgh.gov.uk/ecoschools"">Eco Schools in Edinburgh</a>",North,"<a href=""http://www.edinburgh.gov.uk/catchmentmap"">Read more about school catchments</a>","Lorraine Dickson 07825 387256","55.971845,-3.160912"
"St Ninian's RC Primary School","150 Restalrig Road South","EH7 6JA","0131 661 3431",Admin@st-ninians.edin.sch.uk,http://www.st-ninians.edin.sch.uk,"Nur 8.55am-11.30am, 12.30pm-3.05pm, FT 8.55am-3.05pm, P1-2 Mon-Thur 8.55am-3.05pm, Fri 8.55am-12pm, P3-7 Mon-Thu 8.55am-3.20pm, Fri 8.55am-12.10pm","Angie Brack","<a href=""http://www.educationscotland.gov.uk/inspectionandreview/reports/school/index.asp"">Read Education Scotland's inspection reports</a>","Holy Rood RC High","Edinburgh Catering Services","<a href=""http://www.edinburgh.gov.uk/schoolmeals"">Read the school meal menus</a>",Bronze,"Read more about <a href=""http://www.edinburgh.gov.uk/ecoschools"">Eco Schools in Edinburgh</a>",North,"<a href=""http://www.edinburgh.gov.uk/catchmentmap"">Read more about school catchments</a>","Lorraine Dickson (Wed, Thu, Fri) 07825 387256","55.960111,-3.150441"
"St Peter's RC Primary School","10 Falcon Road","EH10 4AH","0131 447 5742",Admin@st-peters.edin.sch.uk,http://www.st-peters.edin.sch.uk,"Nur 9am-11.35am, 12.30pm-3.05pm, FT 9am-3.05pm, P1-2 Mon-Thur 8.50am-3pm, Fri 8.50am-12.05pm, P3-7 Mon-Thu 8.50am-3.10pm, Fri 8.50am-12.25pm","Kathleen Nazarian","<a href=""http://www.educationscotland.gov.uk/inspectionandreview/reports/school/index.asp"">Read Education Scotland's inspection reports</a>","St Thomas of Aquin`s RC High",Amey,"<a href=""http://www.edinburgh.gov.uk/schoolmeals"">Read the school meal menus</a>",Silver,"Read more about <a href=""http://www.edinburgh.gov.uk/ecoschools"">Eco Schools in Edinburgh</a>",South,"<a href=""http://www.edinburgh.gov.uk/catchmentmap"">Read more about school catchments</a>","Cameron Reid 07824 622936/0131 229 8734","55.929699,-3.207108"
"Stenhouse Primary School","4 Saughton Mains Street","EH11 3HH","0131 443 1255",Admin@stenhouse.edin.sch.uk,http://www.stenhouse.edin.sch.uk,"Nur 8.55am-11.30am, 12.25pm-3pm, P1-2 Mon-Thur 8.45am-2.50pm, Fri 8.45am-11.50pm, P3-7 Mon-Thu 8.45am-3.15pm, Fri 8.45am-12pm","Steven Jamieson","<a href=""http://www.educationscotland.gov.uk/inspectionandreview/reports/school/index.asp"">Read Education Scotland's inspection reports</a>","Tynecastle High","Edinburgh Catering Services","<a href=""http://www.edinburgh.gov.uk/schoolmeals"">Read the school meal menus</a>",Registered,"Read more about <a href=""http://www.edinburgh.gov.uk/ecoschools"">Eco Schools in Edinburgh</a>",West,"<a href=""http://www.edinburgh.gov.uk/downloads/file/1227/stenhouse_primary_school_catchment_map"">Download the catchment map</a> or read more about <a href=""http://www.edinburgh.gov.uk/info/879/school_and_nursery_places/937/school_places/2"">school catchments</a>","Pamela Brown 07884 142774","55.931339,-3.26466"
"Stockbridge Primary School","17a Hamilton Place","EH3 5BA","0131 332 6109",Admin@stockbridge.edin.sch.uk,http://www.stockbridge.edin.sch.uk,"Nur 9am-11.35am, 12.30pm-3.05pm, FT 9am-3.05pm, P1-2 Mon-Thur 8.55am-2.55pm, Fri 8.55am-12.25pm, P3-7 Mon-Thu 8.55am-3.20pm, Fri 8.55am-12.30pm","Faye Calder-Kelly","<a href=""http://www.educationscotland.gov.uk/inspectionandreview/reports/school/index.asp"">Read Education Scotland's inspection reports</a>","Broughton High","Edinburgh Catering Services","<a href=""http://www.edinburgh.gov.uk/schoolmeals"">Read the school meal menus</a>",Silver,"Read more about <a href=""http://www.edinburgh.gov.uk/ecoschools"">Eco Schools in Edinburgh</a>",North,"<a href=""http://www.edinburgh.gov.uk/catchmentmap"">Read more about school catchments</a>","Robert Ure 07884 216213","55.959357,-3.207486"
"The Royal High Primary School","61 Northfield Broadway","EH8 7RX","0131 669 3200",Admin@royalhigh-pri.edin.sch.uk,http://www.royalhigh-pri.edin.sch.uk/,"Nur 8.55am-11.30am, 12.25pm-3pm, FT 8.55am-3pm, P1-2 Mon-Thur 8.55am-3pm, Fri 8.55am-12.20pm, P3-7 Mon-Thu 8.55am-3.25pm, Fri 8.55am-12.30pm","Eileen Forrest","<a href=""http://www.educationscotland.gov.uk/inspectionandreview/reports/school/index.asp"">Read Education Scotland's inspection reports</a>","Portobello High","Edinburgh Catering Services","<a href=""http://www.edinburgh.gov.uk/schoolmeals"">Read the school meal menus</a>","Green Flag","Read more about <a href=""http://www.edinburgh.gov.uk/ecoschools"">Eco Schools in Edinburgh</a>",East,"<a href=""http://www.edinburgh.gov.uk/catchmentmap"">Read more about school catchments</a>","Lewis Patience / Tony Segall 07825 842971 /07884 244362","55.954571,-3.140247"
"Tollcross Primary School","117 Fountainbridge","EH3 9QG","0131 229 7828",Admin@tollcross.edin.sch.uk,http://www.tollcross.edin.sch.uk,"P1-2 Mon-Thur 8.55am-3pm, Fri 8.55am-12.20pm
P3-7 Mon-Thu 8.55am-3.20pm, Fri 8.55am-12.30pm","Alice Brown","<a href=""http://www.educationscotland.gov.uk/inspectionandreview/reports/school/index.asp"">Read Education Scotland's inspection reports</a>","James Gillespie`s High","Edinburgh Catering Services","<a href=""http://www.edinburgh.gov.uk/schoolmeals"">Read the school meal menus</a>","Green Flag","Read more about <a href=""http://www.edinburgh.gov.uk/ecoschools"">Eco Schools in Edinburgh</a>",South,"<a href=""http://www.edinburgh.gov.uk/catchmentmap"">Read more about school catchments</a>","Jonathan Wallace//Lesley Ann Chessor 07799 861473/07884 271028","55.94324,-3.207825"
"Towerbank Primary School","Figgate Bank","EH15 1HX","0131 669 1551",Admin@Towerbank.edin.sch.uk,http://www.towerbank.edin.sch.uk,"Nursery: 9am-11.35am / 12.30pm-3.05pm (FT: 9am-3.05pm). P1-2: Mon-Thur 9am-3.10pm, Fri 9am-12.20pm, P3-7: Mon-Thu 8.50am-3.20pm, Fri 8.50am-12.20pm","Joyce Gilmour","<a href=""http://www.educationscotland.gov.uk/inspectionandreview/reports/school/index.asp"">Read Education Scotland's inspection reports</a>","Portobello High","Edinburgh Catering Services","<a href=""http://www.edinburgh.gov.uk/schoolmeals"">Read the school meal menus</a>","Green Flag","Read more about <a href=""http://www.edinburgh.gov.uk/ecoschools"">Eco Schools in Edinburgh</a>",East,"<a href=""http://www.edinburgh.gov.uk/catchmentmap"">Read more about school catchments</a>","Lewis Patience/Tony Segall 07825842971/07884 244362","55.955142,-3.112257"
"Trinity Primary School","181 Newhaven Road","EH6 4QA","0131 554 2062",Admin@trinity-pri.edin.sch.uk,http://www.trinity-pri.edin.sch.uk,"P1-2 Mon-Thu 8.50am-2.55pm, Fri 8.50am-12.25pm, P3-7 Mon-Thu 8.50am-3.15pm, Fri 8.50am-12.25pm","Jacqueline Scott","<a href=""http://www.educationscotland.gov.uk/inspectionandreview/reports/school/index.asp"">Read Education Scotland's inspection reports</a>","Trinity Academy","Edinburgh Catering Services","<a href=""http://www.edinburgh.gov.uk/schoolmeals"">Read the school meal menus</a>","Green Flag","Read more about <a href=""http://www.edinburgh.gov.uk/ecoschools"">Eco Schools in Edinburgh</a>",North,"<a href=""http://www.edinburgh.gov.uk/catchmentmap"">Read more about school catchments</a>","Nicky Wheatley 07799 868054","55.976039,-3.193071"
"Victoria Primary School","4-6 Newhaven Main Street","EH6 4HY","0131 476 7306",Admin@victoria.edin.sch.uk,http://www.victoria.edin.sch.uk,"P1-2 Mon-Thu 8.50am-2.40pm, Fri 8.50am-12.15pm, P3-7 Mon-Thu 8.50am-3.15pm, Fri 8.50am-12.25pm","Laura Thomson","<a href=""http://www.educationscotland.gov.uk/inspectionandreview/reports/school/index.asp"">Read Education Scotland's inspection reports</a>","Trinity Academy","Edinburgh Catering Services","<a href=""http://www.edinburgh.gov.uk/schoolmeals"">Read the school meal menus</a>",Silver,"Read more about <a href=""http://www.edinburgh.gov.uk/ecoschools"">Eco Schools in Edinburgh</a>",North,"<a href=""http://www.edinburgh.gov.uk/catchmentmap"">Read more about school catchments</a>","Nicky Wheatley 07799 868054","55.980526,-3.192744"
"Wardie Primary School","Granton Road","EH5 3NJ","0131 552 3896",Admin@wardie.edin.sch.uk,http://www.wardie.edin.sch.uk,"P1-2 Mon-Thu 8.55am-2.40pm, Fri 8.55am-12.20pm, P3-7 Mon-Thu 8.55am-3.15pm, Fri 8.55am-12.30pm","Jane Nieminska","<a href=""http://www.educationscotland.gov.uk/inspectionandreview/reports/school/index.asp"">Read Education Scotland's inspection reports</a>","Trinity Academy","Edinburgh Catering Services","<a href=""http://www.edinburgh.gov.uk/schoolmeals"">Read the school meal menus</a>","Green Flag","Read more about <a href=""http://www.edinburgh.gov.uk/ecoschools"">Eco Schools in Edinburgh</a>",North,"<a href=""http://www.edinburgh.gov.uk/catchmentmap"">Read more about school catchments</a>","Nicky Wheatley 07799 868054","55.975793,-3.215656"
